{
"type": "FeatureCollection",
"features": [
{
"type": "Feature",
"properties": {
"idzonacomercial_calc": "627"
},
"geometry": {
"type": "Polygon",
"coordinates": [
[
[
-76.980596,
-6.0279721
],
[
-76.9803787,
-6.0261325
],
[
-76.9826961,
-6.0241693
],
[
-76.9831682,
-6.0223768
],
[
-76.9733405,
-6.009317
],
[
-76.9804216,
-6.0035979
],
[
-76.9859815,
-5.997411
],
[
-76.9970965,
-5.9990328
],
[
-77.0120311,
-6.0054349
],
[
-77.0125031,
-6.0162327
],
[
-77.0082116,
-6.0251953
],
[
-76.9991095,
-6.029278
],
[
-76.9940495,
-6.0263049
],
[
-76.9892819,
-6.0230896
],
[
-76.9860244,
-6.0254087
],
[
-76.983664,
-6.0267317
],
[
-76.980596,
-6.0279721
]
]
]
}
}
]
}