{
"type": "FeatureCollection",
"features": [
{
"type": "Feature",
"properties": {
"idzonacomercial_calc": "789"
},
"geometry": {
"type": "Polygon",
"coordinates": [
[
[
-76.7739206,
-6.9363812
],
[
-76.7732876,
-6.93628
],
[
-76.772263,
-6.9360404
],
[
-76.7716354,
-6.9358167
],
[
-76.7710721,
-6.9356623
],
[
-76.770305,
-6.9354387
],
[
-76.7694681,
-6.9352683
],
[
-76.768803,
-6.9350925
],
[
-76.7682826,
-6.9349274
],
[
-76.7687922,
-6.9343843
],
[
-76.7695379,
-6.9343097
],
[
-76.770187,
-6.9341074
],
[
-76.7705088,
-6.933692
],
[
-76.7705196,
-6.9335109
],
[
-76.7699456,
-6.9325205
],
[
-76.7697203,
-6.932169
],
[
-76.7697685,
-6.9315939
],
[
-76.7698973,
-6.9307365
],
[
-76.7700368,
-6.9301028
],
[
-76.7701548,
-6.9295437
],
[
-76.7700743,
-6.9289472
],
[
-76.7702299,
-6.9286331
],
[
-76.7704552,
-6.9282496
],
[
-76.7706751,
-6.9281431
],
[
-76.7711365,
-6.9281644
],
[
-76.7712438,
-6.9281698
],
[
-76.7713993,
-6.9284786
],
[
-76.7716246,
-6.9281751
],
[
-76.7717963,
-6.9281165
],
[
-76.7718875,
-6.9266893
],
[
-76.771689,
-6.9266361
],
[
-76.7712974,
-6.9265935
],
[
-76.770659,
-6.9264976
],
[
-76.7702835,
-6.926439
],
[
-76.7702406,
-6.9257468
],
[
-76.7701816,
-6.9249852
],
[
-76.7701441,
-6.9246711
],
[
-76.7700475,
-6.9244527
],
[
-76.770085,
-6.9240586
],
[
-76.7713886,
-6.9240107
],
[
-76.7718821,
-6.9239628
],
[
-76.7723542,
-6.9247776
],
[
-76.7725634,
-6.9250758
],
[
-76.7726761,
-6.9252728
],
[
-76.7728048,
-6.9254698
],
[
-76.7735397,
-6.9254432
],
[
-76.7742264,
-6.9253633
],
[
-76.7746609,
-6.9252994
],
[
-76.7753475,
-6.9252089
],
[
-76.7755568,
-6.9252089
],
[
-76.776002,
-6.9253527
],
[
-76.7763185,
-6.9254113
],
[
-76.7769944,
-6.9255657
],
[
-76.7770695,
-6.9256509
],
[
-76.7774987,
-6.9260343
],
[
-76.7779815,
-6.9263964
],
[
-76.7781907,
-6.9265562
],
[
-76.7781639,
-6.9267905
],
[
-76.7792582,
-6.9274721
],
[
-76.7805081,
-6.9281431
],
[
-76.7801487,
-6.9288194
],
[
-76.7800307,
-6.9290537
],
[
-76.7795425,
-6.9294265
],
[
-76.7796927,
-6.9298312
],
[
-76.7797517,
-6.9301028
],
[
-76.7790758,
-6.9301774
],
[
-76.7784857,
-6.9298845
],
[
-76.7779278,
-6.9301827
],
[
-76.7774236,
-6.9304756
],
[
-76.7768389,
-6.9308643
],
[
-76.7762863,
-6.9312264
],
[
-76.7761093,
-6.9314235
],
[
-76.7756158,
-6.9317749
],
[
-76.7755299,
-6.9318974
],
[
-76.7753207,
-6.9320359
],
[
-76.7749077,
-6.9325205
],
[
-76.7746877,
-6.932792
],
[
-76.7744463,
-6.9329997
],
[
-76.7741781,
-6.9331808
],
[
-76.7736738,
-6.933708
],
[
-76.7736417,
-6.9341606
],
[
-76.7736631,
-6.9349168
],
[
-76.7737489,
-6.9354866
],
[
-76.773808,
-6.9358487
],
[
-76.7739206,
-6.9363812
]
]
]
}
}
]
}