{
"type": "FeatureCollection",
"features": [
{
"type": "Feature",
"properties": {
"idzonacomercial_calc": "745"
},
"geometry": {
"type": "Polygon",
"coordinates": [
[
[
-79.027399,
-8.095241
],
[
-79.029366,
-8.093145
],
[
-79.0279,
-8.088499
],
[
-79.028744,
-8.087536
],
[
-79.028951,
-8.080554
],
[
-79.029226,
-8.076213
],
[
-79.032711,
-8.077017
],
[
-79.03448,
-8.073572
],
[
-79.03512,
-8.072184
],
[
-79.039191,
-8.070374
],
[
-79.04206,
-8.071794
],
[
-79.04368,
-8.070385
],
[
-79.048726,
-8.072957
],
[
-79.045169,
-8.079515
],
[
-79.042992,
-8.082881
],
[
-79.041246,
-8.08646
],
[
-79.051101,
-8.083581
],
[
-79.051239,
-8.084282
],
[
-79.051534,
-8.085228
],
[
-79.052063,
-8.087079
],
[
-79.052607,
-8.088903
],
[
-79.052913,
-8.090135
],
[
-79.053079,
-8.090943
],
[
-79.04749,
-8.090879
],
[
-79.042579,
-8.09116
],
[
-79.041583,
-8.091555
],
[
-79.04057,
-8.091498
],
[
-79.034751,
-8.104867
],
[
-79.03327,
-8.105993
],
[
-79.031843,
-8.103922
],
[
-79.029821,
-8.09753
],
[
-79.027996,
-8.095805
],
[
-79.027399,
-8.095241
]
]
]
}
}
]
}