{
"type": "FeatureCollection",
"features": [
{
"type": "Feature",
"properties": {
"idzonacomercial_calc": "579"
},
"geometry": {
"type": "Polygon",
"coordinates": [
[
[
-76.3768102,
-6.4831958
],
[
-76.3762094,
-6.4818207
],
[
-76.3754261,
-6.4819166
],
[
-76.3744284,
-6.4820552
],
[
-76.3741601,
-6.4818846
],
[
-76.3733555,
-6.4808613
],
[
-76.3725937,
-6.4800511
],
[
-76.3720466,
-6.4794434
],
[
-76.3724543,
-6.476789
],
[
-76.3726688,
-6.475062
],
[
-76.3729478,
-6.4731325
],
[
-76.3731087,
-6.4715334
],
[
-76.3732589,
-6.4715121
],
[
-76.3753189,
-6.4713309
],
[
-76.3768853,
-6.4706913
],
[
-76.3773895,
-6.4707659
],
[
-76.3779582,
-6.4710217
],
[
-76.3794173,
-6.4718959
],
[
-76.3807047,
-6.4725675
],
[
-76.381842,
-6.4729513
],
[
-76.382711,
-6.4731325
],
[
-76.3839341,
-6.4730472
],
[
-76.384492,
-6.4728766
],
[
-76.3851036,
-6.4726421
],
[
-76.3857258,
-6.4726101
],
[
-76.3866592,
-6.4725035
],
[
-76.3876463,
-6.4722583
],
[
-76.3882471,
-6.472269
],
[
-76.3893629,
-6.4723649
],
[
-76.3899101,
-6.4726528
],
[
-76.3902427,
-6.4731325
],
[
-76.3903285,
-6.4739533
],
[
-76.3899744,
-6.4756057
],
[
-76.3882149,
-6.4763733
],
[
-76.3893844,
-6.4782068
],
[
-76.3880862,
-6.4789957
],
[
-76.386906,
-6.4795714
],
[
-76.3847066,
-6.4806694
],
[
-76.3818742,
-6.4819379
],
[
-76.3810588,
-6.4823644
],
[
-76.3807155,
-6.4814582
],
[
-76.3768102,
-6.4831958
]
]
]
}
}
]
}