{
"type": "FeatureCollection",
"features": [
{
"type": "Feature",
"properties": {
"idzonacomercial_calc": "400"
},
"geometry": {
"type": "Polygon",
"coordinates": [
[
[
-79.4889447,
-7.1633406
],
[
-79.489273,
-7.1639649
],
[
-79.48968,
-7.16471
],
[
-79.488865,
-7.1656042
],
[
-79.489595,
-7.1667539
],
[
-79.488994,
-7.1680313
],
[
-79.490195,
-7.1685422
],
[
-79.490496,
-7.1692661
],
[
-79.489466,
-7.1702454
],
[
-79.488822,
-7.1707564
],
[
-79.489809,
-7.1714376
],
[
-79.490625,
-7.172417
],
[
-79.490153,
-7.1736092
],
[
-79.489294,
-7.1744608
],
[
-79.488479,
-7.1753124
],
[
-79.487921,
-7.1760362
],
[
-79.489766,
-7.1786761
],
[
-79.492341,
-7.1814863
],
[
-79.496289,
-7.1850629
],
[
-79.498349,
-7.1884266
],
[
-79.497706,
-7.1906194
],
[
-79.496236,
-7.1951805
],
[
-79.497067,
-7.1947813
],
[
-79.498929,
-7.1942385
],
[
-79.500619,
-7.1937541
],
[
-79.501708,
-7.1932911
],
[
-79.502448,
-7.1928547
],
[
-79.503746,
-7.1921575
],
[
-79.504411,
-7.1918674
],
[
-79.50469,
-7.1914549
],
[
-79.50513,
-7.1907791
],
[
-79.505379,
-7.1895443
],
[
-79.505425,
-7.1887672
],
[
-79.505908,
-7.1885703
],
[
-79.506171,
-7.1885596
],
[
-79.506396,
-7.1889588
],
[
-79.506375,
-7.1898743
],
[
-79.506648,
-7.1899967
],
[
-79.507539,
-7.1903959
],
[
-79.508255,
-7.1901111
],
[
-79.508933,
-7.1895709
],
[
-79.508928,
-7.1893593
],
[
-79.509368,
-7.1882164
],
[
-79.509786,
-7.18807
],
[
-79.511251,
-7.1881605
],
[
-79.512452,
-7.1873196
],
[
-79.512259,
-7.186468
],
[
-79.513249,
-7.1859757
],
[
-79.514212,
-7.1854089
],
[
-79.51573,
-7.1857016
],
[
-79.517275,
-7.1849245
],
[
-79.517518,
-7.1847915
],
[
-79.517296,
-7.1843471
],
[
-79.517374,
-7.1842326
],
[
-79.517227,
-7.1834769
],
[
-79.517173,
-7.1828329
],
[
-79.518439,
-7.1818269
],
[
-79.518723,
-7.1813479
],
[
-79.519888,
-7.1804485
],
[
-79.520467,
-7.1807146
],
[
-79.521003,
-7.1815129
],
[
-79.52139,
-7.1823485
],
[
-79.521953,
-7.1827105
],
[
-79.521835,
-7.1830138
],
[
-79.520708,
-7.1839665
],
[
-79.51985,
-7.1850789
],
[
-79.519732,
-7.1859863
],
[
-79.519614,
-7.1862817
],
[
-79.519163,
-7.1867714
],
[
-79.518804,
-7.1872078
],
[
-79.519002,
-7.1879902
],
[
-79.519351,
-7.1887512
],
[
-79.519582,
-7.1896028
],
[
-79.519748,
-7.190771
],
[
-79.520124,
-7.1906726
],
[
-79.520526,
-7.1904917
],
[
-79.520791,
-7.1904836
],
[
-79.521226,
-7.1907364
],
[
-79.521725,
-7.1912793
],
[
-79.522119,
-7.19189
],
[
-79.522417,
-7.1925194
],
[
-79.522524,
-7.1926258
],
[
-79.522701,
-7.1927749
],
[
-79.52322,
-7.1930703
],
[
-79.523562,
-7.193504
],
[
-79.524522,
-7.1941799
],
[
-79.526539,
-7.1955317
],
[
-79.527301,
-7.1960586
],
[
-79.528098,
-7.195867
],
[
-79.52876,
-7.1955105
],
[
-79.529399,
-7.1946802
],
[
-79.529871,
-7.194454
],
[
-79.53015,
-7.1940681
],
[
-79.530858,
-7.1935093
],
[
-79.531276,
-7.1931581
],
[
-79.531915,
-7.1921655
],
[
-79.532328,
-7.1919446
],
[
-79.533186,
-7.1914283
],
[
-79.533272,
-7.1907577
],
[
-79.534157,
-7.1893261
],
[
-79.534945,
-7.1893154
],
[
-79.534768,
-7.1898237
],
[
-79.534409,
-7.1903426
],
[
-79.53421,
-7.190657
],
[
-79.533961,
-7.1915327
],
[
-79.533657,
-7.1921316
],
[
-79.53326,
-7.1928661
],
[
-79.532989,
-7.1931082
],
[
-79.532724,
-7.1933131
],
[
-79.532185,
-7.1937442
],
[
-79.530932,
-7.1942072
],
[
-79.530503,
-7.1943349
],
[
-79.530187,
-7.1943296
],
[
-79.529959,
-7.1945718
],
[
-79.52955,
-7.1947674
],
[
-79.528904,
-7.1956336
],
[
-79.528143,
-7.1960168
],
[
-79.527354,
-7.1962616
],
[
-79.526201,
-7.1967034
],
[
-79.525605,
-7.196738
],
[
-79.524393,
-7.1974219
],
[
-79.523975,
-7.1979368
],
[
-79.52369,
-7.1980585
],
[
-79.523363,
-7.1983612
],
[
-79.522632,
-7.1988176
],
[
-79.522097,
-7.1992234
],
[
-79.522078,
-7.1994656
],
[
-79.52172,
-7.1997636
],
[
-79.520423,
-7.200381
],
[
-79.520136,
-7.2014667
],
[
-79.520073,
-7.2016636
],
[
-79.520171,
-7.2019004
],
[
-79.520284,
-7.2023076
],
[
-79.520067,
-7.2024512
],
[
-79.519667,
-7.2028983
],
[
-79.51809,
-7.2040425
],
[
-79.517527,
-7.2043193
],
[
-79.516918,
-7.2042075
],
[
-79.516373,
-7.203819
],
[
-79.516212,
-7.2023129
],
[
-79.515563,
-7.2024352
],
[
-79.514826,
-7.2026322
],
[
-79.514388,
-7.2029355
],
[
-79.514002,
-7.2028238
],
[
-79.513648,
-7.2023714
],
[
-79.513487,
-7.201488
],
[
-79.513782,
-7.2009398
],
[
-79.513884,
-7.2008689
],
[
-79.514488,
-7.2009293
],
[
-79.51663,
-7.199299
],
[
-79.517098,
-7.1989619
],
[
-79.521073,
-7.1996388
],
[
-79.521554,
-7.1994503
],
[
-79.523209,
-7.1982736
],
[
-79.523579,
-7.1979753
],
[
-79.523849,
-7.1978368
],
[
-79.524242,
-7.1972992
],
[
-79.525519,
-7.1966179
],
[
-79.526078,
-7.1965509
],
[
-79.527141,
-7.1961661
],
[
-79.526451,
-7.1956601
],
[
-79.525381,
-7.1949439
],
[
-79.52444,
-7.1942904
],
[
-79.52348,
-7.1935969
],
[
-79.523333,
-7.1933703
],
[
-79.523134,
-7.1931438
],
[
-79.522679,
-7.1928773
],
[
-79.522348,
-7.1925962
],
[
-79.521839,
-7.1916554
],
[
-79.521651,
-7.1913739
],
[
-79.521135,
-7.1908316
],
[
-79.520742,
-7.1906015
],
[
-79.520593,
-7.1906082
],
[
-79.520045,
-7.1908278
],
[
-79.519786,
-7.1908918
],
[
-79.519627,
-7.1913336
],
[
-79.519505,
-7.1917621
],
[
-79.519451,
-7.1921734
],
[
-79.519403,
-7.1923099
],
[
-79.519408,
-7.1929946
],
[
-79.519407,
-7.1937135
],
[
-79.51887,
-7.1937192
],
[
-79.518359,
-7.193712
],
[
-79.51817,
-7.1938698
],
[
-79.517092,
-7.1944845
],
[
-79.517065,
-7.1945989
],
[
-79.51677,
-7.1945749
],
[
-79.516518,
-7.1944232
],
[
-79.515453,
-7.1938644
],
[
-79.514367,
-7.1934333
],
[
-79.514608,
-7.1917515
],
[
-79.514174,
-7.1910489
],
[
-79.513814,
-7.1904635
],
[
-79.513043,
-7.1906551
],
[
-79.512369,
-7.1909106
],
[
-79.512371,
-7.1911661
],
[
-79.510467,
-7.1912725
],
[
-79.509708,
-7.191339
],
[
-79.508981,
-7.1914907
],
[
-79.508085,
-7.191826
],
[
-79.507149,
-7.1921453
],
[
-79.506352,
-7.1927521
],
[
-79.504899,
-7.1926403
],
[
-79.504402,
-7.1924114
],
[
-79.504282,
-7.1922092
],
[
-79.501283,
-7.1937473
],
[
-79.499008,
-7.1944764
],
[
-79.497088,
-7.1950512
],
[
-79.496155,
-7.195674
],
[
-79.487228,
-7.2260998
],
[
-79.486027,
-7.2286542
],
[
-79.487228,
-7.2300166
],
[
-79.489374,
-7.232571
],
[
-79.487571,
-7.233678
],
[
-79.486885,
-7.2328265
],
[
-79.485254,
-7.2318047
],
[
-79.483795,
-7.231975
],
[
-79.478044,
-7.2380205
],
[
-79.477443,
-7.2405749
],
[
-79.479246,
-7.2422778
],
[
-79.481649,
-7.2450876
],
[
-79.484138,
-7.2473014
],
[
-79.483452,
-7.2504517
],
[
-79.481392,
-7.251218
],
[
-79.479246,
-7.2521546
],
[
-79.477873,
-7.2540278
],
[
-79.476328,
-7.2528357
],
[
-79.471779,
-7.2525803
],
[
-79.47032,
-7.2517289
],
[
-79.467487,
-7.2533466
],
[
-79.465856,
-7.2523249
],
[
-79.463625,
-7.2530912
],
[
-79.461736,
-7.2522397
],
[
-79.460792,
-7.2498557
],
[
-79.45899,
-7.2498557
],
[
-79.459247,
-7.2477271
],
[
-79.461221,
-7.2461945
],
[
-79.460449,
-7.2438104
],
[
-79.459247,
-7.2421075
],
[
-79.456587,
-7.2402343
],
[
-79.458046,
-7.2387868
],
[
-79.455814,
-7.2369136
],
[
-79.451437,
-7.2337631
],
[
-79.452638,
-7.2322304
],
[
-79.45693,
-7.2360621
],
[
-79.460964,
-7.2392125
],
[
-79.462337,
-7.2375096
],
[
-79.464655,
-7.2351255
],
[
-79.467659,
-7.2340185
],
[
-79.470749,
-7.2329116
],
[
-79.471521,
-7.2305275
],
[
-79.469805,
-7.2278027
],
[
-79.469118,
-7.2243968
],
[
-79.467916,
-7.2178402
],
[
-79.468002,
-7.2163927
],
[
-79.465942,
-7.2163927
],
[
-79.464226,
-7.2170739
],
[
-79.463882,
-7.2152006
],
[
-79.465856,
-7.2141787
],
[
-79.466972,
-7.2127312
],
[
-79.468345,
-7.2114539
],
[
-79.468946,
-7.2131569
],
[
-79.470835,
-7.2144342
],
[
-79.470835,
-7.2166481
],
[
-79.469204,
-7.2185214
],
[
-79.470062,
-7.2243116
],
[
-79.470749,
-7.2272067
],
[
-79.472551,
-7.2304423
],
[
-79.47195,
-7.232571
],
[
-79.473152,
-7.2353809
],
[
-79.474268,
-7.2372541
],
[
-79.476843,
-7.2370838
],
[
-79.484482,
-7.2294206
],
[
-79.485769,
-7.2261849
],
[
-79.49727,
-7.1882069
],
[
-79.494781,
-7.1850561
],
[
-79.491176,
-7.181735
],
[
-79.4874,
-7.1769661
],
[
-79.486284,
-7.1751778
],
[
-79.484567,
-7.1744114
],
[
-79.483108,
-7.1741772
],
[
-79.481714,
-7.1749223
],
[
-79.479589,
-7.1757526
],
[
-79.478709,
-7.174901
],
[
-79.47931,
-7.1739004
],
[
-79.479933,
-7.1725805
],
[
-79.479654,
-7.1718779
],
[
-79.478484,
-7.1707815
],
[
-79.478645,
-7.1704941
],
[
-79.480619,
-7.1695573
],
[
-79.482937,
-7.1695573
],
[
-79.483623,
-7.1687057
],
[
-79.485512,
-7.1670877
],
[
-79.487314,
-7.165129
],
[
-79.488945,
-7.1633406
]
]
]
}
}
]
}