{
"type": "FeatureCollection",
"features": [
{
"type": "Feature",
"properties": {
"idzonacomercial_calc": "744"
},
"geometry": {
"type": "Polygon",
"coordinates": [
[
[
-79.014269,
-8.112526
],
[
-79.01237,
-8.109255
],
[
-79.010557,
-8.105134
],
[
-79.01119,
-8.102839
],
[
-79.01185,
-8.101522
],
[
-79.014197,
-8.099504
],
[
-79.018589,
-8.103763
],
[
-79.022122,
-8.10729
],
[
-79.024112,
-8.105713
],
[
-79.026438,
-8.105222
],
[
-79.028974,
-8.106293
],
[
-79.029793,
-8.107152
],
[
-79.030823,
-8.10831
],
[
-79.031896,
-8.109595
],
[
-79.03301,
-8.110893
],
[
-79.032725,
-8.113726
],
[
-79.031297,
-8.115738
],
[
-79.032733,
-8.117552
],
[
-79.032729,
-8.118336
],
[
-79.035837,
-8.12571
],
[
-79.032524,
-8.126756
],
[
-79.030335,
-8.12684
],
[
-79.023878,
-8.12415
],
[
-79.021904,
-8.12221
],
[
-79.016926,
-8.116836
],
[
-79.015209,
-8.114881
],
[
-79.014136,
-8.112481
],
[
-79.014269,
-8.112526
]
]
]
}
},
{
"type": "Feature",
"properties": {
"idzonacomercial_calc": "736"
},
"geometry": {
"type": "Polygon",
"coordinates": [
[
[
-80.6385853,
-5.1865017
],
[
-80.6467106,
-5.1814394
],
[
-80.6627323,
-5.1753608
],
[
-80.6692936,
-5.1734612
],
[
-80.6697514,
-5.170118
],
[
-80.6721928,
-5.1677625
],
[
-80.6771137,
-5.1684178
],
[
-80.6778767,
-5.1655305
],
[
-80.6803181,
-5.1643147
],
[
-80.6832173,
-5.1659864
],
[
-80.6877949,
-5.1626431
],
[
-80.6916096,
-5.1681139
],
[
-80.6890156,
-5.1697856
],
[
-80.6752827,
-5.1756363
],
[
-80.674596,
-5.176738
],
[
-80.6574299,
-5.1848301
],
[
-80.6415226,
-5.1929221
],
[
-80.6385853,
-5.1865017
]
]
]
}
}
]
}