{
"type": "FeatureCollection",
"features": [
{
"type": "Feature",
"properties": {
"idzonacomercial_calc": "760"
},
"geometry": {
"type": "Polygon",
"coordinates": [
[
[
-80.4563363,
-3.5651002
],
[
-80.4549186,
-3.5665388
],
[
-80.452946,
-3.5672419
],
[
-80.4465692,
-3.5700535
],
[
-80.4415305,
-3.5698974
],
[
-80.4417022,
-3.5662995
],
[
-80.4453071,
-3.5639438
],
[
-80.4359515,
-3.5633441
],
[
-80.4319604,
-3.5606457
],
[
-80.4331313,
-3.5593005
],
[
-80.4333418,
-3.5574415
],
[
-80.4354782,
-3.5544521
],
[
-80.4351668,
-3.5481892
],
[
-80.4388269,
-3.5512225
],
[
-80.4414018,
-3.5527216
],
[
-80.4512696,
-3.5519181
],
[
-80.4581485,
-3.556025
],
[
-80.4602766,
-3.5584299
],
[
-80.4622973,
-3.5627779
],
[
-80.4618968,
-3.5659874
],
[
-80.4612419,
-3.5702691
],
[
-80.4599258,
-3.5696647
],
[
-80.4586298,
-3.5691611
],
[
-80.4566067,
-3.5650231
],
[
-80.4563363,
-3.5651002
]
]
]
}
}
]
}