{
"type": "FeatureCollection",
"features": [
{
"type": "Feature",
"properties": {
"idzonacomercial_calc": "413"
},
"geometry": {
"type": "Polygon",
"coordinates": [
[
[
-80.4832495,
-3.5967042
],
[
-80.492305,
-3.5987173
],
[
-80.491532,
-3.60133
],
[
-80.489172,
-3.6035143
],
[
-80.492305,
-3.6064696
],
[
-80.495738,
-3.6088681
],
[
-80.493506,
-3.6111809
],
[
-80.489215,
-3.6111809
],
[
-80.484194,
-3.6104957
],
[
-80.478872,
-3.6087396
],
[
-80.474023,
-3.6059985
],
[
-80.473594,
-3.6033002
],
[
-80.476469,
-3.5993597
],
[
-80.4832495,
-3.5967042
]
]
]
}
},
{
"type": "Feature",
"properties": {
"idzonacomercial_calc": "414"
},
"geometry": {
"type": "Polygon",
"coordinates": [
[
[
-80.5331019,
-3.6158336
],
[
-80.533445,
-3.6226864
],
[
-80.522459,
-3.6214872
],
[
-80.515764,
-3.6213158
],
[
-80.509756,
-3.61926
],
[
-80.506838,
-3.6132638
],
[
-80.511301,
-3.6105227
],
[
-80.521429,
-3.6146344
],
[
-80.533102,
-3.6158336
],
[
-80.5331019,
-3.6158336
]
]
]
}
},
{
"type": "Feature",
"properties": {
"idzonacomercial_calc": "415"
},
"geometry": {
"type": "Polygon",
"coordinates": [
[
[
-80.5801886,
-3.6313546
],
[
-80.572464,
-3.6356375
],
[
-80.544655,
-3.6212468
],
[
-80.547401,
-3.6152507
],
[
-80.556843,
-3.6179918
],
[
-80.580189,
-3.6313546
],
[
-80.5801886,
-3.6313546
]
]
]
}
}
]
}