{
"type": "FeatureCollection",
"features": [
{
"type": "Feature",
"properties": {
"idzonacomercial_calc": "747"
},
"geometry": {
"type": "Polygon",
"coordinates": [
[
[
-79.016789,
-8.117113
],
[
-79.015931,
-8.117113
],
[
-79.01546,
-8.117213
],
[
-79.01385,
-8.118324
],
[
-79.010396,
-8.121249
],
[
-79.009409,
-8.121717
],
[
-79.006791,
-8.122736
],
[
-79.008937,
-8.125371
],
[
-79.007564,
-8.125625
],
[
-79.007178,
-8.125923
],
[
-79.007907,
-8.127155
],
[
-79.006705,
-8.128302
],
[
-79.005246,
-8.12673
],
[
-79.002757,
-8.127155
],
[
-79.001212,
-8.125795
],
[
-79.00147,
-8.1252
],
[
-79.0007186,
-8.1237559
],
[
-79.000418,
-8.1231936
],
[
-78.9997314,
-8.1219297
],
[
-79.0007741,
-8.1198315
],
[
-79.0017498,
-8.1198784
],
[
-79.0022848,
-8.1196986
],
[
-79.0037394,
-8.1189284
],
[
-79.004029,
-8.1187752
],
[
-79.0046244,
-8.1183175
],
[
-79.0055358,
-8.1176644
],
[
-79.0081435,
-8.1156627
],
[
-79.0067594,
-8.1148816
],
[
-79.0065762,
-8.1147913
],
[
-79.0067803,
-8.1136658
],
[
-79.0070111,
-8.1125031
],
[
-79.0076872,
-8.1084763
],
[
-79.0034763,
-8.107875
],
[
-79.00397,
-8.105231
],
[
-79.002232,
-8.102905
],
[
-79.004528,
-8.100589
],
[
-79.007425,
-8.098295
],
[
-79.004335,
-8.094301
],
[
-79.002189,
-8.086993
],
[
-79.008674,
-8.08617
],
[
-79.010286,
-8.086184
],
[
-79.01135,
-8.08653
],
[
-79.015229,
-8.094267
],
[
-79.016224,
-8.09822
],
[
-79.014191,
-8.099499
],
[
-79.01185,
-8.101522
],
[
-79.01119,
-8.102839
],
[
-79.010557,
-8.105134
],
[
-79.013872,
-8.11288
],
[
-79.014859,
-8.114962
],
[
-79.016789,
-8.117113
]
]
]
}
}
]
}