{
"type": "FeatureCollection",
"features": [
{
"type": "Feature",
"properties": {
"idzonacomercial_calc": "783"
},
"geometry": {
"type": "Polygon",
"coordinates": [
[
[
-79.5584458,
-7.4016211
],
[
-79.5584136,
-7.400089
],
[
-79.559793,
-7.4001399
],
[
-79.5622606,
-7.4000016
],
[
-79.5645328,
-7.3999984
],
[
-79.5665605,
-7.3999399
],
[
-79.5669307,
-7.3998973
],
[
-79.568081,
-7.3994643
],
[
-79.5681937,
-7.399693
],
[
-79.5695163,
-7.3991791
],
[
-79.5715679,
-7.3983791
],
[
-79.571823,
-7.3988334
],
[
-79.5723219,
-7.3995728
],
[
-79.5728798,
-7.4003655
],
[
-79.5732553,
-7.4009453
],
[
-79.5734162,
-7.4009347
],
[
-79.5736523,
-7.4012592
],
[
-79.5738132,
-7.4015358
],
[
-79.5738347,
-7.4017433
],
[
-79.5738776,
-7.4018816
],
[
-79.5741029,
-7.4020678
],
[
-79.5741512,
-7.4024242
],
[
-79.5745106,
-7.4027114
],
[
-79.5752509,
-7.4032966
],
[
-79.5753421,
-7.4036477
],
[
-79.5757015,
-7.4039297
],
[
-79.5760502,
-7.4043712
],
[
-79.5762379,
-7.4046691
],
[
-79.5764793,
-7.4052011
],
[
-79.5766027,
-7.4057064
],
[
-79.5767046,
-7.4061001
],
[
-79.5769621,
-7.4064512
],
[
-79.5770962,
-7.4066799
],
[
-79.5772733,
-7.4068874
],
[
-79.5774932,
-7.4069832
],
[
-79.5778043,
-7.407047
],
[
-79.5780404,
-7.4071481
],
[
-79.5781852,
-7.4072704
],
[
-79.5783193,
-7.4075204
],
[
-79.5785983,
-7.4078662
],
[
-79.5787646,
-7.408095
],
[
-79.5788397,
-7.4085684
],
[
-79.5798058,
-7.4093939
],
[
-79.5806856,
-7.4103089
],
[
-79.5816726,
-7.4112239
],
[
-79.5826382,
-7.4120963
],
[
-79.5837111,
-7.4125006
],
[
-79.5848054,
-7.4128623
],
[
-79.5869297,
-7.4131176
],
[
-79.5878739,
-7.4142454
],
[
-79.5878739,
-7.4165647
],
[
-79.5867795,
-7.4175435
],
[
-79.5846767,
-7.4174158
],
[
-79.579441,
-7.4157987
],
[
-79.5767373,
-7.4135432
],
[
-79.5762653,
-7.4120537
],
[
-79.5739049,
-7.4120963
],
[
-79.5725746,
-7.4121814
],
[
-79.5727033,
-7.4136709
],
[
-79.5709867,
-7.4138411
],
[
-79.5709867,
-7.4250759
],
[
-79.5694847,
-7.4223523
],
[
-79.5686693,
-7.4234588
],
[
-79.5672101,
-7.424012
],
[
-79.5660943,
-7.4221396
],
[
-79.5648927,
-7.4232034
],
[
-79.5657081,
-7.4237992
],
[
-79.5647211,
-7.4250333
],
[
-79.5662231,
-7.4260547
],
[
-79.567811,
-7.4280122
],
[
-79.5669956,
-7.4294165
],
[
-79.5657939,
-7.4312038
],
[
-79.5649356,
-7.4324379
],
[
-79.5638198,
-7.4312038
],
[
-79.5620174,
-7.4324379
],
[
-79.561202,
-7.4334167
],
[
-79.5618028,
-7.434821
],
[
-79.5609874,
-7.4355019
],
[
-79.5609445,
-7.4366508
],
[
-79.5616741,
-7.4377572
],
[
-79.563219,
-7.4366508
],
[
-79.5644636,
-7.4380977
],
[
-79.5656652,
-7.4386509
],
[
-79.5663947,
-7.4397998
],
[
-79.5646781,
-7.4413743
],
[
-79.5656652,
-7.4419701
],
[
-79.5694417,
-7.4429488
],
[
-79.5725316,
-7.4437999
],
[
-79.5736474,
-7.4449914
],
[
-79.5741195,
-7.4459276
],
[
-79.5760507,
-7.4467361
],
[
-79.5777673,
-7.4475872
],
[
-79.578454,
-7.4485659
],
[
-79.5777244,
-7.4501404
],
[
-79.5773811,
-7.4527786
],
[
-79.5769519,
-7.4544382
],
[
-79.5766944,
-7.4556297
],
[
-79.5760936,
-7.4596721
],
[
-79.5757932,
-7.4623529
],
[
-79.5752658,
-7.4622903
],
[
-79.5748242,
-7.4595044
],
[
-79.5738801,
-7.4576321
],
[
-79.5746526,
-7.4561854
],
[
-79.5738801,
-7.4536322
],
[
-79.5699319,
-7.4549939
],
[
-79.5651254,
-7.4567811
],
[
-79.5619496,
-7.4565258
],
[
-79.5574006,
-7.4551854
],
[
-79.5568427,
-7.4591428
],
[
-79.5570998,
-7.461312
],
[
-79.558001,
-7.4630779
],
[
-79.5593743,
-7.4658012
],
[
-79.5584086,
-7.4741837
],
[
-79.5579795,
-7.4803854
],
[
-79.5586232,
-7.480311
],
[
-79.558752,
-7.4838214
],
[
-79.5583657,
-7.4849702
],
[
-79.5583014,
-7.4856936
],
[
-79.557722,
-7.4863105
],
[
-79.5570997,
-7.4867785
],
[
-79.5567564,
-7.48747
],
[
-79.5553188,
-7.4885231
],
[
-79.5543532,
-7.488321
],
[
-79.5540313,
-7.4876508
],
[
-79.5551685,
-7.4864807
],
[
-79.5552543,
-7.484098
],
[
-79.555544,
-7.4823428
],
[
-79.5567993,
-7.4819279
],
[
-79.5572607,
-7.480577
],
[
-79.5573572,
-7.4788643
],
[
-79.5576362,
-7.4739497
],
[
-79.5582585,
-7.4657799
],
[
-79.5560912,
-7.4615885
],
[
-79.5558123,
-7.4595035
],
[
-79.5564131,
-7.4552057
],
[
-79.5567135,
-7.4535675
],
[
-79.5601253,
-7.4543759
],
[
-79.5640735,
-7.4554823
],
[
-79.5675926,
-7.4540355
],
[
-79.5708541,
-7.4532696
],
[
-79.5743732,
-7.451993
],
[
-79.5754031,
-7.4487589
],
[
-79.5729999,
-7.4468866
],
[
-79.5714549,
-7.4447589
],
[
-79.5687083,
-7.4441632
],
[
-79.5646743,
-7.4431419
],
[
-79.5620994,
-7.4423759
],
[
-79.5607261,
-7.4421206
],
[
-79.5593528,
-7.4390567
],
[
-79.5576362,
-7.4365034
],
[
-79.5543746,
-7.4338651
],
[
-79.5520572,
-7.431482
],
[
-79.5499114,
-7.4278223
],
[
-79.5489673,
-7.4253541
],
[
-79.5469932,
-7.4218645
],
[
-79.5436458,
-7.4218645
],
[
-79.542015,
-7.4201623
],
[
-79.5419721,
-7.4179493
],
[
-79.5413713,
-7.4162045
],
[
-79.5418863,
-7.4154385
],
[
-79.5433883,
-7.4150555
],
[
-79.5432596,
-7.4164599
],
[
-79.5442037,
-7.4167578
],
[
-79.5457916,
-7.415779
],
[
-79.5464353,
-7.41463
],
[
-79.5462207,
-7.4134809
],
[
-79.5475082,
-7.4127149
],
[
-79.5484952,
-7.4118212
],
[
-79.5492248,
-7.4122042
],
[
-79.5504693,
-7.4132256
],
[
-79.5517139,
-7.4124596
],
[
-79.5539884,
-7.4104594
],
[
-79.5564346,
-7.4083741
],
[
-79.5564346,
-7.4058632
],
[
-79.5569495,
-7.4049695
],
[
-79.557722,
-7.4041397
],
[
-79.5580653,
-7.4035013
],
[
-79.5582155,
-7.4022246
],
[
-79.5584458,
-7.4016211
]
]
]
}
}
]
}