{
"type": "FeatureCollection",
"features": [
{
"type": "Feature",
"properties": {
"idzonacomercial_calc": "584"
},
"geometry": {
"type": "Polygon",
"coordinates": [
[
[
-78.5518759,
-7.8952962
],
[
-78.552863,
-7.894786
],
[
-78.5577553,
-7.8947435
],
[
-78.5622185,
-7.8937233
],
[
-78.5641068,
-7.894531
],
[
-78.5660809,
-7.8954662
],
[
-78.5686558,
-7.8956787
],
[
-78.5702437,
-7.894616
],
[
-78.5705441,
-7.8953812
],
[
-78.5705441,
-7.8965714
],
[
-78.5690421,
-7.8984843
],
[
-78.5688275,
-7.8990369
],
[
-78.5697287,
-7.9003121
],
[
-78.5706728,
-7.9017149
],
[
-78.5732478,
-7.9028626
],
[
-78.5730332,
-7.9042654
],
[
-78.5719603,
-7.9047754
],
[
-78.5692995,
-7.905328
],
[
-78.5682696,
-7.9059231
],
[
-78.5672825,
-7.9058381
],
[
-78.56651,
-7.9052005
],
[
-78.5662526,
-7.9060507
],
[
-78.5672825,
-7.9072409
],
[
-78.5677117,
-7.911024
],
[
-78.5677117,
-7.9126818
],
[
-78.5688704,
-7.914127
],
[
-78.56857,
-7.9150621
],
[
-78.5672396,
-7.9161673
],
[
-78.5658234,
-7.9161673
],
[
-78.5648363,
-7.9151897
],
[
-78.5644501,
-7.9127668
],
[
-78.562991,
-7.9111515
],
[
-78.5620468,
-7.9094513
],
[
-78.561446,
-7.9079635
],
[
-78.5601586,
-7.9085586
],
[
-78.5587424,
-7.9081335
],
[
-78.557927,
-7.9060507
],
[
-78.5574978,
-7.9042654
],
[
-78.5557812,
-7.9020975
],
[
-78.5540646,
-7.9014598
],
[
-78.5523909,
-7.9012048
],
[
-78.5514038,
-7.9004822
],
[
-78.5505455,
-7.8991644
],
[
-78.5490006,
-7.8979742
],
[
-78.5518759,
-7.8952962
]
]
]
}
}
]
}