{
"type": "FeatureCollection",
"features": [
{
"type": "Feature",
"properties": {
"idzonacomercial_calc": "719"
},
"geometry": {
"type": "Polygon",
"coordinates": [
[
[
-80.0483368,
-5.2221449
],
[
-80.0841067,
-5.2135119
],
[
-80.0836347,
-5.2108622
],
[
-80.0863598,
-5.2074431
],
[
-80.097668,
-5.181244
],
[
-80.1254557,
-5.1796413
],
[
-80.1426004,
-5.1884136
],
[
-80.1285027,
-5.2069302
],
[
-80.1330732,
-5.2160334
],
[
-80.1179455,
-5.23909
],
[
-80.1097701,
-5.2538124
],
[
-80.092604,
-5.2500303
],
[
-80.0769828,
-5.2466969
],
[
-80.0658891,
-5.2430644
],
[
-80.0559221,
-5.2405964
],
[
-80.0415776,
-5.2275298
],
[
-80.0483368,
-5.2221449
]
]
]
}
}
]
}