{
"type": "FeatureCollection",
"features": [
{
"type": "Feature",
"properties": {
"idzonacomercial_calc": "536"
},
"geometry": {
"type": "Polygon",
"coordinates": [
[
[
-80.4349957,
-3.5536386
],
[
-80.429503,
-3.566317
],
[
-80.428129,
-3.5733414
],
[
-80.416628,
-3.5853343
],
[
-80.408388,
-3.5863623
],
[
-80.405127,
-3.5813938
],
[
-80.413366,
-3.5723135
],
[
-80.416113,
-3.5685443
],
[
-80.412851,
-3.5604918
],
[
-80.422121,
-3.5539812
],
[
-80.4349957,
-3.5536386
]
]
]
}
},
{
"type": "Feature",
"properties": {
"idzonacomercial_calc": "537"
},
"geometry": {
"type": "Polygon",
"coordinates": [
[
[
-80.4401018,
-3.6060661
],
[
-80.428086,
-3.6458118
],
[
-80.435639,
-3.6663692
],
[
-80.445252,
-3.6882966
],
[
-80.430832,
-3.7170755
],
[
-80.423622,
-3.7013158
],
[
-80.412293,
-3.6790461
],
[
-80.412636,
-3.662943
],
[
-80.420532,
-3.6478675
],
[
-80.422936,
-3.634505
],
[
-80.429116,
-3.6180585
],
[
-80.420876,
-3.6101778
],
[
-80.440102,
-3.6060661
],
[
-80.4401018,
-3.6060661
]
]
]
}
},
{
"type": "Feature",
"properties": {
"idzonacomercial_calc": "538"
},
"geometry": {
"type": "Polygon",
"coordinates": [
[
[
-80.2481039,
-3.5663905
],
[
-80.243297,
-3.5773555
],
[
-80.213772,
-3.5752996
],
[
-80.219951,
-3.5663905
],
[
-80.2481039,
-3.5663905
]
]
]
}
},
{
"type": "Feature",
"properties": {
"idzonacomercial_calc": "539"
},
"geometry": {
"type": "Polygon",
"coordinates": [
[
[
-80.211025,
-3.6792892
],
[
-80.27454,
-3.6840858
],
[
-80.286213,
-3.6851137
],
[
-80.282093,
-3.6926511
],
[
-80.259434,
-3.7029294
],
[
-80.192142,
-3.6878546
],
[
-80.189052,
-3.6810023
],
[
-80.211025,
-3.6792892
]
]
]
}
},
{
"type": "Feature",
"properties": {
"idzonacomercial_calc": "540"
},
"geometry": {
"type": "Polygon",
"coordinates": [
[
[
-80.4559,
-3.7038715
],
[
-80.455986,
-3.7090106
],
[
-80.450407,
-3.7077258
],
[
-80.449034,
-3.7038715
],
[
-80.4559,
-3.7038715
]
]
]
}
},
{
"type": "Feature",
"properties": {
"idzonacomercial_calc": "541"
},
"geometry": {
"type": "Polygon",
"coordinates": [
[
[
-80.4562433,
-3.7333565
],
[
-80.463024,
-3.7571665
],
[
-80.467659,
-3.7650459
],
[
-80.460277,
-3.7673584
],
[
-80.451523,
-3.7471458
],
[
-80.451179,
-3.7349839
],
[
-80.452724,
-3.732757
],
[
-80.456243,
-3.7333565
],
[
-80.4562433,
-3.7333565
]
]
]
}
},
{
"type": "Feature",
"properties": {
"idzonacomercial_calc": "542"
},
"geometry": {
"type": "Polygon",
"coordinates": [
[
[
-80.685932,
-3.6806924
],
[
-80.683357,
-3.6853177
],
[
-80.663444,
-3.681549
],
[
-80.631,
-3.6714418
],
[
-80.613148,
-3.6565378
],
[
-80.604393,
-3.6447172
],
[
-80.578815,
-3.6419761
],
[
-80.5886,
-3.6340956
],
[
-80.618641,
-3.6455737
],
[
-80.627396,
-3.6592788
],
[
-80.640613,
-3.6669877
],
[
-80.65881,
-3.6663025
],
[
-80.685932,
-3.6806924
]
]
]
}
},
{
"type": "Feature",
"properties": {
"idzonacomercial_calc": "543"
},
"geometry": {
"type": "Polygon",
"coordinates": [
[
[
-80.2375794,
-3.5329608
],
[
-80.235863,
-3.5418702
],
[
-80.230885,
-3.5526642
],
[
-80.218182,
-3.5658566
],
[
-80.212517,
-3.5655139
],
[
-80.210972,
-3.5612307
],
[
-80.221443,
-3.5507795
],
[
-80.224705,
-3.5434122
],
[
-80.226936,
-3.5365589
],
[
-80.233116,
-3.5327895
],
[
-80.237579,
-3.5329608
],
[
-80.2375794,
-3.5329608
]
]
]
}
},
{
"type": "Feature",
"properties": {
"idzonacomercial_calc": "544"
},
"geometry": {
"type": "Polygon",
"coordinates": [
[
[
-80.3941989,
-3.5013704
],
[
-80.394177,
-3.5039405
],
[
-80.393813,
-3.5057181
],
[
-80.391431,
-3.507303
],
[
-80.389113,
-3.5061679
],
[
-80.387933,
-3.5054397
],
[
-80.386217,
-3.5052041
],
[
-80.386496,
-3.5044117
],
[
-80.387654,
-3.5034265
],
[
-80.386581,
-3.5008778
],
[
-80.384607,
-3.4984576
],
[
-80.385938,
-3.4983077
],
[
-80.389199,
-3.4995499
],
[
-80.394199,
-3.5013704
],
[
-80.3941989,
-3.5013704
]
]
]
}
}
]
}