{
"type": "FeatureCollection",
"features": [
{
"type": "Feature",
"properties": {
"idzonacomercial_calc": "585"
},
"geometry": {
"type": "Polygon",
"coordinates": [
[
[
-78.1787753,
-8.1399021
],
[
-78.181479,
-8.1407518
],
[
-78.1831098,
-8.1428759
],
[
-78.1842256,
-8.145255
],
[
-78.1842685,
-8.1469118
],
[
-78.1826806,
-8.1493333
],
[
-78.1800199,
-8.150013
],
[
-78.1761575,
-8.1502679
],
[
-78.1732821,
-8.1500979
],
[
-78.1721664,
-8.1500979
],
[
-78.1698489,
-8.1515423
],
[
-78.168776,
-8.1529442
],
[
-78.1666303,
-8.1530717
],
[
-78.1654286,
-8.1519671
],
[
-78.1649995,
-8.1506927
],
[
-78.1637979,
-8.1503103
],
[
-78.1619954,
-8.1489934
],
[
-78.161695,
-8.1478039
],
[
-78.1618667,
-8.1470392
],
[
-78.1634975,
-8.1457648
],
[
-78.1663299,
-8.1456373
],
[
-78.1682611,
-8.1456798
],
[
-78.1685615,
-8.1446602
],
[
-78.1664586,
-8.1431733
],
[
-78.1646562,
-8.1416864
],
[
-78.1645703,
-8.1400721
],
[
-78.1660724,
-8.1399021
],
[
-78.1694627,
-8.1396897
],
[
-78.1722951,
-8.1399871
],
[
-78.1737542,
-8.1407518
],
[
-78.1746984,
-8.1412191
],
[
-78.1763291,
-8.1407943
],
[
-78.1787753,
-8.1399021
]
]
]
}
}
]
}