{
"type": "FeatureCollection",
"features": [
{
"type": "Feature",
"properties": {
"idzonacomercial_calc": "593"
},
"geometry": {
"type": "Polygon",
"coordinates": [
[
[
-76.4680006,
-7.0269568
],
[
-76.4701367,
-7.0291811
],
[
-76.4716817,
-7.0290107
],
[
-76.4739133,
-7.02752
],
[
-76.4749003,
-7.0289681
],
[
-76.4746858,
-7.0304163
],
[
-76.4757586,
-7.0305441
],
[
-76.4772607,
-7.02982
],
[
-76.4774753,
-7.0305015
],
[
-76.4780332,
-7.0313107
],
[
-76.4784623,
-7.0319496
],
[
-76.4935685,
-7.0367626
],
[
-76.4942122,
-7.035357
],
[
-76.494856,
-7.0360385
],
[
-76.4979459,
-7.0368477
],
[
-76.4986325,
-7.0378274
],
[
-76.49889,
-7.039957
],
[
-76.4973021,
-7.0404255
],
[
-76.4962293,
-7.0398292
],
[
-76.4956714,
-7.0386792
],
[
-76.4946414,
-7.0384662
],
[
-76.4931394,
-7.0382533
],
[
-76.4932681,
-7.0371033
],
[
-76.4787198,
-7.0324607
],
[
-76.4790631,
-7.0344626
],
[
-76.4800931,
-7.0348459
],
[
-76.4796639,
-7.03672
],
[
-76.4768315,
-7.0362089
],
[
-76.4759303,
-7.0347181
],
[
-76.4742566,
-7.0340793
],
[
-76.4732266,
-7.0351867
],
[
-76.4732266,
-7.0340367
],
[
-76.4721967,
-7.033483
],
[
-76.4679051,
-7.0327163
],
[
-76.4651585,
-7.0339515
],
[
-76.464429,
-7.0310126
],
[
-76.4661456,
-7.0309274
],
[
-76.4679051,
-7.0290533
],
[
-76.4670993,
-7.0272124
],
[
-76.4680006,
-7.0269568
]
]
]
}
},
{
"type": "Feature",
"properties": {
"idzonacomercial_calc": "602"
},
"geometry": {
"type": "Polygon",
"coordinates": [
[
[
-76.7206443,
-7.2091064
],
[
-76.7215884,
-7.2097025
],
[
-76.7220176,
-7.2102986
],
[
-76.7230046,
-7.2109798
],
[
-76.7230475,
-7.2116184
],
[
-76.7216313,
-7.213066
],
[
-76.7208589,
-7.2145136
],
[
-76.7201293,
-7.2148116
],
[
-76.7195285,
-7.2131086
],
[
-76.7185414,
-7.2120016
],
[
-76.7189706,
-7.2101708
],
[
-76.7194427,
-7.209149
],
[
-76.7206443,
-7.2091064
]
]
]
}
},
{
"type": "Feature",
"properties": {
"idzonacomercial_calc": "603"
},
"geometry": {
"type": "Polygon",
"coordinates": [
[
[
-76.6873475,
-7.1718563
],
[
-76.6894933,
-7.1734318
],
[
-76.6898366,
-7.174624
],
[
-76.69018,
-7.1758162
],
[
-76.6909524,
-7.1776897
],
[
-76.6917249,
-7.1793929
],
[
-76.6927978,
-7.1802444
],
[
-76.6943427,
-7.1815644
],
[
-76.6960164,
-7.1823308
],
[
-76.6970035,
-7.183523
],
[
-76.6981622,
-7.1851836
],
[
-76.6971322,
-7.1865035
],
[
-76.6950723,
-7.1859074
],
[
-76.6925832,
-7.1848004
],
[
-76.691167,
-7.1836507
],
[
-76.6895362,
-7.1821605
],
[
-76.6880342,
-7.1815644
],
[
-76.6876909,
-7.1801167
],
[
-76.6864892,
-7.1780303
],
[
-76.6858455,
-7.1770084
],
[
-76.6860601,
-7.1752627
],
[
-76.6867038,
-7.1740279
],
[
-76.6873475,
-7.1718563
]
]
]
}
},
{
"type": "Feature",
"properties": {
"idzonacomercial_calc": "594"
},
"geometry": {
"type": "Polygon",
"coordinates": [
[
[
-76.5834258,
-7.0579679
],
[
-76.5833721,
-7.05751
],
[
-76.583415,
-7.0561365
],
[
-76.5833828,
-7.0545074
],
[
-76.5833507,
-7.0528783
],
[
-76.5833292,
-7.0509937
],
[
-76.5831575,
-7.0509937
],
[
-76.5819452,
-7.051015
],
[
-76.5808401,
-7.051015
],
[
-76.5808294,
-7.0498757
],
[
-76.580765,
-7.0489813
],
[
-76.5808079,
-7.0480655
],
[
-76.5807757,
-7.0473841
],
[
-76.5807757,
-7.0467239
],
[
-76.5807328,
-7.0455953
],
[
-76.5805504,
-7.0435083
],
[
-76.5825031,
-7.0425287
],
[
-76.5828249,
-7.0432314
],
[
-76.583179,
-7.0429546
],
[
-76.5846703,
-7.0429865
],
[
-76.5852067,
-7.0433273
],
[
-76.585475,
-7.0431675
],
[
-76.5863011,
-7.0430824
],
[
-76.5862904,
-7.0424115
],
[
-76.5862904,
-7.0418366
],
[
-76.5872989,
-7.0419004
],
[
-76.5875242,
-7.0422305
],
[
-76.5878997,
-7.0425713
],
[
-76.5879855,
-7.0428268
],
[
-76.5879641,
-7.043125
],
[
-76.5875242,
-7.0440939
],
[
-76.5873096,
-7.0447115
],
[
-76.5865479,
-7.0455207
],
[
-76.5866015,
-7.0459466
],
[
-76.5875242,
-7.04666
],
[
-76.5890262,
-7.0470008
],
[
-76.5902278,
-7.0472137
],
[
-76.5914295,
-7.0475012
],
[
-76.5922663,
-7.0473096
],
[
-76.5932856,
-7.0461915
],
[
-76.5923843,
-7.0451268
],
[
-76.5916011,
-7.0453397
],
[
-76.5915046,
-7.0452332
],
[
-76.5916333,
-7.0445731
],
[
-76.5918694,
-7.0436148
],
[
-76.5931675,
-7.0436573
],
[
-76.5946481,
-7.0442749
],
[
-76.5950773,
-7.0437958
],
[
-76.5956781,
-7.0432101
],
[
-76.5961716,
-7.0430078
],
[
-76.5966008,
-7.0431143
],
[
-76.596751,
-7.0433592
],
[
-76.5970192,
-7.0440726
],
[
-76.5969656,
-7.0444133
],
[
-76.5955386,
-7.0450416
],
[
-76.5957747,
-7.045542
],
[
-76.5958068,
-7.0465536
],
[
-76.5950773,
-7.0480017
],
[
-76.5967402,
-7.0484169
],
[
-76.5980706,
-7.0482891
],
[
-76.5982959,
-7.0483317
],
[
-76.5993474,
-7.0488002
],
[
-76.6010103,
-7.0490558
],
[
-76.6036282,
-7.0493539
],
[
-76.6036496,
-7.0499821
],
[
-76.6034672,
-7.0503335
],
[
-76.6027377,
-7.0503442
],
[
-76.6016541,
-7.0502164
],
[
-76.6009889,
-7.0502483
],
[
-76.6000233,
-7.0503442
],
[
-76.5988002,
-7.0507381
],
[
-76.5977702,
-7.0515686
],
[
-76.5975235,
-7.0518348
],
[
-76.5963433,
-7.052495
],
[
-76.5953562,
-7.0530913
],
[
-76.5960214,
-7.0539537
],
[
-76.5963969,
-7.0542519
],
[
-76.5974162,
-7.0548588
],
[
-76.5974376,
-7.0550824
],
[
-76.5969012,
-7.0554976
],
[
-76.5963969,
-7.0556041
],
[
-76.5954957,
-7.0553273
],
[
-76.5952811,
-7.0557851
],
[
-76.5949056,
-7.0566795
],
[
-76.5955279,
-7.0569563
],
[
-76.595485,
-7.0573184
],
[
-76.5952382,
-7.0575207
],
[
-76.5949271,
-7.0574142
],
[
-76.5941117,
-7.0573822
],
[
-76.5937362,
-7.0572864
],
[
-76.5937147,
-7.0576591
],
[
-76.5937147,
-7.0584364
],
[
-76.5936718,
-7.0597353
],
[
-76.5936503,
-7.0618435
],
[
-76.5925024,
-7.0614815
],
[
-76.5903995,
-7.0608214
],
[
-76.5890906,
-7.0603848
],
[
-76.5873954,
-7.0598951
],
[
-76.5857217,
-7.0593627
],
[
-76.583694,
-7.0587877
],
[
-76.5835867,
-7.0586174
],
[
-76.5834472,
-7.0583938
],
[
-76.5834258,
-7.0579679
]
]
]
}
},
{
"type": "Feature",
"properties": {
"idzonacomercial_calc": "595"
},
"geometry": {
"type": "Polygon",
"coordinates": [
[
[
-76.54878,
-7.0525722
],
[
-76.5493809,
-7.0542332
],
[
-76.5486513,
-7.056235
],
[
-76.5479217,
-7.0593441
],
[
-76.5465484,
-7.0588756
],
[
-76.5435444,
-7.0559368
],
[
-76.5422998,
-7.056235
],
[
-76.5414844,
-7.055298
],
[
-76.5408836,
-7.0542332
],
[
-76.5411411,
-7.0518908
],
[
-76.5422569,
-7.0503149
],
[
-76.5426861,
-7.0506556
],
[
-76.5446173,
-7.0509112
],
[
-76.5468918,
-7.0518056
],
[
-76.54878,
-7.0525722
]
]
]
}
},
{
"type": "Feature",
"properties": {
"idzonacomercial_calc": "596"
},
"geometry": {
"type": "Polygon",
"coordinates": [
[
[
-76.735026,
-7.1842966
],
[
-76.7341862,
-7.1862574
],
[
-76.7336283,
-7.1874922
],
[
-76.733006,
-7.1891953
],
[
-76.7329846,
-7.1897701
],
[
-76.7322121,
-7.1897914
],
[
-76.7322979,
-7.1903662
],
[
-76.7314396,
-7.1906855
],
[
-76.7314825,
-7.1902172
],
[
-76.7313538,
-7.1891953
],
[
-76.7310963,
-7.1879179
],
[
-76.7307744,
-7.1870025
],
[
-76.7302165,
-7.1867045
],
[
-76.7295191,
-7.1862574
],
[
-76.7285214,
-7.1852781
],
[
-76.727427,
-7.1844691
],
[
-76.7265043,
-7.1838517
],
[
-76.7257533,
-7.1832343
],
[
-76.7246161,
-7.1824679
],
[
-76.7235646,
-7.1816589
],
[
-76.7228565,
-7.1812757
],
[
-76.7225561,
-7.1807222
],
[
-76.7220626,
-7.179828
],
[
-76.7216549,
-7.1782739
],
[
-76.7213545,
-7.1768049
],
[
-76.7212687,
-7.175485
],
[
-76.7215262,
-7.1744205
],
[
-76.7217085,
-7.1737392
],
[
-76.7216334,
-7.1727386
],
[
-76.7210541,
-7.1705245
],
[
-76.7207108,
-7.1678207
],
[
-76.7204533,
-7.1666071
],
[
-76.7224703,
-7.1650742
],
[
-76.7245088,
-7.1648188
],
[
-76.7249594,
-7.1654362
],
[
-76.7280064,
-7.1697155
],
[
-76.7292938,
-7.1716741
],
[
-76.7308602,
-7.1739734
],
[
-76.7319975,
-7.1756979
],
[
-76.7329846,
-7.1771456
],
[
-76.7319546,
-7.1771669
],
[
-76.7300234,
-7.1771881
],
[
-76.7300019,
-7.1788061
],
[
-76.7319117,
-7.1788488
],
[
-76.7340574,
-7.1787423
],
[
-76.7340146,
-7.1781994
],
[
-76.735066,
-7.1781675
],
[
-76.7350016,
-7.1765388
],
[
-76.7354187,
-7.1765282
],
[
-76.7352779,
-7.1762088
],
[
-76.735125,
-7.1758682
],
[
-76.7343901,
-7.1761662
],
[
-76.7341218,
-7.175783
],
[
-76.7344222,
-7.1744844
],
[
-76.734036,
-7.1741012
],
[
-76.7337785,
-7.1729302
],
[
-76.7331562,
-7.1718019
],
[
-76.7324696,
-7.1708225
],
[
-76.7315469,
-7.1695664
],
[
-76.7305169,
-7.1681187
],
[
-76.7286287,
-7.167629
],
[
-76.7281137,
-7.1670329
],
[
-76.7267618,
-7.1649678
],
[
-76.7247663,
-7.1621149
],
[
-76.7230711,
-7.1593259
],
[
-76.7232857,
-7.1583039
],
[
-76.7229424,
-7.1568988
],
[
-76.723908,
-7.1563026
],
[
-76.7262898,
-7.1551317
],
[
-76.7273197,
-7.1540884
],
[
-76.7270193,
-7.155302
],
[
-76.7267404,
-7.1562175
],
[
-76.7276416,
-7.1574097
],
[
-76.7319897,
-7.1599411
],
[
-76.7348543,
-7.1629218
],
[
-76.7352083,
-7.1635179
],
[
-76.7355409,
-7.1644227
],
[
-76.735777,
-7.1650614
],
[
-76.7362061,
-7.1660514
],
[
-76.7365602,
-7.1672224
],
[
-76.736646,
-7.1676695
],
[
-76.7365709,
-7.1680846
],
[
-76.7361847,
-7.1695749
],
[
-76.7358521,
-7.1709481
],
[
-76.7356268,
-7.1717678
],
[
-76.7357019,
-7.1726193
],
[
-76.7358843,
-7.1731197
],
[
-76.7363563,
-7.1744396
],
[
-76.7366997,
-7.1755467
],
[
-76.7369571,
-7.1764408
],
[
-76.7369142,
-7.177484
],
[
-76.7364958,
-7.1786975
],
[
-76.7362061,
-7.1795491
],
[
-76.735895,
-7.1798791
],
[
-76.7355839,
-7.1800813
],
[
-76.7349616,
-7.1801559
],
[
-76.7349294,
-7.1804113
],
[
-76.7349079,
-7.1811139
],
[
-76.7349723,
-7.1821996
],
[
-76.7351976,
-7.1834238
],
[
-76.735026,
-7.1842966
]
]
]
}
},
{
"type": "Feature",
"properties": {
"idzonacomercial_calc": "597"
},
"geometry": {
"type": "Polygon",
"coordinates": [
[
[
-76.5588396,
-7.478697
],
[
-76.5635603,
-7.4809947
],
[
-76.5711134,
-7.4817606
],
[
-76.5717142,
-7.4861857
],
[
-76.5675944,
-7.4908662
],
[
-76.5651911,
-7.4972485
],
[
-76.5553206,
-7.5010778
],
[
-76.5517157,
-7.5043966
],
[
-76.5481966,
-7.5022692
],
[
-76.545965,
-7.4958018
],
[
-76.5483683,
-7.4860155
],
[
-76.5505999,
-7.4779311
],
[
-76.5588396,
-7.478697
]
]
]
}
},
{
"type": "Feature",
"properties": {
"idzonacomercial_calc": "598"
},
"geometry": {
"type": "Polygon",
"coordinates": [
[
[
-76.563306,
-7.4384307
],
[
-76.5643359,
-7.4430265
],
[
-76.5663959,
-7.4460904
],
[
-76.5672542,
-7.4505159
],
[
-76.5712024,
-7.4547712
],
[
-76.5694858,
-7.4585158
],
[
-76.5631343,
-7.4597073
],
[
-76.5574695,
-7.4573244
],
[
-76.5499164,
-7.4568137
],
[
-76.5499164,
-7.4484734
],
[
-76.5533496,
-7.4425159
],
[
-76.563306,
-7.4384307
]
]
]
}
},
{
"type": "Feature",
"properties": {
"idzonacomercial_calc": "599"
},
"geometry": {
"type": "Polygon",
"coordinates": [
[
[
-76.5709449,
-7.4088971
],
[
-76.5716316,
-7.4094078
],
[
-76.5720607,
-7.4128123
],
[
-76.5720607,
-7.4168978
],
[
-76.5701724,
-7.4197916
],
[
-76.5686275,
-7.4199618
],
[
-76.5652801,
-7.4172382
],
[
-76.5650226,
-7.4143444
],
[
-76.5643359,
-7.4105994
],
[
-76.5709449,
-7.4088971
]
]
]
}
},
{
"type": "Feature",
"properties": {
"idzonacomercial_calc": "600"
},
"geometry": {
"type": "Polygon",
"coordinates": [
[
[
-76.6574858,
-7.300412
],
[
-76.6586874,
-7.3021998
],
[
-76.6573141,
-7.3083295
],
[
-76.6525076,
-7.3120753
],
[
-76.6500185,
-7.3119051
],
[
-76.646757,
-7.309947
],
[
-76.6496752,
-7.3033917
],
[
-76.6496752,
-7.301008
],
[
-76.6574858,
-7.300412
]
]
]
}
},
{
"type": "Feature",
"properties": {
"idzonacomercial_calc": "601"
},
"geometry": {
"type": "Polygon",
"coordinates": [
[
[
-76.6336127,
-7.33794
],
[
-76.6340418,
-7.3383444
],
[
-76.6343208,
-7.3393872
],
[
-76.6331191,
-7.3409195
],
[
-76.6321965,
-7.3410472
],
[
-76.631424,
-7.3402598
],
[
-76.6328187,
-7.3378336
],
[
-76.6336127,
-7.33794
]
]
]
}
},
{
"type": "Feature",
"properties": {
"idzonacomercial_calc": "573"
},
"geometry": {
"type": "Polygon",
"coordinates": [
[
[
-76.368764,
-6.5005581
],
[
-76.3688194,
-6.500875
],
[
-76.3677895,
-6.501813
],
[
-76.3668668,
-6.5025379
],
[
-76.3652605,
-6.5037737
],
[
-76.3644206,
-6.5015998
],
[
-76.3615024,
-6.5030922
],
[
-76.3585627,
-6.5051815
],
[
-76.3550047,
-6.4989228
],
[
-76.3573181,
-6.4979541
],
[
-76.3588845,
-6.4964831
],
[
-76.3619315,
-6.496078
],
[
-76.3632833,
-6.4952252
],
[
-76.3680684,
-6.4999582
],
[
-76.368764,
-6.5005581
]
]
]
}
},
{
"type": "Feature",
"properties": {
"idzonacomercial_calc": "574"
},
"geometry": {
"type": "Polygon",
"coordinates": [
[
[
-76.3490048,
-6.4844003
],
[
-76.3474813,
-6.4869588
],
[
-76.3492838,
-6.4878329
],
[
-76.3499275,
-6.4890908
],
[
-76.3507921,
-6.490024
],
[
-76.3502279,
-6.4905832
],
[
-76.3505712,
-6.4909456
],
[
-76.3503137,
-6.4911375
],
[
-76.3507429,
-6.491436
],
[
-76.3505927,
-6.4920117
],
[
-76.3502342,
-6.4920708
],
[
-76.3499275,
-6.492566
],
[
-76.3495198,
-6.4926299
],
[
-76.3496056,
-6.4957427
],
[
-76.3487688,
-6.4954655
],
[
-76.3475028,
-6.4960198
],
[
-76.3436833,
-6.4969579
],
[
-76.3426382,
-6.4970662
],
[
-76.3402349,
-6.4981588
],
[
-76.340057,
-6.4974056
],
[
-76.3398853,
-6.495764
],
[
-76.3387695,
-6.4948472
],
[
-76.3357011,
-6.4948046
],
[
-76.3341561,
-6.4943782
],
[
-76.3323322,
-6.4958066
],
[
-76.3323966,
-6.4962543
],
[
-76.3297573,
-6.4990899
],
[
-76.3263455,
-6.5002838
],
[
-76.3249079,
-6.497832
],
[
-76.3243929,
-6.4966807
],
[
-76.324586,
-6.4934614
],
[
-76.3271824,
-6.4919903
],
[
-76.3266674,
-6.4889202
],
[
-76.3281051,
-6.4883446
],
[
-76.3299719,
-6.4880248
],
[
-76.3346711,
-6.4861699
],
[
-76.3339415,
-6.4843577
],
[
-76.3340059,
-6.4831637
],
[
-76.3360659,
-6.4825028
],
[
-76.3358942,
-6.4806053
],
[
-76.3374821,
-6.4802428
],
[
-76.337761,
-6.4796672
],
[
-76.3392201,
-6.4799017
],
[
-76.3394025,
-6.4774125
],
[
-76.3391075,
-6.4757202
],
[
-76.3404861,
-6.4749659
],
[
-76.3425782,
-6.4743956
],
[
-76.3434687,
-6.4754883
],
[
-76.3437155,
-6.4773112
],
[
-76.3433615,
-6.4790062
],
[
-76.3450781,
-6.4801362
],
[
-76.3456575,
-6.4803334
],
[
-76.3458077,
-6.4808292
],
[
-76.3465372,
-6.4815647
],
[
-76.3477602,
-6.4824388
],
[
-76.348817,
-6.4830411
],
[
-76.3492945,
-6.4836647
],
[
-76.3490048,
-6.4844003
]
]
]
}
}
]
}