{
"type": "FeatureCollection",
"features": [
{
"type": "Feature",
"properties": {
"idzonacomercial_calc": "767"
},
"geometry": {
"type": "Polygon",
"coordinates": [
[
[
-80.2709165,
-3.4941582
],
[
-80.2837043,
-3.4875347
],
[
-80.2921761,
-3.5007608
],
[
-80.2864246,
-3.5057317
],
[
-80.2813186,
-3.5114279
],
[
-80.2804174,
-3.5131842
],
[
-80.2781214,
-3.5134197
],
[
-80.2752662,
-3.5134921
],
[
-80.271523,
-3.5143582
],
[
-80.2666089,
-3.5138233
],
[
-80.2666605,
-3.5116136
],
[
-80.2665173,
-3.5099493
],
[
-80.2645261,
-3.5081504
],
[
-80.2643911,
-3.5050216
],
[
-80.265755,
-3.5014871
],
[
-80.269708,
-3.4989056
],
[
-80.2703933,
-3.49696
],
[
-80.2709165,
-3.4941582
]
]
]
}
}
]
}