{
"type": "FeatureCollection",
"features": [
{
"type": "Feature",
"properties": {
"idzonacomercial_calc": "741"
},
"geometry": {
"type": "Polygon",
"coordinates": [
[
[
-79.055299,
-8.125818
],
[
-79.05869,
-8.136566
],
[
-79.06208,
-8.134888
],
[
-79.06487,
-8.137586
],
[
-79.056415,
-8.145105
],
[
-79.05015,
-8.150331
],
[
-79.04397,
-8.155556
],
[
-79.038876,
-8.14787
],
[
-79.038575,
-8.145151
],
[
-79.04012,
-8.144981
],
[
-79.039948,
-8.142644
],
[
-79.038446,
-8.139373
],
[
-79.039262,
-8.137164
],
[
-79.047146,
-8.134017
],
[
-79.051158,
-8.132041
],
[
-79.049463,
-8.129599
],
[
-79.052553,
-8.127241
],
[
-79.052682,
-8.12637
],
[
-79.052849,
-8.125294
],
[
-79.054857,
-8.124281
],
[
-79.055299,
-8.125818
]
]
]
}
}
]
}