{
"type": "FeatureCollection",
"features": [
{
"type": "Feature",
"properties": {
"idzonacomercial_calc": "630"
},
"geometry": {
"type": "Polygon",
"coordinates": [
[
[
-77.2957143,
-5.9647161
],
[
-77.321532,
-5.9126743
],
[
-77.3234912,
-5.9132273
],
[
-77.3285553,
-5.9201853
],
[
-77.331216,
-5.9279542
],
[
-77.3288128,
-5.9401195
],
[
-77.321088,
-5.9355949
],
[
-77.3227617,
-5.9407598
],
[
-77.3187276,
-5.9403329
],
[
-77.3161098,
-5.9419976
],
[
-77.3167535,
-5.9429367
],
[
-77.3158523,
-5.9454551
],
[
-77.3186418,
-5.9482296
],
[
-77.316539,
-5.950065
],
[
-77.3148653,
-5.9532236
],
[
-77.3113999,
-5.9555605
],
[
-77.3081597,
-5.9650149
],
[
-77.3014435,
-5.9630942
],
[
-77.2982892,
-5.9631582
],
[
-77.2964009,
-5.9650362
],
[
-77.2957143,
-5.9647161
]
]
]
}
}
]
}