{
"type": "FeatureCollection",
"features": [
{
"type": "Feature",
"properties": {
"idzonacomercial_calc": "769"
},
"geometry": {
"type": "Polygon",
"coordinates": [
[
[
-80.2446175,
-3.521824
],
[
-80.2437592,
-3.5269641
],
[
-80.2375794,
-3.5329608
],
[
-80.2293396,
-3.5257647
],
[
-80.2336311,
-3.5197679
],
[
-80.2446175,
-3.521824
]
]
]
}
},
{
"type": "Feature",
"properties": {
"idzonacomercial_calc": "768"
},
"geometry": {
"type": "Polygon",
"coordinates": [
[
[
-80.2816028,
-3.4884512
],
[
-80.2731672,
-3.4923778
],
[
-80.2708409,
-3.494123
],
[
-80.269632,
-3.498148
],
[
-80.2637525,
-3.5025601
],
[
-80.2600189,
-3.4990048
],
[
-80.2560708,
-3.4916371
],
[
-80.2524659,
-3.484612
],
[
-80.2531526,
-3.4803284
],
[
-80.2558991,
-3.4750167
],
[
-80.2600189,
-3.4758734
],
[
-80.2816028,
-3.4884512
]
]
]
}
},
{
"type": "Feature",
"properties": {
"idzonacomercial_calc": "771"
},
"geometry": {
"type": "Polygon",
"coordinates": [
[
[
-80.2480078,
-3.4789459
],
[
-80.2478361,
-3.4836578
],
[
-80.2461195,
-3.4846859
],
[
-80.2444029,
-3.4837864
],
[
-80.2435875,
-3.4817302
],
[
-80.2444029,
-3.4803595
],
[
-80.2466774,
-3.4773609
],
[
-80.2480078,
-3.4789459
]
]
]
}
}
]
}