{
"type": "FeatureCollection",
"features": [
{
"type": "Feature",
"properties": {
"idzonacomercial_calc": "691"
},
"geometry": {
"type": "Polygon",
"coordinates": [
[
[
-76.368764,
-6.5005581
],
[
-76.3688194,
-6.500875
],
[
-76.3677895,
-6.501813
],
[
-76.3668668,
-6.5025379
],
[
-76.3652605,
-6.5037737
],
[
-76.3644206,
-6.5015998
],
[
-76.3615024,
-6.5030922
],
[
-76.3585627,
-6.5051815
],
[
-76.3550047,
-6.4989228
],
[
-76.3573181,
-6.4979541
],
[
-76.3588845,
-6.4964831
],
[
-76.3619315,
-6.496078
],
[
-76.3632833,
-6.4952252
],
[
-76.3680684,
-6.4999582
],
[
-76.368764,
-6.5005581
]
]
]
}
},
{
"type": "Feature",
"properties": {
"idzonacomercial_calc": "692"
},
"geometry": {
"type": "Polygon",
"coordinates": [
[
[
-76.3490048,
-6.4844003
],
[
-76.3474813,
-6.4869588
],
[
-76.3492838,
-6.4878329
],
[
-76.3499275,
-6.4890908
],
[
-76.3507921,
-6.490024
],
[
-76.3502279,
-6.4905832
],
[
-76.3505712,
-6.4909456
],
[
-76.3503137,
-6.4911375
],
[
-76.3507429,
-6.491436
],
[
-76.3505927,
-6.4920117
],
[
-76.3502342,
-6.4920708
],
[
-76.3499275,
-6.492566
],
[
-76.3495198,
-6.4926299
],
[
-76.3496056,
-6.4957427
],
[
-76.3487688,
-6.4954655
],
[
-76.3475028,
-6.4960198
],
[
-76.3436833,
-6.4969579
],
[
-76.3426382,
-6.4970662
],
[
-76.3402349,
-6.4981588
],
[
-76.340057,
-6.4974056
],
[
-76.3398853,
-6.495764
],
[
-76.3387695,
-6.4948472
],
[
-76.3357011,
-6.4948046
],
[
-76.3341561,
-6.4943782
],
[
-76.3323322,
-6.4958066
],
[
-76.3323966,
-6.4962543
],
[
-76.3297573,
-6.4990899
],
[
-76.3263455,
-6.5002838
],
[
-76.3249079,
-6.497832
],
[
-76.3243929,
-6.4966807
],
[
-76.324586,
-6.4934614
],
[
-76.3271824,
-6.4919903
],
[
-76.3266674,
-6.4889202
],
[
-76.3281051,
-6.4883446
],
[
-76.3299719,
-6.4880248
],
[
-76.3346711,
-6.4861699
],
[
-76.3339415,
-6.4843577
],
[
-76.3340059,
-6.4831637
],
[
-76.3360659,
-6.4825028
],
[
-76.3358942,
-6.4806053
],
[
-76.3374821,
-6.4802428
],
[
-76.337761,
-6.4796672
],
[
-76.3392201,
-6.4799017
],
[
-76.3394025,
-6.4774125
],
[
-76.3391075,
-6.4757202
],
[
-76.3404861,
-6.4749659
],
[
-76.3425782,
-6.4743956
],
[
-76.3434687,
-6.4754883
],
[
-76.3437155,
-6.4773112
],
[
-76.3433615,
-6.4790062
],
[
-76.3450781,
-6.4801362
],
[
-76.3456575,
-6.4803334
],
[
-76.3458077,
-6.4808292
],
[
-76.3465372,
-6.4815647
],
[
-76.3477602,
-6.4824388
],
[
-76.348817,
-6.4830411
],
[
-76.3492945,
-6.4836647
],
[
-76.3490048,
-6.4844003
]
]
]
}
}
]
}