{
"type": "FeatureCollection",
"features": [
{
"type": "Feature",
"properties": {
"idzonacomercial_calc": "635"
},
"geometry": {
"type": "Polygon",
"coordinates": [
[
-76.133399,
-5.8876746
],
[
-76.1323261,
-5.8915593
],
[
-76.1340427,
-5.8938645
],
[
-76.135416,
-5.8938218
],
[
-76.1366176,
-5.8957854
],
[
-76.1340427,
-5.898304
],
[
-76.1354589,
-5.9013776
],
[
-76.1372614,
-5.9011641
],
[
-76.1373472,
-5.902957
],
[
-76.1191082,
-5.9005238
],
[
-76.118679,
-5.8939925
],
[
-76.1240745,
-5.8934008
],
[
-76.1246753,
-5.8962182
],
[
-76.133399,
-5.8876746
]
]
}
}
]
}