{
"type": "FeatureCollection",
"features": [
{
"type": "Feature",
"properties": {
"idzonacomercial_calc": "759"
},
"geometry": {
"type": "Polygon",
"coordinates": [
[
[
-80.4832495,
-3.5967042
],
[
-80.4923046,
-3.5987173
],
[
-80.4962132,
-3.6008465
],
[
-80.5209998,
-3.610965
],
[
-80.5555878,
-3.6164268
],
[
-80.5706511,
-3.623796
],
[
-80.5836203,
-3.6351867
],
[
-80.584611,
-3.6360187
],
[
-80.5831501,
-3.6372134
],
[
-80.5809347,
-3.6390185
],
[
-80.5731241,
-3.6362421
],
[
-80.5478855,
-3.6230167
],
[
-80.5147412,
-3.621459
],
[
-80.4957379,
-3.6088681
],
[
-80.4935063,
-3.6111809
],
[
-80.4892147,
-3.6111809
],
[
-80.4841936,
-3.6104957
],
[
-80.482118,
-3.6112899
],
[
-80.4785745,
-3.609208
],
[
-80.4732862,
-3.60621
],
[
-80.4735935,
-3.6033002
],
[
-80.4764689,
-3.5993597
],
[
-80.4832495,
-3.5967042
]
]
]
}
},
{
"type": "Feature",
"properties": {
"idzonacomercial_calc": "761"
},
"geometry": {
"type": "Polygon",
"coordinates": [
[
[
-80.4548218,
-3.5668074
],
[
-80.4566972,
-3.5654069
],
[
-80.4586298,
-3.5691611
],
[
-80.4595501,
-3.5695446
],
[
-80.4612419,
-3.5702691
],
[
-80.4617342,
-3.5672392
],
[
-80.4622411,
-3.5635733
],
[
-80.4660164,
-3.5677803
],
[
-80.4833443,
-3.5965153
],
[
-80.4803933,
-3.597785
],
[
-80.4579114,
-3.5740715
],
[
-80.4541348,
-3.5772839
],
[
-80.4509138,
-3.578663
],
[
-80.4519461,
-3.5792542
],
[
-80.4502295,
-3.5826379
],
[
-80.4516457,
-3.5889341
],
[
-80.4530619,
-3.5939025
],
[
-80.4491996,
-3.5959584
],
[
-80.4426764,
-3.5933457
],
[
-80.4342649,
-3.5968578
],
[
-80.4331062,
-3.594031
],
[
-80.4315022,
-3.589159
],
[
-80.4343937,
-3.5862785
],
[
-80.4399727,
-3.586664
],
[
-80.4407023,
-3.5819097
],
[
-80.440359,
-3.5775837
],
[
-80.4440497,
-3.5734719
],
[
-80.4486897,
-3.5693134
],
[
-80.4548218,
-3.5668074
]
]
]
}
}
]
}