{
"type": "FeatureCollection",
"features": [
{
"type": "Feature",
"properties": {
"idzonacomercial_calc": "622"
},
"geometry": {
"type": "Polygon",
"coordinates": [
[
[
-77.1691275,
-6.0529182
],
[
-77.1701574,
-6.05215
],
[
-77.169106,
-6.0511471
],
[
-77.1681619,
-6.0496961
],
[
-77.1664238,
-6.0493334
],
[
-77.1651578,
-6.0492694
],
[
-77.1638918,
-6.0486932
],
[
-77.1628189,
-6.0473489
],
[
-77.162261,
-6.0463033
],
[
-77.1613812,
-6.0454498
],
[
-77.1609736,
-6.0454711
],
[
-77.1602225,
-6.0447883
],
[
-77.160008,
-6.0436787
],
[
-77.1593213,
-6.0420997
],
[
-77.1600723,
-6.0414382
],
[
-77.1604157,
-6.0406273
],
[
-77.1603084,
-6.0397311
],
[
-77.1607375,
-6.0376826
],
[
-77.1613383,
-6.0375759
],
[
-77.1618533,
-6.0371918
],
[
-77.1694279,
-6.0357621
],
[
-77.1842122,
-6.0349512
],
[
-77.1839976,
-6.0356127
],
[
-77.1841908,
-6.0371705
],
[
-77.1848345,
-6.0373839
],
[
-77.186079,
-6.0387069
],
[
-77.188375,
-6.0413315
],
[
-77.1798348,
-6.046282
],
[
-77.1785688,
-6.0469648
],
[
-77.1760368,
-6.0482238
],
[
-77.1756935,
-6.0486719
],
[
-77.1748567,
-6.0490346
],
[
-77.1739125,
-6.0508911
],
[
-77.1734619,
-6.0510191
],
[
-77.1727753,
-6.0548599
],
[
-77.1730757,
-6.0552654
],
[
-77.173419,
-6.0552867
],
[
-77.1735263,
-6.0555641
],
[
-77.1731401,
-6.0576765
],
[
-77.173655,
-6.0595969
],
[
-77.1747065,
-6.0592129
],
[
-77.1758866,
-6.0588074
],
[
-77.1773672,
-6.0582313
],
[
-77.178247,
-6.0579966
],
[
-77.1783543,
-6.0586794
],
[
-77.1819592,
-6.0619654
],
[
-77.1811223,
-6.0629256
],
[
-77.1837187,
-6.0643552
],
[
-77.184062,
-6.0644833
],
[
-77.1844697,
-6.0644619
],
[
-77.185092,
-6.064974
],
[
-77.1857357,
-6.0656355
],
[
-77.1862507,
-6.0661689
],
[
-77.1869159,
-6.0666384
],
[
-77.1874094,
-6.0673852
],
[
-77.1880317,
-6.0679826
],
[
-77.1882677,
-6.0689001
],
[
-77.189405,
-6.0702657
],
[
-77.1899414,
-6.0706285
],
[
-77.1902204,
-6.0718234
],
[
-77.1900487,
-6.0725061
],
[
-77.189877,
-6.075152
],
[
-77.1904135,
-6.0767736
],
[
-77.1903491,
-6.0769656
],
[
-77.184813,
-6.089469
],
[
-77.184298,
-6.0878261
],
[
-77.1837831,
-6.0868446
],
[
-77.1836114,
-6.0858844
],
[
-77.1827102,
-6.084903
],
[
-77.1813369,
-6.0847323
],
[
-77.1798778,
-6.0840922
],
[
-77.178719,
-6.0826839
],
[
-77.1772385,
-6.0812117
],
[
-77.1768737,
-6.0803369
],
[
-77.1768522,
-6.079078
],
[
-77.1766162,
-6.0781392
],
[
-77.1755648,
-6.0764535
],
[
-77.1754575,
-6.0766011
],
[
-77.1744704,
-6.0734219
],
[
-77.1739554,
-6.071971
],
[
-77.1732903,
-6.0709894
],
[
-77.1729684,
-6.0703511
],
[
-77.1725392,
-6.0700524
],
[
-77.1716595,
-6.0701164
],
[
-77.1713805,
-6.0700719
],
[
-77.1713429,
-6.0693571
],
[
-77.1711659,
-6.0687917
],
[
-77.1711016,
-6.0661885
],
[
-77.1701145,
-6.0661032
],
[
-77.1686339,
-6.0659982
],
[
-77.1667886,
-6.0658258
],
[
-77.1654797,
-6.0655057
],
[
-77.1689129,
-6.0535797
],
[
-77.1691275,
-6.0529182
]
]
]
}
}
]
}