{
"type": "FeatureCollection",
"features": [
{
"type": "Feature",
"properties": {
"idzonacomercial_calc": "445"
},
"geometry": {
"type": "Polygon",
"coordinates": [
[
[
-76.3630721,
-6.4935665
],
[
-76.3624612,
-6.4942538
],
[
-76.3632873,
-6.4952345
],
[
-76.3621065,
-6.4959224
],
[
-76.3614842,
-6.4960503
],
[
-76.3607761,
-6.4960929
],
[
-76.359671,
-6.4962955
],
[
-76.35892,
-6.4963914
],
[
-76.3573321,
-6.4978518
],
[
-76.3551542,
-6.4988112
],
[
-76.3550047,
-6.4989228
],
[
-76.35491,
-6.4991851
],
[
-76.3537916,
-6.4996
],
[
-76.3556093,
-6.4971343
],
[
-76.3557979,
-6.4966899
],
[
-76.3560554,
-6.4958691
],
[
-76.356109,
-6.493865
],
[
-76.356152,
-6.4923832
],
[
-76.3561949,
-6.491701
],
[
-76.3560554,
-6.4904111
],
[
-76.3567206,
-6.4895583
],
[
-76.3568922,
-6.4896223
],
[
-76.3569995,
-6.4894197
],
[
-76.3574287,
-6.4896649
],
[
-76.3579759,
-6.4891213
],
[
-76.358684,
-6.4897289
],
[
-76.3596496,
-6.490571
],
[
-76.3604328,
-6.4912746
],
[
-76.3615807,
-6.4922447
],
[
-76.3630721,
-6.4935665
]
]
]
}
}
]
}