{
"type": "FeatureCollection",
"features": [
{
"type": "Feature",
"properties": {
"idzonacomercial_calc": "678"
},
"geometry": {
"type": "Polygon",
"coordinates": [
[
[
-80.4569103,
-3.5657086
],
[
-80.461416,
-3.5705486
],
[
-80.459657,
-3.5726045
],
[
-80.45588,
-3.5758169
],
[
-80.453692,
-3.5777872
],
[
-80.451975,
-3.5811709
],
[
-80.453391,
-3.5874671
],
[
-80.454807,
-3.5924355
],
[
-80.450945,
-3.5944914
],
[
-80.444422,
-3.5918787
],
[
-80.436011,
-3.5953908
],
[
-80.434852,
-3.592564
],
[
-80.433178,
-3.5877241
],
[
-80.436139,
-3.5848115
],
[
-80.441718,
-3.585197
],
[
-80.442448,
-3.5804427
],
[
-80.442105,
-3.5761167
],
[
-80.445795,
-3.5720049
],
[
-80.45691,
-3.5657086
],
[
-80.4569103,
-3.5657086
]
]
]
}
},
{
"type": "Feature",
"properties": {
"idzonacomercial_calc": "679"
},
"geometry": {
"type": "Polygon",
"coordinates": [
[
[
-80.4639262,
-3.5713196
],
[
-80.465686,
-3.5728615
],
[
-80.467102,
-3.5762024
],
[
-80.464785,
-3.5769305
],
[
-80.460879,
-3.5738038
],
[
-80.459935,
-3.5730757
],
[
-80.463926,
-3.5713196
],
[
-80.4639262,
-3.5713196
]
]
]
}
}
]
}