{
"type": "FeatureCollection",
"features": [
{
"type": "Feature",
"properties": {
"idzonacomercial_calc": "806"
},
"geometry": {
"type": "Polygon",
"coordinates": [
[
[
-77.2955709,
-5.9649042
],
[
-77.2953134,
-5.9647228
],
[
-77.2921805,
-5.9631862
],
[
-77.2902923,
-5.9622792
],
[
-77.2875671,
-5.9609347
],
[
-77.2914948,
-5.9521456
],
[
-77.2857442,
-5.9493284
],
[
-77.2874179,
-5.9460844
],
[
-77.2913196,
-5.9460332
],
[
-77.2919633,
-5.945521
],
[
-77.2915342,
-5.9440697
],
[
-77.2925212,
-5.9425331
],
[
-77.2973277,
-5.9343376
],
[
-77.2989156,
-5.9220014
],
[
-77.3026492,
-5.9230685
],
[
-77.3066618,
-5.9273798
],
[
-77.3085501,
-5.9216172
],
[
-77.3058035,
-5.9155984
],
[
-77.3119404,
-5.9112443
],
[
-77.3138072,
-5.9087471
],
[
-77.321532,
-5.9126743
],
[
-77.3133137,
-5.9289165
],
[
-77.2955709,
-5.9649042
]
]
]
}
}
]
}