{
"type": "FeatureCollection",
"features": [
{
"type": "Feature",
"properties": {
"idzonacomercial_calc": "785"
},
"geometry": {
"type": "Polygon",
"coordinates": [
[
[
-79.2922588,
-7.7389142
],
[
-79.2996318,
-7.7347519
],
[
-79.3020923,
-7.7331077
],
[
-79.30564,
-7.7301592
],
[
-79.3067272,
-7.731435
],
[
-79.3073852,
-7.7318886
],
[
-79.3083579,
-7.7310381
],
[
-79.3136306,
-7.7304659
],
[
-79.3215043,
-7.7463611
],
[
-79.335031,
-7.7681133
],
[
-79.3404059,
-7.8107428
],
[
-79.3089158,
-7.8129763
],
[
-79.2767579,
-7.823407
],
[
-79.261194,
-7.8305496
],
[
-79.2437417,
-7.8205726
],
[
-79.2336709,
-7.8082144
],
[
-79.2252023,
-7.8082144
],
[
-79.2080362,
-7.8069672
],
[
-79.1994531,
-7.8159241
],
[
-79.1877801,
-7.810482
],
[
-79.1690118,
-7.8269216
],
[
-79.174505,
-7.8355947
],
[
-79.1670663,
-7.8427371
],
[
-79.1569955,
-7.8502195
],
[
-79.1477258,
-7.8582686
],
[
-79.1476748,
-7.8617972
],
[
-79.1405794,
-7.8620807
],
[
-79.1402933,
-7.8673521
],
[
-79.1392634,
-7.8719433
],
[
-79.1373751,
-7.8763077
],
[
-79.1373751,
-7.8828826
],
[
-79.1277621,
-7.8793685
],
[
-79.1253588,
-7.8741539
],
[
-79.1286776,
-7.8628742
],
[
-79.1306231,
-7.8555054
],
[
-79.1290209,
-7.8526712
],
[
-79.1384051,
-7.8413343
],
[
-79.1398928,
-7.8383867
],
[
-79.1418383,
-7.8282965
],
[
-79.1354296,
-7.8059611
],
[
-79.1325236,
-7.7864564
],
[
-79.1178752,
-7.7735302
],
[
-79.1000224,
-7.758109
],
[
-79.0661479,
-7.7435944
],
[
-79.0441752,
-7.7410996
],
[
-79.0350199,
-7.7442747
],
[
-79.0274668,
-7.7488106
],
[
-79.0100718,
-7.7435944
],
[
-79.0002299,
-7.7454087
],
[
-78.9915324,
-7.7383781
],
[
-78.9945078,
-7.7254504
],
[
-79.014535,
-7.7164915
],
[
-79.0204859,
-7.717172
],
[
-79.0333033,
-7.7080995
],
[
-79.0422297,
-7.7006146
],
[
-79.0614558,
-7.7015219
],
[
-79.0662623,
-7.7071922
],
[
-79.0838862,
-7.7071922
],
[
-79.1012812,
-7.7074191
],
[
-79.1104365,
-7.7074191
],
[
-79.117303,
-7.7091202
],
[
-79.1189051,
-7.7156977
],
[
-79.1351557,
-7.7200071
],
[
-79.1468287,
-7.7211411
],
[
-79.1621638,
-7.7152441
],
[
-79.1794058,
-7.7057297
],
[
-79.1909354,
-7.7258648
],
[
-79.2083427,
-7.7443447
],
[
-79.2114308,
-7.752398
],
[
-79.2172639,
-7.7593194
],
[
-79.2196608,
-7.7649978
],
[
-79.2258017,
-7.7684703
],
[
-79.2525049,
-7.7723512
],
[
-79.2710443,
-7.7568733
],
[
-79.2810865,
-7.7510335
],
[
-79.2922588,
-7.7389142
]
]
]
}
}
]
}