{
"type": "FeatureCollection",
"features": [
{
"type": "Feature",
"properties": {
"idzonacomercial_calc": "604"
},
"geometry": {
"type": "Polygon",
"coordinates": [
[
[
-76.595238,
-7.0576186
],
[
-76.5954311,
-7.0580445
],
[
-76.5953453,
-7.0591519
],
[
-76.5956457,
-7.0597694
],
[
-76.5962894,
-7.0608129
],
[
-76.5973409,
-7.061473
],
[
-76.5981241,
-7.0624952
],
[
-76.5995188,
-7.0632405
],
[
-76.599948,
-7.063528
],
[
-76.6003449,
-7.0639006
],
[
-76.6013105,
-7.0651889
],
[
-76.6007312,
-7.0661099
],
[
-76.600066,
-7.0667754
],
[
-76.5999802,
-7.0674994
],
[
-76.5989716,
-7.0678189
],
[
-76.5988644,
-7.068266
],
[
-76.5979631,
-7.0685216
],
[
-76.5963538,
-7.0684577
],
[
-76.5946587,
-7.0685003
],
[
-76.5922554,
-7.0685642
],
[
-76.5899809,
-7.0685855
],
[
-76.5879853,
-7.0686281
],
[
-76.5858395,
-7.068479
],
[
-76.5842302,
-7.0681809
],
[
-76.5824278,
-7.0676485
],
[
-76.5816553,
-7.0673717
],
[
-76.5816553,
-7.0667115
],
[
-76.5819557,
-7.0661792
],
[
-76.5809257,
-7.0646672
],
[
-76.5803678,
-7.0630275
],
[
-76.5801533,
-7.0617286
],
[
-76.5785654,
-7.0600888
],
[
-76.5769132,
-7.0584704
],
[
-76.5759905,
-7.0572992
],
[
-76.5756257,
-7.0570437
],
[
-76.5755399,
-7.0574377
],
[
-76.5751751,
-7.0578742
],
[
-76.5737374,
-7.0572353
],
[
-76.5725787,
-7.0571075
],
[
-76.5720852,
-7.0555743
],
[
-76.571656,
-7.0550206
],
[
-76.5700252,
-7.0544456
],
[
-76.5691884,
-7.0548503
],
[
-76.566592,
-7.0539346
],
[
-76.5660127,
-7.0538281
],
[
-76.5663989,
-7.0527633
],
[
-76.5686949,
-7.0522096
],
[
-76.5691884,
-7.051081
],
[
-76.5693386,
-7.0502292
],
[
-76.5710767,
-7.0503995
],
[
-76.571656,
-7.0500801
],
[
-76.5719564,
-7.0496542
],
[
-76.5746386,
-7.0490579
],
[
-76.5759261,
-7.0488663
],
[
-76.5775783,
-7.0476737
],
[
-76.5786512,
-7.046971
],
[
-76.5788658,
-7.0455016
],
[
-76.5789731,
-7.0443516
],
[
-76.5804537,
-7.0434998
],
[
-76.5806897,
-7.0457997
],
[
-76.5807325,
-7.0480357
],
[
-76.5807205,
-7.0486619
],
[
-76.5807299,
-7.0490539
],
[
-76.5807701,
-7.0497526
],
[
-76.5807674,
-7.0504886
],
[
-76.580754,
-7.0511608
],
[
-76.5821971,
-7.0511182
],
[
-76.5827175,
-7.0511023
],
[
-76.5831359,
-7.0511023
],
[
-76.5831788,
-7.0518849
],
[
-76.5832271,
-7.0533223
],
[
-76.5832807,
-7.0546985
],
[
-76.5832405,
-7.0551603
],
[
-76.5832418,
-7.055338
],
[
-76.583258,
-7.055368
],
[
-76.5832633,
-7.0554425
],
[
-76.5832325,
-7.0555263
],
[
-76.5832379,
-7.0556195
],
[
-76.5832539,
-7.0562504
],
[
-76.5832405,
-7.0575654
],
[
-76.5831899,
-7.0579913
],
[
-76.5832358,
-7.0584385
],
[
-76.5836495,
-7.0589496
],
[
-76.5843697,
-7.059088
],
[
-76.5852709,
-7.0593649
],
[
-76.5859468,
-7.0595938
],
[
-76.5865154,
-7.0597588
],
[
-76.5880175,
-7.0601794
],
[
-76.5896375,
-7.060717
],
[
-76.5911074,
-7.0611642
],
[
-76.591896,
-7.0614677
],
[
-76.592588,
-7.0616859
],
[
-76.5937681,
-7.0619628
],
[
-76.593811,
-7.0608235
],
[
-76.5938218,
-7.0594926
],
[
-76.5938218,
-7.0577464
],
[
-76.5945514,
-7.0574483
],
[
-76.595238,
-7.0576186
]
]
]
}
}
]
}