{
"type": "FeatureCollection",
"features": [
{
"type": "Feature",
"properties": {
"idzonacomercial_calc": "775"
},
"geometry": {
"type": "Polygon",
"coordinates": [
[
[
-81.2892996,
-4.4535786
],
[
-81.2892566,
-4.4600392
],
[
-81.2841497,
-4.4615795
],
[
-81.2746225,
-4.4601675
],
[
-81.2730346,
-4.4575576
],
[
-81.2730346,
-4.4549477
],
[
-81.2761246,
-4.452894
],
[
-81.2793003,
-4.452894
],
[
-81.2892996,
-4.4535786
]
]
]
}
},
{
"type": "Feature",
"properties": {
"idzonacomercial_calc": "765"
},
"geometry": {
"type": "Polygon",
"coordinates": [
[
[
-81.2791938,
-4.551444
],
[
-81.2743872,
-4.5724914
],
[
-81.2855452,
-4.5750581
],
[
-81.2829703,
-4.5795071
],
[
-81.2766188,
-4.5844694
],
[
-81.2700957,
-4.5844694
],
[
-81.2568778,
-4.5848116
],
[
-81.2525862,
-4.582416
],
[
-81.2558478,
-4.5786515
],
[
-81.2687224,
-4.5706092
],
[
-81.2673491,
-4.5642779
],
[
-81.2652892,
-4.5546952
],
[
-81.2791938,
-4.551444
]
]
]
}
}
]
}