{
"type": "FeatureCollection",
"features": [
{
"type": "Feature",
"properties": {
"idzonacomercial_calc": "422"
},
"geometry": {
"type": "Polygon",
"coordinates": [
[
[
-81.2892996,
-4.4535786
],
[
-81.289257,
-4.4600392
],
[
-81.28415,
-4.4615795
],
[
-81.274623,
-4.4601675
],
[
-81.273035,
-4.4575576
],
[
-81.273035,
-4.4549477
],
[
-81.276125,
-4.452894
],
[
-81.2793,
-4.452894
],
[
-81.2893,
-4.4535786
],
[
-81.2892996,
-4.4535786
]
]
]
}
},
{
"type": "Feature",
"properties": {
"idzonacomercial_calc": "421"
},
"geometry": {
"type": "Polygon",
"coordinates": [
[
[
-81.2791938,
-4.551444
],
[
-81.274387,
-4.5724914
],
[
-81.285545,
-4.5750581
],
[
-81.28297,
-4.5795071
],
[
-81.276619,
-4.5844694
],
[
-81.270096,
-4.5844694
],
[
-81.256878,
-4.5848116
],
[
-81.252586,
-4.582416
],
[
-81.255848,
-4.5786515
],
[
-81.268722,
-4.5706092
],
[
-81.267349,
-4.5642779
],
[
-81.265289,
-4.5546952
],
[
-81.2791938,
-4.551444
]
]
]
}
}
]
}