{
"type": "FeatureCollection",
"features": [
{
"type": "Feature",
"properties": {
"idzonacomercial_calc": "571"
},
"geometry": {
"type": "Polygon",
"coordinates": [
[
[
-76.3472958,
-6.4703234
],
[
-76.3481112,
-6.470366
],
[
-76.3501282,
-6.4718585
],
[
-76.3501711,
-6.4729245
],
[
-76.350772,
-6.4733083
],
[
-76.3516303,
-6.4754404
],
[
-76.3539477,
-6.4757389
],
[
-76.3549777,
-6.4764212
],
[
-76.3571234,
-6.4749287
],
[
-76.3585611,
-6.4762506
],
[
-76.3596983,
-6.4777004
],
[
-76.3595696,
-6.4785106
],
[
-76.3610377,
-6.4791974
],
[
-76.3606639,
-6.4797898
],
[
-76.363389,
-6.4820711
],
[
-76.3660927,
-6.4846935
],
[
-76.366951,
-6.4843844
],
[
-76.3677236,
-6.4849281
],
[
-76.368496,
-6.4855463
],
[
-76.3639899,
-6.491047
],
[
-76.3647624,
-6.4916866
],
[
-76.3630887,
-6.4932643
],
[
-76.3580676,
-6.4888297
],
[
-76.3572951,
-6.4893414
],
[
-76.3566514,
-6.4890855
],
[
-76.3562222,
-6.489853
],
[
-76.3539799,
-6.486735
],
[
-76.3541837,
-6.4856529
],
[
-76.3535292,
-6.4844057
],
[
-76.3531376,
-6.482908
],
[
-76.3522551,
-6.4813489
],
[
-76.3500544,
-6.4790983
],
[
-76.3486751,
-6.4769922
],
[
-76.3471671,
-6.4758456
],
[
-76.3462873,
-6.4738947
],
[
-76.3452949,
-6.4730552
],
[
-76.3461907,
-6.4718319
],
[
-76.3472958,
-6.4703234
]
]
]
}
}
]
}