{
"type": "FeatureCollection",
"features": [
{
"type": "Feature",
"properties": {
"idzonacomercial_calc": "424"
},
"geometry": {
"type": "Polygon",
"coordinates": [
[
[
-80.2710533,
-3.50183
],
[
-80.2796793,
-3.5125815
],
[
-80.2787781,
-3.5143378
],
[
-80.2764821,
-3.5145733
],
[
-80.2749586,
-3.5130741
],
[
-80.27174,
-3.5120461
],
[
-80.2678347,
-3.5128814
],
[
-80.2676845,
-3.5109538
],
[
-80.2669764,
-3.5090477
],
[
-80.2654958,
-3.5061349
],
[
-80.2663755,
-3.504293
],
[
-80.2710533,
-3.50183
]
]
]
}
}
]
}