{
"type": "FeatureCollection",
"features": [
{
"type": "Feature",
"properties": {
"idzonacomercial_calc": "624"
},
"geometry": {
"type": "Polygon",
"coordinates": [
[
-77.1033904,
-6.1388653
],
[
-77.1074888,
-6.1368812
],
[
-77.1150073,
-6.1362323
],
[
-77.121273,
-6.148265
],
[
-77.1087417,
-6.1578226
],
[
-77.0942363,
-6.1597854
],
[
-77.0946655,
-6.1515931
],
[
-77.0955667,
-6.1495877
],
[
-77.0927343,
-6.1484783
],
[
-77.0923051,
-6.1466862
],
[
-77.0921764,
-6.1454915
],
[
-77.0902881,
-6.1454915
],
[
-77.0891723,
-6.1450648
],
[
-77.086533,
-6.1460462
],
[
-77.0852026,
-6.1441475
],
[
-77.0887646,
-6.1441261
],
[
-77.0909104,
-6.1430381
],
[
-77.0916399,
-6.1440194
],
[
-77.0932493,
-6.1431021
],
[
-77.0951292,
-6.1435803
],
[
-77.0961806,
-6.1429829
],
[
-77.0959875,
-6.1427269
],
[
-77.1033904,
-6.1388653
]
]
}
}
]
}