{
"type": "FeatureCollection",
"features": [
{
"type": "Feature",
"properties": {
"idzonacomercial_calc": "580"
},
"geometry": {
"type": "Polygon",
"coordinates": [
[
[
-81.301338,
-4.6400787
],
[
-81.303741,
-4.640763
],
[
-81.306402,
-4.6489757
],
[
-81.307775,
-4.6570172
],
[
-81.30975,
-4.6633477
],
[
-81.315929,
-4.6689937
],
[
-81.314728,
-4.6726722
],
[
-81.310436,
-4.6701914
],
[
-81.302626,
-4.6670262
],
[
-81.300651,
-4.6615512
],
[
-81.299622,
-4.6496601
],
[
-81.297562,
-4.6440139
],
[
-81.301338,
-4.6400787
]
]
]
}
}
]
}