{
"type": "FeatureCollection",
"features": [
{
"type": "Feature",
"properties": {
"idzonacomercial_calc": "432"
},
"geometry": {
"type": "Polygon",
"coordinates": [
[
[
-76.3824138,
-6.5009159
],
[
-76.3829718,
-6.4998345
],
[
-76.3834654,
-6.498476
],
[
-76.3841952,
-6.4961
],
[
-76.3842434,
-6.4959427
],
[
-76.3842702,
-6.4957855
],
[
-76.3838948,
-6.4952789
],
[
-76.383589,
-6.4949565
],
[
-76.3833155,
-6.494602
],
[
-76.382661,
-6.4938505
],
[
-76.3812609,
-6.4921662
],
[
-76.3801048,
-6.4912608
],
[
-76.379158,
-6.4904513
],
[
-76.3774359,
-6.4888537
],
[
-76.3757139,
-6.4872347
],
[
-76.3738846,
-6.4856371
],
[
-76.3762665,
-6.48367
],
[
-76.3785733,
-6.4824867
],
[
-76.3800969,
-6.4818684
],
[
-76.3805368,
-6.4816126
],
[
-76.3807084,
-6.4819857
],
[
-76.3809659,
-6.4824121
],
[
-76.3853969,
-6.480408
],
[
-76.3865771,
-6.4798431
],
[
-76.387392,
-6.4793825
],
[
-76.3877675,
-6.4792759
],
[
-76.3880679,
-6.4792227
],
[
-76.3884058,
-6.4789987
],
[
-76.3895712,
-6.4783245
],
[
-76.3894458,
-6.4779074
],
[
-76.3891297,
-6.4772476
],
[
-76.388878,
-6.4765878
],
[
-76.3902414,
-6.4759932
],
[
-76.3909512,
-6.4758273
],
[
-76.3927456,
-6.4790201
],
[
-76.3921984,
-6.482602
],
[
-76.3946722,
-6.4829471
],
[
-76.3979391,
-6.4846847
],
[
-76.3986801,
-6.4850058
],
[
-76.3990478,
-6.4851717
],
[
-76.3994371,
-6.4853163
],
[
-76.4001217,
-6.4850991
],
[
-76.4005167,
-6.4850738
],
[
-76.4007802,
-6.4850991
],
[
-76.4013656,
-6.4852631
],
[
-76.4019188,
-6.4853737
],
[
-76.4013776,
-6.4861452
],
[
-76.3998177,
-6.4881803
],
[
-76.3986226,
-6.4894904
],
[
-76.3979317,
-6.4904275
],
[
-76.3974232,
-6.4910341
],
[
-76.3967742,
-6.4919029
],
[
-76.3961787,
-6.4926118
],
[
-76.3955457,
-6.4936884
],
[
-76.3943441,
-6.4951382
],
[
-76.3931211,
-6.4966306
],
[
-76.3907823,
-6.4995301
],
[
-76.3865659,
-6.5003829
],
[
-76.3824138,
-6.5009159
]
]
]
}
},
{
"type": "Feature",
"properties": {
"idzonacomercial_calc": "434"
},
"geometry": {
"type": "Polygon",
"coordinates": [
[
[
-76.355706,
-6.5109528
],
[
-76.3562853,
-6.5113791
],
[
-76.3567144,
-6.5128289
],
[
-76.3571651,
-6.5134898
],
[
-76.3577337,
-6.5147582
],
[
-76.3587958,
-6.5156217
],
[
-76.3599331,
-6.5164211
],
[
-76.3613922,
-6.5173059
],
[
-76.3618214,
-6.5179881
],
[
-76.3621003,
-6.5188622
],
[
-76.3618428,
-6.52012
],
[
-76.3613278,
-6.5214204
],
[
-76.3610167,
-6.5223904
],
[
-76.3606197,
-6.5231685
],
[
-76.3604481,
-6.5237655
],
[
-76.3602979,
-6.5243197
],
[
-76.3600189,
-6.5251512
],
[
-76.3595897,
-6.5262598
],
[
-76.3592249,
-6.5273683
],
[
-76.358077,
-6.5303209
],
[
-76.3575888,
-6.5310724
],
[
-76.3568002,
-6.5308006
],
[
-76.3555343,
-6.5304169
],
[
-76.3536621,
-6.5307633
],
[
-76.352018,
-6.5332602
],
[
-76.3517538,
-6.5348071
],
[
-76.3502879,
-6.5353308
],
[
-76.3480027,
-6.535043
],
[
-76.3433463,
-6.5331883
],
[
-76.3354178,
-6.5306088
],
[
-76.3329393,
-6.52206
],
[
-76.3351065,
-6.517647
],
[
-76.3362009,
-6.5139162
],
[
-76.3384325,
-6.5111233
],
[
-76.3406212,
-6.5082666
],
[
-76.3418979,
-6.5068169
],
[
-76.3438719,
-6.5057722
],
[
-76.3440865,
-6.5057082
],
[
-76.3443333,
-6.5059534
],
[
-76.3452345,
-6.506625
],
[
-76.3460822,
-6.5072432
],
[
-76.3467206,
-6.5077815
],
[
-76.3468735,
-6.508008
],
[
-76.3468761,
-6.5082132
],
[
-76.347316,
-6.5084158
],
[
-76.3480884,
-6.5083518
],
[
-76.3525516,
-6.5093325
],
[
-76.355384,
-6.5102279
],
[
-76.3553626,
-6.5104411
],
[
-76.3557059,
-6.5107396
],
[
-76.355706,
-6.5109528
]
]
]
}
},
{
"type": "Feature",
"properties": {
"idzonacomercial_calc": "433"
},
"geometry": {
"type": "Polygon",
"coordinates": [
[
[
-76.3707385,
-6.4989502
],
[
-76.3689611,
-6.5005248
],
[
-76.3662592,
-6.4978782
],
[
-76.3687698,
-6.4946802
],
[
-76.3679951,
-6.493984
],
[
-76.3693255,
-6.4925769
],
[
-76.3718575,
-6.4947089
],
[
-76.3692182,
-6.4973312
],
[
-76.3707385,
-6.4989502
]
]
]
}
},
{
"type": "Feature",
"properties": {
"idzonacomercial_calc": "431"
},
"geometry": {
"type": "Polygon",
"coordinates": [
[
[
-76.3850072,
-6.5220077
],
[
-76.3857447,
-6.5227433
],
[
-76.3867854,
-6.5235534
],
[
-76.3871985,
-6.5243848
],
[
-76.387869,
-6.5254721
],
[
-76.3891136,
-6.5279451
],
[
-76.3905298,
-6.5284141
],
[
-76.3908302,
-6.5293521
],
[
-76.3920318,
-6.5288831
],
[
-76.3957655,
-6.5311002
],
[
-76.3963663,
-6.5326778
],
[
-76.3985979,
-6.5331041
],
[
-76.3998853,
-6.5348096
],
[
-76.4003574,
-6.5360887
],
[
-76.3988983,
-6.5375383
],
[
-76.3935339,
-6.539926
],
[
-76.3903581,
-6.5442748
],
[
-76.3879549,
-6.5440616
],
[
-76.3852512,
-6.542612
],
[
-76.3843929,
-6.5409492
],
[
-76.383835,
-6.5375383
],
[
-76.3812172,
-6.5386895
],
[
-76.3790714,
-6.540395
],
[
-76.376239,
-6.5423136
],
[
-76.3738786,
-6.5422283
],
[
-76.3716041,
-6.5423988
],
[
-76.372162,
-6.5448717
],
[
-76.3727628,
-6.5469182
],
[
-76.3734066,
-6.548112
],
[
-76.3734924,
-6.5494763
],
[
-76.3721191,
-6.5506275
],
[
-76.3683855,
-6.550457
],
[
-76.3650381,
-6.5506275
],
[
-76.3619053,
-6.5497322
],
[
-76.3600599,
-6.548112
],
[
-76.3580858,
-6.5502438
],
[
-76.3555109,
-6.5489647
],
[
-76.3538801,
-6.546364
],
[
-76.355468,
-6.5466198
],
[
-76.3564121,
-6.545895
],
[
-76.3555109,
-6.5429957
],
[
-76.3546526,
-6.5417593
],
[
-76.3567554,
-6.5406934
],
[
-76.3585579,
-6.5410771
],
[
-76.3601457,
-6.5406508
],
[
-76.3616478,
-6.5403523
],
[
-76.3628065,
-6.5389453
],
[
-76.3648235,
-6.5370693
],
[
-76.3648664,
-6.5363871
],
[
-76.362549,
-6.5354065
],
[
-76.3599312,
-6.5330189
],
[
-76.3580858,
-6.531356
],
[
-76.3585901,
-6.5296825
],
[
-76.359266,
-6.5279237
],
[
-76.3599634,
-6.5259944
],
[
-76.3606822,
-6.5242143
],
[
-76.3619911,
-6.5203556
],
[
-76.3623559,
-6.5191298
],
[
-76.3622057,
-6.5179892
],
[
-76.3613474,
-6.5169179
],
[
-76.3603174,
-6.5161878
],
[
-76.3584077,
-6.5147914
],
[
-76.3573233,
-6.5128784
],
[
-76.3569528,
-6.511858
],
[
-76.3563813,
-6.5107082
],
[
-76.3568827,
-6.5107949
],
[
-76.3592201,
-6.5114033
],
[
-76.3603328,
-6.5115115
],
[
-76.3622365,
-6.5114082
],
[
-76.3649421,
-6.5112328
],
[
-76.3667894,
-6.5110573
],
[
-76.3685528,
-6.5109622
],
[
-76.3684318,
-6.5122218
],
[
-76.3684472,
-6.5135043
],
[
-76.3704307,
-6.5182437
],
[
-76.3703542,
-6.5207661
],
[
-76.3718724,
-6.5211124
],
[
-76.3728112,
-6.5171738
],
[
-76.3732054,
-6.5148314
],
[
-76.3735139,
-6.5124037
],
[
-76.3743776,
-6.5082411
],
[
-76.3764381,
-6.5097072
],
[
-76.3779878,
-6.5111138
],
[
-76.3800156,
-6.5143223
],
[
-76.3800748,
-6.5147218
],
[
-76.3799624,
-6.5151212
],
[
-76.3799951,
-6.5159628
],
[
-76.3795236,
-6.5169829
],
[
-76.3792881,
-6.5176246
],
[
-76.3789468,
-6.5186884
],
[
-76.3792514,
-6.5191956
],
[
-76.3812767,
-6.5200823
],
[
-76.3850072,
-6.5220077
]
]
]
}
}
]
}