{
"type": "FeatureCollection",
"features": [
{
"type": "Feature",
"properties": {
"idzonacomercial_calc": "787"
},
"geometry": {
"type": "Polygon",
"coordinates": [
[
[
-78.8204478,
-7.4754383
],
[
-78.817644,
-7.4795941
],
[
-78.816448,
-7.4805457
],
[
-78.8133238,
-7.4817925
],
[
-78.8101216,
-7.4802018
],
[
-78.8101431,
-7.4790104
],
[
-78.8108118,
-7.4767588
],
[
-78.8102969,
-7.4761914
],
[
-78.8079365,
-7.4768013
],
[
-78.8053759,
-7.4767871
],
[
-78.8027723,
-7.4763758
],
[
-78.8012346,
-7.4771843
],
[
-78.7994321,
-7.4774396
],
[
-78.7982305,
-7.4750567
],
[
-78.7960275,
-7.4734966
],
[
-78.7963636,
-7.4721207
],
[
-78.799146,
-7.4725888
],
[
-78.8004907,
-7.473298
],
[
-78.8032087,
-7.4739221
],
[
-78.8046678,
-7.4737235
],
[
-78.808101,
-7.4749149
],
[
-78.8104185,
-7.4745745
],
[
-78.8114484,
-7.4733831
],
[
-78.8102468,
-7.4723902
],
[
-78.8064917,
-7.4593411
],
[
-78.7998327,
-7.4508731
],
[
-78.7942251,
-7.4454263
],
[
-78.7912496,
-7.4360077
],
[
-78.785642,
-7.4329438
],
[
-78.7823732,
-7.428362
],
[
-78.783489,
-7.40602
],
[
-78.7943395,
-7.4049703
],
[
-78.8005407,
-7.410219
],
[
-78.8009413,
-7.4173685
],
[
-78.7967428,
-7.4259648
],
[
-78.793424,
-7.4281209
],
[
-78.7963064,
-7.432575
],
[
-78.8006338,
-7.4349297
],
[
-78.8023504,
-7.4398092
],
[
-78.8062414,
-7.4455965
],
[
-78.8107046,
-7.4542206
],
[
-78.8127287,
-7.4645466
],
[
-78.8135942,
-7.4685181
],
[
-78.8150247,
-7.4708442
],
[
-78.8178857,
-7.4707166
],
[
-78.8184579,
-7.4723051
],
[
-78.8178357,
-7.4729008
],
[
-78.8186081,
-7.4733122
],
[
-78.8190444,
-7.474383
],
[
-78.8204478,
-7.4754383
]
]
]
}
}
]
}