{
"type": "FeatureCollection",
"features": [
{
"type": "Feature",
"properties": {
"idzonacomercial_calc": "763"
},
"geometry": {
"type": "Polygon",
"coordinates": [
[
[
-81.3013381,
-4.6400787
],
[
-81.3037413,
-4.640763
],
[
-81.3064021,
-4.6489757
],
[
-81.3077754,
-4.6570172
],
[
-81.3097495,
-4.6633477
],
[
-81.3159293,
-4.6689937
],
[
-81.3147277,
-4.6726722
],
[
-81.3104361,
-4.6701914
],
[
-81.3026255,
-4.6670262
],
[
-81.3006514,
-4.6615512
],
[
-81.2996215,
-4.6496601
],
[
-81.2975615,
-4.6440139
],
[
-81.3013381,
-4.6400787
]
]
]
}
}
]
}