{
"type": "FeatureCollection",
"features": [
{
"type": "Feature",
"properties": {
"idzonacomercial_calc": "835"
},
"geometry": {
"type": "Polygon",
"coordinates": [
[
[
-77.5849879,
-7.7623402
],
[
-77.5931418,
-7.7642536
],
[
-77.5934851,
-7.7711847
],
[
-77.5969183,
-7.774969
],
[
-77.602154,
-7.7764147
],
[
-77.6058876,
-7.7790935
],
[
-77.6080763,
-7.7820699
],
[
-77.6072609,
-7.785429
],
[
-77.6033986,
-7.7871723
],
[
-77.601167,
-7.7878526
],
[
-77.5986779,
-7.7889581
],
[
-77.596575,
-7.7914243
],
[
-77.5905669,
-7.7942305
],
[
-77.5856745,
-7.7904038
],
[
-77.5826275,
-7.7883629
],
[
-77.5822842,
-7.7823676
],
[
-77.5829279,
-7.7806243
],
[
-77.5850737,
-7.7793912
],
[
-77.5846875,
-7.7772651
],
[
-77.5841296,
-7.7751391
],
[
-77.5822413,
-7.7716949
],
[
-77.580868,
-7.7682082
],
[
-77.5796664,
-7.7653167
],
[
-77.5816405,
-7.7627654
],
[
-77.5849879,
-7.7623402
]
]
]
}
}
]
}