{
"type": "FeatureCollection",
"features": [
{
"type": "Feature",
"properties": {
"idzonacomercial_calc": "770"
},
"geometry": {
"type": "Polygon",
"coordinates": [
[
[
-80.2375794,
-3.5329608
],
[
-80.2358627,
-3.5418702
],
[
-80.2308846,
-3.5526642
],
[
-80.2181816,
-3.5658566
],
[
-80.2125168,
-3.5655139
],
[
-80.2109718,
-3.5612307
],
[
-80.2214432,
-3.5507795
],
[
-80.2247047,
-3.5434122
],
[
-80.2269363,
-3.5365589
],
[
-80.2331162,
-3.5327895
],
[
-80.2375794,
-3.5329608
]
]
]
}
},
{
"type": "Feature",
"properties": {
"idzonacomercial_calc": "756"
},
"geometry": {
"type": "Polygon",
"coordinates": [
[
[
-80.211025,
-3.6792892
],
[
-80.2745398,
-3.6840858
],
[
-80.2862127,
-3.6851137
],
[
-80.2820929,
-3.6926511
],
[
-80.2594336,
-3.7029294
],
[
-80.1921423,
-3.6878546
],
[
-80.1890524,
-3.6810023
],
[
-80.211025,
-3.6792892
]
]
]
}
},
{
"type": "Feature",
"properties": {
"idzonacomercial_calc": "754"
},
"geometry": {
"type": "Polygon",
"coordinates": [
[
[
-80.4401018,
-3.6060661
],
[
-80.4280855,
-3.6458118
],
[
-80.4356386,
-3.6663692
],
[
-80.4452516,
-3.6882966
],
[
-80.4308321,
-3.7170755
],
[
-80.4236223,
-3.7013158
],
[
-80.4122926,
-3.6790461
],
[
-80.412636,
-3.662943
],
[
-80.4205324,
-3.6478675
],
[
-80.4229356,
-3.634505
],
[
-80.4291155,
-3.6180585
],
[
-80.4208757,
-3.6101778
],
[
-80.4401018,
-3.6060661
]
]
]
}
},
{
"type": "Feature",
"properties": {
"idzonacomercial_calc": "753"
},
"geometry": {
"type": "Polygon",
"coordinates": [
[
[
-80.4349957,
-3.5536386
],
[
-80.4295025,
-3.566317
],
[
-80.4281292,
-3.5733414
],
[
-80.4324364,
-3.5935747
],
[
-80.4083882,
-3.5863623
],
[
-80.4051266,
-3.5813938
],
[
-80.4133664,
-3.5723135
],
[
-80.4161129,
-3.5685443
],
[
-80.4189851,
-3.5578322
],
[
-80.3676426,
-3.5356863
],
[
-80.3066251,
-3.5127258
],
[
-80.2890098,
-3.5076121
],
[
-80.2876273,
-3.5050501
],
[
-80.2892511,
-3.5040195
],
[
-80.3387824,
-3.5172971
],
[
-80.3675524,
-3.5290324
],
[
-80.3866705,
-3.5357573
],
[
-80.4349957,
-3.5536386
]
]
]
}
},
{
"type": "Feature",
"properties": {
"idzonacomercial_calc": "755"
},
"geometry": {
"type": "Polygon",
"coordinates": [
[
[
-80.2481039,
-3.5663905
],
[
-80.2432974,
-3.5773555
],
[
-80.2137716,
-3.5752996
],
[
-80.2199514,
-3.5663905
],
[
-80.2481039,
-3.5663905
]
]
]
}
},
{
"type": "Feature",
"properties": {
"idzonacomercial_calc": "772"
},
"geometry": {
"type": "Polygon",
"coordinates": [
[
[
-80.39432,
-3.5015517
],
[
-80.3942985,
-3.5041218
],
[
-80.3939338,
-3.5058994
],
[
-80.391552,
-3.5074843
],
[
-80.3792761,
-3.5331498
],
[
-80.3764034,
-3.5321291
],
[
-80.3880544,
-3.505621
],
[
-80.3863377,
-3.5053854
],
[
-80.3866167,
-3.504593
],
[
-80.3877754,
-3.5036078
],
[
-80.3867025,
-3.5010591
],
[
-80.3847284,
-3.4986389
],
[
-80.3860588,
-3.498489
],
[
-80.3893204,
-3.4997312
],
[
-80.39432,
-3.5015517
]
]
]
}
},
{
"type": "Feature",
"properties": {
"idzonacomercial_calc": "757"
},
"geometry": {
"type": "Polygon",
"coordinates": [
[
[
-80.4562433,
-3.7333565
],
[
-80.4630239,
-3.7571665
],
[
-80.4676588,
-3.7650459
],
[
-80.4602774,
-3.7673584
],
[
-80.4515226,
-3.7471458
],
[
-80.4511793,
-3.7349839
],
[
-80.4527243,
-3.732757
],
[
-80.4562433,
-3.7333565
]
]
]
}
}
]
}