{
"type": "FeatureCollection",
"features": [
{
"type": "Feature",
"properties": {
"idzonacomercial_calc": "529"
},
"geometry": {
"type": "Polygon",
"coordinates": [
[
[
-78.523993,
-7.1484271
],
[
-78.490927,
-7.1530047
],
[
-78.491721,
-7.1458722
],
[
-78.494124,
-7.1465535
],
[
-78.49687,
-7.1455924
],
[
-78.500476,
-7.1468942
],
[
-78.503222,
-7.1479161
],
[
-78.506998,
-7.1487434
],
[
-78.508458,
-7.1462128
],
[
-78.51026,
-7.1449354
],
[
-78.512664,
-7.1446799
],
[
-78.517127,
-7.1458722
],
[
-78.521247,
-7.1464683
],
[
-78.523993,
-7.1484271
]
]
]
}
}
]
}