{
"type": "FeatureCollection",
"features": [
{
"type": "Feature",
"properties": {
"idzonacomercial_calc": "531"
},
"geometry": {
"type": "Polygon",
"coordinates": [
[
[
-79.4847846,
-7.2950791
],
[
-79.486501,
-7.2985697
],
[
-79.488304,
-7.3005278
],
[
-79.490964,
-7.3003575
],
[
-79.492166,
-7.3036778
],
[
-79.487703,
-7.3053804
],
[
-79.485986,
-7.305125
],
[
-79.487188,
-7.306998
],
[
-79.488132,
-7.3092115
],
[
-79.490449,
-7.312106
],
[
-79.490793,
-7.3132978
],
[
-79.485986,
-7.3132978
],
[
-79.484785,
-7.3119357
],
[
-79.483755,
-7.3104033
],
[
-79.481609,
-7.3109141
],
[
-79.481008,
-7.3190017
],
[
-79.481695,
-7.3229177
],
[
-79.481609,
-7.3258973
],
[
-79.482982,
-7.3262378
],
[
-79.484785,
-7.3282809
],
[
-79.485385,
-7.3302389
],
[
-79.48796,
-7.3310902
],
[
-79.49002,
-7.3294727
],
[
-79.493196,
-7.3291322
],
[
-79.495428,
-7.3297281
],
[
-79.498003,
-7.332282
],
[
-79.501779,
-7.3334738
],
[
-79.506156,
-7.3347507
],
[
-79.510191,
-7.3364533
],
[
-79.512508,
-7.3387517
],
[
-79.514568,
-7.3374748
],
[
-79.516199,
-7.3387517
],
[
-79.519117,
-7.3401989
],
[
-79.520061,
-7.3422419
],
[
-79.521263,
-7.3441998
],
[
-79.523237,
-7.3450511
],
[
-79.524524,
-7.3468388
],
[
-79.52152,
-7.3466685
],
[
-79.519117,
-7.3464131
],
[
-79.519374,
-7.3486264
],
[
-79.517915,
-7.3476049
],
[
-79.516971,
-7.3464131
],
[
-79.514997,
-7.3473495
],
[
-79.514911,
-7.3489669
],
[
-79.512079,
-7.3491372
],
[
-79.510534,
-7.3489669
],
[
-79.509761,
-7.3473495
],
[
-79.509418,
-7.344966
],
[
-79.507787,
-7.3424973
],
[
-79.501779,
-7.3401137
],
[
-79.500492,
-7.3405394
],
[
-79.498174,
-7.340284
],
[
-79.493711,
-7.3381558
],
[
-79.493196,
-7.3365384
],
[
-79.48796,
-7.3350061
],
[
-79.486587,
-7.3341548
],
[
-79.4853,
-7.3347507
],
[
-79.483497,
-7.3350912
],
[
-79.482553,
-7.3342399
],
[
-79.480836,
-7.3333886
],
[
-79.479206,
-7.3334738
],
[
-79.475601,
-7.3352615
],
[
-79.471738,
-7.3367938
],
[
-79.468219,
-7.3388368
],
[
-79.465387,
-7.3430081
],
[
-79.464357,
-7.344285
],
[
-79.464958,
-7.3480305
],
[
-79.46264,
-7.3493925
],
[
-79.46161,
-7.351776
],
[
-79.459722,
-7.3498182
],
[
-79.456976,
-7.3506694
],
[
-79.454057,
-7.351776
],
[
-79.45174,
-7.3513504
],
[
-79.448135,
-7.3506694
],
[
-79.444702,
-7.3504992
],
[
-79.443843,
-7.3495628
],
[
-79.444702,
-7.3472644
],
[
-79.446418,
-7.345647
],
[
-79.448822,
-7.3465834
],
[
-79.451568,
-7.3485413
],
[
-79.453371,
-7.3479454
],
[
-79.455516,
-7.3452214
],
[
-79.45852,
-7.343604
],
[
-79.460752,
-7.3443701
],
[
-79.460924,
-7.3427527
],
[
-79.459379,
-7.340965
],
[
-79.461181,
-7.3398584
],
[
-79.464185,
-7.3422419
],
[
-79.467275,
-7.3378153
],
[
-79.471223,
-7.335602
],
[
-79.474914,
-7.3340697
],
[
-79.476373,
-7.329643
],
[
-79.48015,
-7.3265783
],
[
-79.480579,
-7.3230028
],
[
-79.479549,
-7.3188314
],
[
-79.480665,
-7.3107439
],
[
-79.479549,
-7.309552
],
[
-79.478262,
-7.3112546
],
[
-79.477575,
-7.3097223
],
[
-79.476116,
-7.3090412
],
[
-79.475687,
-7.3077642
],
[
-79.475,
-7.3054656
],
[
-79.474056,
-7.3048696
],
[
-79.472597,
-7.3053804
],
[
-79.471567,
-7.3061466
],
[
-79.472253,
-7.3087858
],
[
-79.471738,
-7.3109993
],
[
-79.470279,
-7.3115952
],
[
-79.470022,
-7.3104885
],
[
-79.469764,
-7.3087007
],
[
-79.46985,
-7.3075088
],
[
-79.468992,
-7.3060615
],
[
-79.467876,
-7.3049548
],
[
-79.452598,
-7.305721
],
[
-79.447448,
-7.3060615
],
[
-79.437149,
-7.3063169
],
[
-79.425733,
-7.3026561
],
[
-79.423587,
-7.3017197
],
[
-79.422042,
-7.3018899
],
[
-79.420068,
-7.3028264
],
[
-79.420326,
-7.3046142
],
[
-79.418266,
-7.3055507
],
[
-79.416206,
-7.3050399
],
[
-79.414318,
-7.303848
],
[
-79.412515,
-7.3033372
],
[
-79.410627,
-7.3034224
],
[
-79.408481,
-7.3022305
],
[
-79.406421,
-7.303167
],
[
-79.403245,
-7.3018899
],
[
-79.405048,
-7.2997616
],
[
-79.406507,
-7.2988251
],
[
-79.407194,
-7.2959305
],
[
-79.410284,
-7.2950791
],
[
-79.408996,
-7.2964413
],
[
-79.409425,
-7.3002724
],
[
-79.410713,
-7.3005278
],
[
-79.414489,
-7.2989102
],
[
-79.416893,
-7.2983143
],
[
-79.420841,
-7.2979737
],
[
-79.424274,
-7.2976332
],
[
-79.424961,
-7.2989954
],
[
-79.427021,
-7.2995062
],
[
-79.426248,
-7.3016345
],
[
-79.437749,
-7.305125
],
[
-79.447105,
-7.3047845
],
[
-79.448307,
-7.303848
],
[
-79.445903,
-7.3019751
],
[
-79.446933,
-7.3006981
],
[
-79.447277,
-7.2980589
],
[
-79.449337,
-7.2966116
],
[
-79.45174,
-7.2995062
],
[
-79.451826,
-7.3015494
],
[
-79.452255,
-7.304444
],
[
-79.467018,
-7.3036778
],
[
-79.470365,
-7.3036778
],
[
-79.471395,
-7.3023156
],
[
-79.474142,
-7.3007832
],
[
-79.477317,
-7.2997616
],
[
-79.48015,
-7.3002724
],
[
-79.481866,
-7.299421
],
[
-79.481008,
-7.2967818
],
[
-79.484785,
-7.2950791
],
[
-79.4847846,
-7.2950791
]
]
]
}
}
]
}