{
"type": "FeatureCollection",
"features": [
{
"type": "Feature",
"properties": {
"idzonacomercial_calc": "737"
},
"geometry": {
"type": "Polygon",
"coordinates": [
[
[
-79.030507,
-8.127648
],
[
-79.033425,
-8.131556
],
[
-79.027314,
-8.136916
],
[
-79.024278,
-8.133438
],
[
-79.021124,
-8.130305
],
[
-79.020308,
-8.130772
],
[
-79.016789,
-8.130432
],
[
-79.013957,
-8.130241
],
[
-79.012584,
-8.129816
],
[
-79.009816,
-8.125929
],
[
-79.008743,
-8.124909
],
[
-79.007348,
-8.123295
],
[
-79.007112,
-8.1227
],
[
-79.008228,
-8.122212
],
[
-79.010138,
-8.121596
],
[
-79.01385,
-8.118324
],
[
-79.015931,
-8.117113
],
[
-79.016789,
-8.117113
],
[
-79.022776,
-8.123316
],
[
-79.023878,
-8.12415
],
[
-79.030335,
-8.12684
],
[
-79.030507,
-8.127648
]
]
]
}
}
]
}