{
"type": "FeatureCollection",
"features": [
{
"type": "Feature",
"properties": {
"idzonacomercial_calc": "764"
},
"geometry": {
"type": "Polygon",
"coordinates": [
[
[
-81.2661475,
-4.5933671
],
[
-81.2657183,
-4.5990993
],
[
-81.261856,
-4.6020082
],
[
-81.250698,
-4.600896
],
[
-81.2446898,
-4.598586
],
[
-81.2431449,
-4.5913994
],
[
-81.2426299,
-4.5850683
],
[
-81.2461489,
-4.583186
],
[
-81.2525862,
-4.5842983
],
[
-81.2573069,
-4.5860949
],
[
-81.2640017,
-4.5851538
],
[
-81.276533,
-4.5856672
],
[
-81.2732714,
-4.5913994
],
[
-81.2736148,
-4.5946505
],
[
-81.2661475,
-4.5933671
]
]
]
}
}
]
}