{
"type": "FeatureCollection",
"features": [
{
"type": "Feature",
"properties": {
"idzonacomercial_calc": "553"
},
"geometry": {
"type": "Polygon",
"coordinates": [
[
[
-81.2661475,
-4.5933671
],
[
-81.265718,
-4.5990993
],
[
-81.261856,
-4.6020082
],
[
-81.250698,
-4.600896
],
[
-81.24469,
-4.598586
],
[
-81.243145,
-4.5913994
],
[
-81.24263,
-4.5850683
],
[
-81.246149,
-4.583186
],
[
-81.252586,
-4.5842983
],
[
-81.257307,
-4.5860949
],
[
-81.264002,
-4.5851538
],
[
-81.276533,
-4.5856672
],
[
-81.273271,
-4.5913994
],
[
-81.273615,
-4.5946505
],
[
-81.266148,
-4.5933671
],
[
-81.2661475,
-4.5933671
]
]
]
}
}
]
}