{
"type": "FeatureCollection",
"features": [
{
"type": "Feature",
"properties": {
"idzonacomercial_calc": "530"
},
"geometry": {
"type": "Polygon",
"coordinates": [
[
[
-79.5283659,
-7.4137117
],
[
-79.528795,
-7.4176269
],
[
-79.5272501,
-7.4209463
],
[
-79.524246,
-7.4204356
],
[
-79.5227869,
-7.4175418
],
[
-79.5166071,
-7.4176269
],
[
-79.5153196,
-7.4210314
],
[
-79.5137747,
-7.422223
],
[
-79.5121439,
-7.4213719
],
[
-79.5110281,
-7.4223932
],
[
-79.5095689,
-7.4248614
],
[
-79.5081098,
-7.4284361
],
[
-79.5094831,
-7.4302234
],
[
-79.5116289,
-7.430734
],
[
-79.5109422,
-7.4319256
],
[
-79.5116289,
-7.4343086
],
[
-79.5081098,
-7.4340533
],
[
-79.5084531,
-7.43533
],
[
-79.5074232,
-7.4362662
],
[
-79.5050199,
-7.4372875
],
[
-79.5035608,
-7.4386492
],
[
-79.5050199,
-7.4398407
],
[
-79.5036466,
-7.4419684
],
[
-79.5030458,
-7.4450323
],
[
-79.5007284,
-7.4448621
],
[
-79.4995268,
-7.4417982
],
[
-79.5001276,
-7.4394152
],
[
-79.5027883,
-7.4389896
],
[
-79.5018442,
-7.4367768
],
[
-79.4994409,
-7.4370321
],
[
-79.4990976,
-7.4326916
],
[
-79.497896,
-7.4286914
],
[
-79.4978101,
-7.4232443
],
[
-79.4965227,
-7.4197547
],
[
-79.4962652,
-7.417712
],
[
-79.4985826,
-7.4166907
],
[
-79.4985826,
-7.4188185
],
[
-79.5020158,
-7.4183078
],
[
-79.5003966,
-7.4092681
],
[
-79.4986488,
-7.399122
],
[
-79.4976517,
-7.3956897
],
[
-79.4951526,
-7.3930234
],
[
-79.4906695,
-7.3891378
],
[
-79.487368,
-7.3907294
],
[
-79.4866015,
-7.3894865
],
[
-79.4876434,
-7.3875966
],
[
-79.487703,
-7.3857366
],
[
-79.4857885,
-7.3836212
],
[
-79.4819597,
-7.3804971
],
[
-79.4787651,
-7.3796964
],
[
-79.4773302,
-7.376789
],
[
-79.4746078,
-7.3747328
],
[
-79.4709656,
-7.3727484
],
[
-79.4728759,
-7.3704291
],
[
-79.476749,
-7.3726955
],
[
-79.4806222,
-7.3741958
],
[
-79.4818533,
-7.3761882
],
[
-79.5283659,
-7.4137117
]
]
]
}
}
]
}