{
"type": "FeatureCollection",
"features": [
{
"type": "Feature",
"properties": {
"idzonacomercial_calc": "784"
},
"geometry": {
"type": "Polygon",
"coordinates": [
[
[
-79.4516464,
-7.7061974
],
[
-79.4646926,
-7.7120946
],
[
-79.4429489,
-7.740445
],
[
-79.4056412,
-7.7777515
],
[
-79.3874431,
-7.7990114
],
[
-79.3872725,
-7.8113413
],
[
-79.3816086,
-7.818229
],
[
-79.3799467,
-7.827354
],
[
-79.3404059,
-7.8107428
],
[
-79.335031,
-7.7681133
],
[
-79.3136306,
-7.7304659
],
[
-79.3077941,
-7.7309762
],
[
-79.3060203,
-7.7297288
],
[
-79.2990966,
-7.7349452
],
[
-79.2922588,
-7.7389142
],
[
-79.2832466,
-7.7485104
],
[
-79.2810865,
-7.7510335
],
[
-79.2710443,
-7.7568733
],
[
-79.2525049,
-7.7723512
],
[
-79.2258017,
-7.7684703
],
[
-79.2196608,
-7.7649978
],
[
-79.2172639,
-7.7593194
],
[
-79.2114308,
-7.752398
],
[
-79.2083427,
-7.7443447
],
[
-79.1989032,
-7.7347707
],
[
-79.1909354,
-7.7258648
],
[
-79.1794058,
-7.7057297
],
[
-79.1806932,
-7.6999458
],
[
-79.1850421,
-7.6881226
],
[
-79.1902492,
-7.6875272
],
[
-79.1961999,
-7.6808927
],
[
-79.2060419,
-7.6685303
],
[
-79.2062707,
-7.6628594
],
[
-79.1966577,
-7.6614984
],
[
-79.2106195,
-7.6383602
],
[
-79.2525049,
-7.6320084
],
[
-79.2684122,
-7.6465268
],
[
-79.2785974,
-7.6596837
],
[
-79.2607446,
-7.670345
],
[
-79.2582269,
-7.6841817
],
[
-79.2529626,
-7.7016469
],
[
-79.277453,
-7.7345342
],
[
-79.2888971,
-7.7200187
],
[
-79.2971368,
-7.7104927
],
[
-79.3147607,
-7.7064101
],
[
-79.3184228,
-7.6862231
],
[
-79.3046899,
-7.6753353
],
[
-79.3165918,
-7.6701182
],
[
-79.3333002,
-7.6696645
],
[
-79.3485208,
-7.675789
],
[
-79.3549295,
-7.6803256
],
[
-79.3698068,
-7.670345
],
[
-79.3867441,
-7.6791915
],
[
-79.4183298,
-7.6932546
],
[
-79.4224496,
-7.6996056
],
[
-79.4364114,
-7.6946155
],
[
-79.4516464,
-7.7061974
]
]
]
}
}
]
}