{
"type": "FeatureCollection",
"features": [
{
"type": "Feature",
"properties": {
"idzonacomercial_calc": "779"
},
"geometry": {
"type": "Polygon",
"coordinates": [
[
[
-79.4435077,
-7.1531912
],
[
-79.4472842,
-7.1537448
],
[
-79.4487433,
-7.1556183
],
[
-79.4487433,
-7.1579177
],
[
-79.4472842,
-7.1597062
],
[
-79.4455676,
-7.1608984
],
[
-79.4465117,
-7.1639643
],
[
-79.4465976,
-7.1666894
],
[
-79.4458251,
-7.1678817
],
[
-79.4430785,
-7.1673707
],
[
-79.4405893,
-7.1656675
],
[
-79.4391302,
-7.1640494
],
[
-79.4386152,
-7.1660081
],
[
-79.4381861,
-7.1727358
],
[
-79.4377569,
-7.1750351
],
[
-79.438701,
-7.178186
],
[
-79.4375852,
-7.1805705
],
[
-79.4384435,
-7.1828697
],
[
-79.4409327,
-7.1825291
],
[
-79.4403318,
-7.1861909
],
[
-79.4391302,
-7.1858503
],
[
-79.4362119,
-7.1867018
],
[
-79.4362119,
-7.188405
],
[
-79.4349244,
-7.1893417
],
[
-79.4314913,
-7.188405
],
[
-79.4282296,
-7.1945362
],
[
-79.4259121,
-7.205947
],
[
-79.4253112,
-7.2114819
],
[
-79.4252254,
-7.2145474
],
[
-79.4279721,
-7.2167614
],
[
-79.4293454,
-7.220508
],
[
-79.4325212,
-7.2237438
],
[
-79.4350102,
-7.2215299
],
[
-79.4375852,
-7.223318
],
[
-79.4357827,
-7.2254467
],
[
-79.4365553,
-7.2266389
],
[
-79.4373277,
-7.227384
],
[
-79.4347527,
-7.2300023
],
[
-79.4325212,
-7.2335785
],
[
-79.4337228,
-7.236133
],
[
-79.4314913,
-7.2383468
],
[
-79.4294312,
-7.2403904
],
[
-79.4244529,
-7.240731
],
[
-79.4194748,
-7.2427745
],
[
-79.4194748,
-7.2400498
],
[
-79.4163848,
-7.2391983
],
[
-79.4131232,
-7.2395389
],
[
-79.4083167,
-7.2414121
],
[
-79.4026517,
-7.2453289
],
[
-79.4007635,
-7.2475427
],
[
-79.3945836,
-7.2517999
],
[
-79.389777,
-7.2512891
],
[
-79.3878887,
-7.2494159
],
[
-79.3887471,
-7.2465209
],
[
-79.3923519,
-7.2458398
],
[
-79.3940686,
-7.2432854
],
[
-79.3971585,
-7.240731
],
[
-79.4000768,
-7.2446477
],
[
-79.404025,
-7.2417527
],
[
-79.4083167,
-7.2391983
],
[
-79.4057417,
-7.2378359
],
[
-79.4047117,
-7.2322162
],
[
-79.40557,
-7.2288102
],
[
-79.40454,
-7.2262557
],
[
-79.4072867,
-7.2237012
],
[
-79.4124366,
-7.2219982
],
[
-79.4146681,
-7.2259151
],
[
-79.4124366,
-7.2271072
],
[
-79.4090033,
-7.2300023
],
[
-79.4103766,
-7.2325567
],
[
-79.4146681,
-7.23443
],
[
-79.4186165,
-7.2323864
],
[
-79.4215348,
-7.2300023
],
[
-79.4244529,
-7.2267666
],
[
-79.4249679,
-7.221317
],
[
-79.4218781,
-7.2163782
],
[
-79.4235946,
-7.2061599
],
[
-79.4258262,
-7.193557
],
[
-79.4297745,
-7.1865741
],
[
-79.4330362,
-7.1833381
],
[
-79.435096,
-7.1789099
],
[
-79.4359545,
-7.1739706
],
[
-79.4368128,
-7.1656249
],
[
-79.4364694,
-7.1632404
],
[
-79.4332079,
-7.1622184
],
[
-79.4318346,
-7.1589823
],
[
-79.4328645,
-7.1564274
],
[
-79.4364694,
-7.1550648
],
[
-79.4394675,
-7.1580591
],
[
-79.4435077,
-7.1531912
]
]
]
}
}
]
}