{
"type": "FeatureCollection",
"features": [
{
"type": "Feature",
"properties": {
"idzonacomercial_calc": "834"
},
"geometry": {
"type": "Polygon",
"coordinates": [
[
[
-76.7355477,
-7.1845419
],
[
-76.7356872,
-7.1838074
],
[
-76.7355155,
-7.1828281
],
[
-76.7354297,
-7.1817423
],
[
-76.7354512,
-7.1805501
],
[
-76.7363953,
-7.1804224
],
[
-76.736567,
-7.1800392
],
[
-76.7370176,
-7.1788683
],
[
-76.7373394,
-7.1777612
],
[
-76.7374896,
-7.1766541
],
[
-76.7371463,
-7.1755684
],
[
-76.736567,
-7.1739291
],
[
-76.7361378,
-7.1726304
],
[
-76.7361164,
-7.1720556
],
[
-76.7362451,
-7.1714595
],
[
-76.7368888,
-7.1692453
],
[
-76.7371034,
-7.1682873
],
[
-76.7377042,
-7.1685534
],
[
-76.7376506,
-7.1689792
],
[
-76.7374253,
-7.1702246
],
[
-76.7376399,
-7.1708101
],
[
-76.7374682,
-7.1710017
],
[
-76.7369639,
-7.1717149
],
[
-76.7369103,
-7.1722152
],
[
-76.7367708,
-7.1736417
],
[
-76.7375862,
-7.1748339
],
[
-76.738466,
-7.1745571
],
[
-76.7393994,
-7.1744294
],
[
-76.7400002,
-7.1740887
],
[
-76.7403542,
-7.1740887
],
[
-76.7407619,
-7.1741313
],
[
-76.7407619,
-7.1751319
],
[
-76.7408692,
-7.1753235
],
[
-76.7419958,
-7.1762071
],
[
-76.7430043,
-7.1768883
],
[
-76.7438518,
-7.1758345
],
[
-76.7437875,
-7.1745891
],
[
-76.7440342,
-7.1739078
],
[
-76.7446351,
-7.1733436
],
[
-76.7451822,
-7.1728326
],
[
-76.7454075,
-7.1719598
],
[
-76.7457187,
-7.1713637
],
[
-76.7465126,
-7.1714914
],
[
-76.7475962,
-7.1723217
],
[
-76.7477893,
-7.1727475
],
[
-76.7478644,
-7.1730136
],
[
-76.7479181,
-7.1739716
],
[
-76.7472314,
-7.1744826
],
[
-76.7468452,
-7.1744294
],
[
-76.7455792,
-7.1743762
],
[
-76.7456006,
-7.1752384
],
[
-76.7468345,
-7.1761219
],
[
-76.7476713,
-7.1761325
],
[
-76.7474353,
-7.1771119
],
[
-76.7470598,
-7.177229
],
[
-76.7460298,
-7.1775483
],
[
-76.7448818,
-7.1776228
],
[
-76.7439591,
-7.1776973
],
[
-76.743412,
-7.1788576
],
[
-76.7421352,
-7.1786766
],
[
-76.741867,
-7.1788363
],
[
-76.7415022,
-7.179145
],
[
-76.741352,
-7.1793047
],
[
-76.7412233,
-7.1801137
],
[
-76.741631,
-7.1803692
],
[
-76.7423391,
-7.181274
],
[
-76.7427253,
-7.1811782
],
[
-76.7431545,
-7.1814868
],
[
-76.7434978,
-7.1814762
],
[
-76.7447853,
-7.1814762
],
[
-76.7457187,
-7.1812314
],
[
-76.7462766,
-7.1813378
],
[
-76.7457938,
-7.181902
],
[
-76.7453324,
-7.1824662
],
[
-76.7442703,
-7.1832964
],
[
-76.7432403,
-7.1842225
],
[
-76.7422747,
-7.184808
],
[
-76.7424249,
-7.1854892
],
[
-76.7422425,
-7.1860215
],
[
-76.7417168,
-7.1863408
],
[
-76.740837,
-7.1864259
],
[
-76.7402255,
-7.1863301
],
[
-76.7395603,
-7.1861918
],
[
-76.7382407,
-7.185766
],
[
-76.7380261,
-7.1856702
],
[
-76.7369747,
-7.1855957
],
[
-76.7363095,
-7.1853934
],
[
-76.7365992,
-7.1848399
],
[
-76.7355477,
-7.1845419
]
]
]
}
}
]
}