{
"type": "FeatureCollection",
"features": [
{
"type": "Feature",
"properties": {
"idzonacomercial_calc": "591"
},
"geometry": {
"type": "Polygon",
"coordinates": [
[
[
-76.7354852,
-7.1846221
],
[
-76.7364186,
-7.1848883
],
[
-76.7361772,
-7.1854258
],
[
-76.7365634,
-7.1855908
],
[
-76.7369926,
-7.1856972
],
[
-76.7375076,
-7.1857185
],
[
-76.7380226,
-7.185809
],
[
-76.7383659,
-7.1859261
],
[
-76.7388648,
-7.1860592
],
[
-76.7395246,
-7.1862721
],
[
-76.7402381,
-7.1864211
],
[
-76.7406994,
-7.1865062
],
[
-76.7411178,
-7.1865222
],
[
-76.7417723,
-7.1864796
],
[
-76.742121,
-7.1863146
],
[
-76.7419547,
-7.1867723
],
[
-76.7418206,
-7.1871183
],
[
-76.741901,
-7.1875973
],
[
-76.741944,
-7.1886351
],
[
-76.7419708,
-7.1886724
],
[
-76.7425179,
-7.1886085
],
[
-76.7425019,
-7.1889066
],
[
-76.742416,
-7.1893057
],
[
-76.7420512,
-7.1890982
],
[
-76.7417723,
-7.189029
],
[
-76.7415631,
-7.1890662
],
[
-76.7414022,
-7.1889864
],
[
-76.7410803,
-7.1890396
],
[
-76.741032,
-7.1892472
],
[
-76.7405599,
-7.190003
],
[
-76.7403346,
-7.1903649
],
[
-76.7402005,
-7.1908013
],
[
-76.7399484,
-7.191408
],
[
-76.7398787,
-7.1916103
],
[
-76.7397016,
-7.1918817
],
[
-76.7392457,
-7.1919296
],
[
-76.7386502,
-7.191754
],
[
-76.7381674,
-7.1913229
],
[
-76.7375237,
-7.1907268
],
[
-76.7373091,
-7.1908279
],
[
-76.7369336,
-7.1908652
],
[
-76.736322,
-7.1907321
],
[
-76.7355871,
-7.1905937
],
[
-76.7353458,
-7.192126
],
[
-76.7357535,
-7.1924027
],
[
-76.7358715,
-7.1930201
],
[
-76.7359144,
-7.1933288
],
[
-76.7363436,
-7.1932117
],
[
-76.7369766,
-7.1929988
],
[
-76.7372448,
-7.1938291
],
[
-76.7356677,
-7.1942974
],
[
-76.7347986,
-7.1946913
],
[
-76.7343943,
-7.1928164
],
[
-76.733772,
-7.1907514
],
[
-76.7334502,
-7.1896018
],
[
-76.7340939,
-7.1880051
],
[
-76.7348449,
-7.1862381
],
[
-76.7354852,
-7.1846221
]
]
]
}
}
]
}