{
"type": "FeatureCollection",
"features": [
{
"type": "Feature",
"properties": {
"idzonacomercial_calc": "444"
},
"geometry": {
"type": "Polygon",
"coordinates": [
[
[
-76.3719847,
-6.4873525
],
[
-76.3704884,
-6.4903269
],
[
-76.3698855,
-6.4914519
],
[
-76.3693255,
-6.4925769
],
[
-76.3680472,
-6.4938445
],
[
-76.3670602,
-6.4932475
],
[
-76.3657083,
-6.4921175
],
[
-76.3643994,
-6.4909449
],
[
-76.3656654,
-6.4894952
],
[
-76.3668885,
-6.4879601
],
[
-76.3679614,
-6.4865743
],
[
-76.3685944,
-6.4855829
],
[
-76.3678782,
-6.4849166
],
[
-76.3671192,
-6.4841757
],
[
-76.3678514,
-6.4834668
],
[
-76.3682651,
-6.4833003
],
[
-76.36899,
-6.4829205
],
[
-76.3684844,
-6.4823055
],
[
-76.3687728,
-6.4820956
],
[
-76.3691243,
-6.4817824
],
[
-76.3693124,
-6.4818809
],
[
-76.3696026,
-6.4816728
],
[
-76.3701186,
-6.481278
],
[
-76.370464,
-6.4811492
],
[
-76.3707686,
-6.480913
],
[
-76.3713563,
-6.4803554
],
[
-76.3719077,
-6.4797248
],
[
-76.3729451,
-6.4806887
],
[
-76.3734853,
-6.48116
],
[
-76.3738753,
-6.4817166
],
[
-76.3745265,
-6.4822861
],
[
-76.3752016,
-6.4821926
],
[
-76.3756515,
-6.4820991
],
[
-76.3758216,
-6.4822746
],
[
-76.3762691,
-6.4821353
],
[
-76.3763488,
-6.4824749
],
[
-76.3766261,
-6.4832393
],
[
-76.3750853,
-6.4843996
],
[
-76.3719847,
-6.4873525
]
]
]
}
}
]
}