{
"type": "FeatureCollection",
"features": [
{
"type": "Feature",
"properties": {
"idzonacomercial_calc": "700"
},
"geometry": {
"type": "Polygon",
"coordinates": [
[
[
-78.4722162,
-7.1348008
],
[
-78.5296369,
-7.1158509
],
[
-78.5247016,
-7.1240697
],
[
-78.524015,
-7.1245381
],
[
-78.5232425,
-7.1277745
],
[
-78.5253883,
-7.1306702
],
[
-78.52453,
-7.1361208
],
[
-78.5264358,
-7.1418818
],
[
-78.5246158,
-7.1445522
],
[
-78.5255775,
-7.1458845
],
[
-78.524015,
-7.1489807
],
[
-78.5132206,
-7.1518945
],
[
-78.5069978,
-7.1487434
],
[
-78.4968698,
-7.1455924
],
[
-78.492707,
-7.1460182
],
[
-78.4910333,
-7.1452517
],
[
-78.4909273,
-7.1530047
],
[
-78.4846616,
-7.1530685
],
[
-78.4769369,
-7.1481291
],
[
-78.4770656,
-7.1371002
],
[
-78.4722162,
-7.1348008
]
]
]
}
}
]
}