{
"type": "FeatureCollection",
"features": [
{
"type": "Feature",
"properties": {
"idzonacomercial_calc": "816"
},
"geometry": {
"type": "Polygon",
"coordinates": [
[
[
-78.0536512,
-7.8042649
],
[
-78.0537371,
-7.8118755
],
[
-78.0555395,
-7.8125133
],
[
-78.0560545,
-7.8148943
],
[
-78.0581144,
-7.8242053
],
[
-78.0556254,
-7.8230149
],
[
-78.0538229,
-7.8213142
],
[
-78.0526642,
-7.8201663
],
[
-78.052235,
-7.8209741
],
[
-78.0521063,
-7.8202938
],
[
-78.0519346,
-7.819486
],
[
-78.0515055,
-7.8184231
],
[
-78.0506472,
-7.8172752
],
[
-78.0489306,
-7.8162548
],
[
-78.0458836,
-7.8173177
],
[
-78.0453686,
-7.8168075
],
[
-78.044124,
-7.8171902
],
[
-78.043652,
-7.8165524
],
[
-78.0355839,
-7.8196986
],
[
-78.0349402,
-7.819486
],
[
-78.0320648,
-7.8196136
],
[
-78.0291037,
-7.8198262
],
[
-78.0246405,
-7.8216544
],
[
-78.0229239,
-7.820804
],
[
-78.0209498,
-7.8211442
],
[
-78.0195765,
-7.8199962
],
[
-78.0169157,
-7.8177429
],
[
-78.0209927,
-7.8125133
],
[
-78.0268721,
-7.8114929
],
[
-78.0293612,
-7.8098772
],
[
-78.0322365,
-7.8076663
],
[
-78.0347685,
-7.8077939
],
[
-78.0372576,
-7.8097497
],
[
-78.0397038,
-7.810515
],
[
-78.041635,
-7.810515
],
[
-78.0436091,
-7.8096647
],
[
-78.0445103,
-7.8086868
],
[
-78.0447678,
-7.8071561
],
[
-78.0459694,
-7.8053279
],
[
-78.046699,
-7.8040523
],
[
-78.0490593,
-7.8041374
],
[
-78.0514626,
-7.8048602
],
[
-78.0536512,
-7.8042649
]
]
]
}
}
]
}