{
"type": "FeatureCollection",
"features": [
{
"type": "Feature",
"properties": {
"idzonacomercial_calc": "743"
},
"geometry": {
"type": "Polygon",
"coordinates": [
[
[
-79.06451,
-8.024552
],
[
-79.0670842,
-8.0255029
],
[
-79.0686236,
-8.0260395
],
[
-79.073948,
-8.02792
],
[
-79.075772,
-8.031341
],
[
-79.078376,
-8.0369
],
[
-79.071249,
-8.037785
],
[
-79.070541,
-8.039612
],
[
-79.071043,
-8.040448
],
[
-79.071142,
-8.041503
],
[
-79.070026,
-8.042799
],
[
-79.071288,
-8.043791
],
[
-79.0641956,
-8.044397
],
[
-79.061551,
-8.042894
],
[
-79.058727,
-8.042206
],
[
-79.0536729,
-8.041078
],
[
-79.052422,
-8.039057
],
[
-79.048069,
-8.037483
],
[
-79.050269,
-8.035336
],
[
-79.054299,
-8.030284
],
[
-79.049963,
-8.026483
],
[
-79.04831,
-8.020504
],
[
-79.051432,
-8.017769
],
[
-79.06451,
-8.024552
]
]
]
}
}
]
}