{
"type": "FeatureCollection",
"features": [
{
"type": "Feature",
"properties": {
"idzonacomercial_calc": "762"
},
"geometry": {
"type": "Polygon",
"coordinates": [
[
[
-80.8709215,
-3.8976828
],
[
-80.9309189,
-3.9367934
],
[
-80.9501451,
-3.9463838
],
[
-80.9473985,
-3.9546039
],
[
-80.9721177,
-3.975839
],
[
-80.985164,
-3.9919362
],
[
-81.011235,
-4.0372701
],
[
-81.0315712,
-4.0627733
],
[
-81.0445379,
-4.0857941
],
[
-81.0292693,
-4.0996752
],
[
-80.9516727,
-4.065067
],
[
-80.9686845,
-3.9953611
],
[
-80.9528916,
-3.9881688
],
[
-80.9388153,
-3.9689891
],
[
-80.9405319,
-3.957344
],
[
-80.9185593,
-3.9412461
],
[
-80.8804504,
-3.9234353
],
[
-80.8802291,
-3.920421
],
[
-80.8776754,
-3.9136063
],
[
-80.8585544,
-3.8994131
],
[
-80.8451218,
-3.8883664
],
[
-80.8377606,
-3.8802642
],
[
-80.8289222,
-3.8726404
],
[
-80.8314346,
-3.8681864
],
[
-80.8374113,
-3.8753913
],
[
-80.8472836,
-3.8844197
],
[
-80.8709215,
-3.8976828
]
]
]
}
}
]
}