{
"type": "FeatureCollection",
"features": [
{
"type": "Feature",
"properties": {
"idzonacomercial_calc": "419"
},
"geometry": {
"type": "Polygon",
"coordinates": [
[
[
-80.8878058,
-3.9096151
],
[
-80.931065,
-3.9356465
],
[
-80.950291,
-3.9452369
],
[
-80.947544,
-3.953457
],
[
-80.972263,
-3.9746921
],
[
-80.98531,
-3.9907893
],
[
-80.988056,
-4.0099686
],
[
-80.970203,
-4.0099686
],
[
-80.96883,
-3.9942142
],
[
-80.953037,
-3.9870219
],
[
-80.938961,
-3.9678422
],
[
-80.940678,
-3.9561971
],
[
-80.918705,
-3.9400992
],
[
-80.880596,
-3.9222884
],
[
-80.8878058,
-3.9096151
]
]
]
}
}
]
}