{
"type": "FeatureCollection",
"features": [
{
"type": "Feature",
"properties": {
"idzonacomercial_calc": "728"
},
"geometry": {
"type": "Polygon",
"coordinates": [
[
[
-80.6768001,
-5.1754269
],
[
-80.6799531,
-5.1781745
],
[
-80.6809663,
-5.1796926
],
[
-80.6817757,
-5.1813816
],
[
-80.6827101,
-5.1869436
],
[
-80.6823668,
-5.1881403
],
[
-80.6798777,
-5.1909611
],
[
-80.6856283,
-5.1940383
],
[
-80.6864008,
-5.1972865
],
[
-80.6730971,
-5.2030989
],
[
-80.6682047,
-5.1995089
],
[
-80.6669172,
-5.1959188
],
[
-80.6723341,
-5.1836024
],
[
-80.6751883,
-5.177001
],
[
-80.6752524,
-5.1759092
],
[
-80.6768001,
-5.1754269
]
]
]
}
}
]
}