{
"type": "FeatureCollection",
"features": [
{
"type": "Feature",
"properties": {
"idzonacomercial_calc": "569"
},
"geometry": {
"type": "Polygon",
"coordinates": [
[
[
-76.3677666,
-6.4959168
],
[
-76.3673952,
-6.4964231
],
[
-76.3670129,
-6.4969028
],
[
-76.3662592,
-6.4978782
],
[
-76.3624612,
-6.4942538
],
[
-76.3650576,
-6.4915675
],
[
-76.3669023,
-6.4931292
],
[
-76.3687577,
-6.4946802
],
[
-76.3682468,
-6.4952985
],
[
-76.3677666,
-6.4959168
]
]
]
}
},
{
"type": "Feature",
"properties": {
"idzonacomercial_calc": "568"
},
"geometry": {
"type": "Polygon",
"coordinates": [
[
[
-76.3671531,
-6.4838239
],
[
-76.3670673,
-6.4841224
],
[
-76.3667239,
-6.4842716
],
[
-76.3663055,
-6.4845275
],
[
-76.3654954,
-6.4839252
],
[
-76.3648785,
-6.4832163
],
[
-76.3629688,
-6.4814147
],
[
-76.3609518,
-6.479709
],
[
-76.3611664,
-6.47924
],
[
-76.3599648,
-6.4783019
],
[
-76.3601364,
-6.4776836
],
[
-76.3589347,
-6.4763617
],
[
-76.3572611,
-6.4746987
],
[
-76.3578404,
-6.4741443
],
[
-76.3571323,
-6.4733768
],
[
-76.3573898,
-6.473057
],
[
-76.3569821,
-6.4727798
],
[
-76.357819,
-6.47133
],
[
-76.3568748,
-6.470669
],
[
-76.35754,
-6.4688568
],
[
-76.3561667,
-6.4680466
],
[
-76.356274,
-6.4651682
],
[
-76.358055,
-6.4613943
],
[
-76.3596214,
-6.4625244
],
[
-76.3633765,
-6.4654667
],
[
-76.3627542,
-6.4678547
],
[
-76.3648034,
-6.4690487
],
[
-76.3653507,
-6.4681958
],
[
-76.3656725,
-6.4681852
],
[
-76.366402,
-6.4687928
],
[
-76.3674749,
-6.4691126
],
[
-76.3680972,
-6.4692619
],
[
-76.3683332,
-6.4697736
],
[
-76.3670887,
-6.471266
],
[
-76.3689126,
-6.4725026
],
[
-76.3709653,
-6.4717562
],
[
-76.3729546,
-6.4720388
],
[
-76.3728657,
-6.4733527
],
[
-76.372648,
-6.4747092
],
[
-76.3722278,
-6.4778115
],
[
-76.3719328,
-6.4797357
],
[
-76.3710262,
-6.4805726
],
[
-76.3706131,
-6.480951
],
[
-76.3697924,
-6.4813508
],
[
-76.3694276,
-6.4817772
],
[
-76.3691915,
-6.4816066
],
[
-76.3683976,
-6.4822888
],
[
-76.3687765,
-6.4829282
],
[
-76.3679684,
-6.4831843
],
[
-76.3671531,
-6.4838239
]
]
]
}
},
{
"type": "Feature",
"properties": {
"idzonacomercial_calc": "570"
},
"geometry": {
"type": "Polygon",
"coordinates": [
[
[
-76.3720292,
-6.4973952
],
[
-76.3708376,
-6.4960626
],
[
-76.3718575,
-6.4947089
],
[
-76.3693255,
-6.4925769
],
[
-76.3720393,
-6.487428
],
[
-76.3738846,
-6.4856371
],
[
-76.3793134,
-6.490626
],
[
-76.3812447,
-6.4922194
],
[
-76.3842702,
-6.4957855
],
[
-76.3831652,
-6.4992926
],
[
-76.3815451,
-6.5026718
],
[
-76.3765025,
-6.509558
],
[
-76.3743996,
-6.5080656
],
[
-76.3762879,
-6.4967236
],
[
-76.376127,
-6.4962759
],
[
-76.3756227,
-6.496084
],
[
-76.3732838,
-6.4955723
],
[
-76.3720292,
-6.4973952
]
]
]
}
}
]
}