{
"type": "FeatureCollection",
"features": [
{
"type": "Feature",
"properties": {
"idzonacomercial_calc": "780"
},
"geometry": {
"type": "Polygon",
"coordinates": [
[
[
-79.4889447,
-7.1633406
],
[
-79.4892727,
-7.1639649
],
[
-79.4896804,
-7.16471
],
[
-79.4888651,
-7.1656042
],
[
-79.4895946,
-7.1667539
],
[
-79.4889938,
-7.1680313
],
[
-79.4901954,
-7.1685422
],
[
-79.4904958,
-7.1692661
],
[
-79.4894659,
-7.1702454
],
[
-79.4888221,
-7.1707564
],
[
-79.4898092,
-7.1714376
],
[
-79.4906246,
-7.172417
],
[
-79.4901525,
-7.1736092
],
[
-79.4892942,
-7.1744608
],
[
-79.4884788,
-7.1753124
],
[
-79.4879209,
-7.1760362
],
[
-79.4897663,
-7.1786761
],
[
-79.4923412,
-7.1814863
],
[
-79.4962894,
-7.1850629
],
[
-79.4983493,
-7.1884266
],
[
-79.4977056,
-7.1906194
],
[
-79.4962357,
-7.1951805
],
[
-79.4970673,
-7.1947813
],
[
-79.4989287,
-7.1942385
],
[
-79.5006185,
-7.1937541
],
[
-79.5017075,
-7.1932911
],
[
-79.5024478,
-7.1928547
],
[
-79.503746,
-7.1921575
],
[
-79.5044112,
-7.1918674
],
[
-79.5046901,
-7.1914549
],
[
-79.50513,
-7.1907791
],
[
-79.5053794,
-7.1895443
],
[
-79.505425,
-7.1887672
],
[
-79.5059078,
-7.1885703
],
[
-79.5061706,
-7.1885596
],
[
-79.5063959,
-7.1889588
],
[
-79.5063745,
-7.1898743
],
[
-79.5066481,
-7.1899967
],
[
-79.5075386,
-7.1903959
],
[
-79.5082548,
-7.1901111
],
[
-79.5089334,
-7.1895709
],
[
-79.508928,
-7.1893593
],
[
-79.5093678,
-7.1882164
],
[
-79.5097862,
-7.18807
],
[
-79.5112508,
-7.1881605
],
[
-79.5124524,
-7.1873196
],
[
-79.5122593,
-7.186468
],
[
-79.513249,
-7.1859757
],
[
-79.5142119,
-7.1854089
],
[
-79.5157301,
-7.1857016
],
[
-79.517275,
-7.1849245
],
[
-79.5175178,
-7.1847915
],
[
-79.5172958,
-7.1843471
],
[
-79.5173743,
-7.1842326
],
[
-79.5172267,
-7.1834769
],
[
-79.5171731,
-7.1828329
],
[
-79.5184391,
-7.1818269
],
[
-79.5187234,
-7.1813479
],
[
-79.5198875,
-7.1804485
],
[
-79.5204668,
-7.1807146
],
[
-79.5210033,
-7.1815129
],
[
-79.5213895,
-7.1823485
],
[
-79.5219528,
-7.1827105
],
[
-79.5218348,
-7.1830138
],
[
-79.5207082,
-7.1839665
],
[
-79.5198499,
-7.1850789
],
[
-79.5197319,
-7.1859863
],
[
-79.5196139,
-7.1862817
],
[
-79.5191633,
-7.1867714
],
[
-79.5188039,
-7.1872078
],
[
-79.5190024,
-7.1879902
],
[
-79.519351,
-7.1887512
],
[
-79.5195817,
-7.1896028
],
[
-79.519748,
-7.190771
],
[
-79.5201235,
-7.1906726
],
[
-79.5205258,
-7.1904917
],
[
-79.5207913,
-7.1904836
],
[
-79.5212259,
-7.1907364
],
[
-79.5217248,
-7.1912793
],
[
-79.5221191,
-7.19189
],
[
-79.5224168,
-7.1925194
],
[
-79.5225241,
-7.1926258
],
[
-79.5227011,
-7.1927749
],
[
-79.5232202,
-7.1930703
],
[
-79.5235622,
-7.193504
],
[
-79.5245223,
-7.1941799
],
[
-79.5265393,
-7.1955317
],
[
-79.5273011,
-7.1960586
],
[
-79.5280978,
-7.195867
],
[
-79.5287603,
-7.1955105
],
[
-79.5293986,
-7.1946802
],
[
-79.5298707,
-7.194454
],
[
-79.5301496,
-7.1940681
],
[
-79.5308577,
-7.1935093
],
[
-79.5312761,
-7.1931581
],
[
-79.5319145,
-7.1921655
],
[
-79.5323275,
-7.1919446
],
[
-79.5331859,
-7.1914283
],
[
-79.5332717,
-7.1907577
],
[
-79.5341568,
-7.1893261
],
[
-79.5349454,
-7.1893154
],
[
-79.5347684,
-7.1898237
],
[
-79.534409,
-7.1903426
],
[
-79.5342102,
-7.190657
],
[
-79.5339606,
-7.1915327
],
[
-79.5336573,
-7.1921316
],
[
-79.5332604,
-7.1928661
],
[
-79.5329894,
-7.1931082
],
[
-79.5327239,
-7.1933131
],
[
-79.5321848,
-7.1937442
],
[
-79.5309322,
-7.1942072
],
[
-79.530503,
-7.1943349
],
[
-79.5301865,
-7.1943296
],
[
-79.5299585,
-7.1945718
],
[
-79.5295495,
-7.1947674
],
[
-79.5289044,
-7.1956336
],
[
-79.5281426,
-7.1960168
],
[
-79.5273541,
-7.1962616
],
[
-79.5262007,
-7.1967034
],
[
-79.5256053,
-7.196738
],
[
-79.5243929,
-7.1974219
],
[
-79.5239745,
-7.1979368
],
[
-79.5236902,
-7.1980585
],
[
-79.523363,
-7.1983612
],
[
-79.5226321,
-7.1988176
],
[
-79.522097,
-7.1992234
],
[
-79.5220782,
-7.1994656
],
[
-79.5217201,
-7.1997636
],
[
-79.5204233,
-7.200381
],
[
-79.5201363,
-7.2014667
],
[
-79.5200732,
-7.2016636
],
[
-79.5201705,
-7.2019004
],
[
-79.5202838,
-7.2023076
],
[
-79.5200666,
-7.2024512
],
[
-79.5196669,
-7.2028983
],
[
-79.5180898,
-7.2040425
],
[
-79.5175265,
-7.2043193
],
[
-79.5169176,
-7.2042075
],
[
-79.5163731,
-7.203819
],
[
-79.5162122,
-7.2023129
],
[
-79.5155632,
-7.2024352
],
[
-79.5148255,
-7.2026322
],
[
-79.5143883,
-7.2029355
],
[
-79.5140021,
-7.2028238
],
[
-79.5136481,
-7.2023714
],
[
-79.5134871,
-7.201488
],
[
-79.5137821,
-7.2009398
],
[
-79.5138844,
-7.2008689
],
[
-79.5144881,
-7.2009293
],
[
-79.5166299,
-7.199299
],
[
-79.517098,
-7.1989619
],
[
-79.5210734,
-7.1996388
],
[
-79.5215537,
-7.1994503
],
[
-79.5232093,
-7.1982736
],
[
-79.5235785,
-7.1979753
],
[
-79.5238489,
-7.1978368
],
[
-79.5242416,
-7.1972992
],
[
-79.5255194,
-7.1966179
],
[
-79.526078,
-7.1965509
],
[
-79.5271405,
-7.1961661
],
[
-79.5264512,
-7.1956601
],
[
-79.5253812,
-7.1949439
],
[
-79.5244397,
-7.1942904
],
[
-79.5234795,
-7.1935969
],
[
-79.5233334,
-7.1933703
],
[
-79.5231336,
-7.1931438
],
[
-79.5226789,
-7.1928773
],
[
-79.5223477,
-7.1925962
],
[
-79.5218394,
-7.1916554
],
[
-79.521651,
-7.1913739
],
[
-79.5211354,
-7.1908316
],
[
-79.5207424,
-7.1906015
],
[
-79.5205934,
-7.1906082
],
[
-79.5200448,
-7.1908278
],
[
-79.5197858,
-7.1908918
],
[
-79.5196268,
-7.1913336
],
[
-79.5195054,
-7.1917621
],
[
-79.5194513,
-7.1921734
],
[
-79.5194029,
-7.1923099
],
[
-79.5194081,
-7.1929946
],
[
-79.5194074,
-7.1937135
],
[
-79.5188702,
-7.1937192
],
[
-79.5183592,
-7.193712
],
[
-79.5181701,
-7.1938698
],
[
-79.5170918,
-7.1944845
],
[
-79.517065,
-7.1945989
],
[
-79.5167699,
-7.1945749
],
[
-79.5165178,
-7.1944232
],
[
-79.515453,
-7.1938644
],
[
-79.5143667,
-7.1934333
],
[
-79.5146081,
-7.1917515
],
[
-79.5141736,
-7.1910489
],
[
-79.5138142,
-7.1904635
],
[
-79.5130431,
-7.1906551
],
[
-79.5123685,
-7.1909106
],
[
-79.5123712,
-7.1911661
],
[
-79.5104668,
-7.1912725
],
[
-79.5097077,
-7.191339
],
[
-79.5089809,
-7.1914907
],
[
-79.508085,
-7.191826
],
[
-79.5071489,
-7.1921453
],
[
-79.5063522,
-7.1927521
],
[
-79.5048985,
-7.1926403
],
[
-79.5044023,
-7.1924114
],
[
-79.5042816,
-7.1922092
],
[
-79.5012829,
-7.1937473
],
[
-79.4990084,
-7.1944764
],
[
-79.4970879,
-7.1950512
],
[
-79.4961545,
-7.195674
],
[
-79.4872281,
-7.2260998
],
[
-79.4860265,
-7.2286542
],
[
-79.4872281,
-7.2300166
],
[
-79.4893739,
-7.232571
],
[
-79.4875714,
-7.233678
],
[
-79.4868848,
-7.2328265
],
[
-79.485254,
-7.2318047
],
[
-79.4837949,
-7.231975
],
[
-79.4780442,
-7.2380205
],
[
-79.4774434,
-7.2405749
],
[
-79.4792459,
-7.2422778
],
[
-79.4816491,
-7.2450876
],
[
-79.4841382,
-7.2473014
],
[
-79.4834516,
-7.2504517
],
[
-79.4813916,
-7.251218
],
[
-79.4792459,
-7.2521546
],
[
-79.4778726,
-7.2540278
],
[
-79.4763276,
-7.2528357
],
[
-79.4717786,
-7.2525803
],
[
-79.4703195,
-7.2517289
],
[
-79.4674871,
-7.2533466
],
[
-79.4658563,
-7.2523249
],
[
-79.4636247,
-7.2530912
],
[
-79.4617364,
-7.2522397
],
[
-79.4607923,
-7.2498557
],
[
-79.4589898,
-7.2498557
],
[
-79.4592473,
-7.2477271
],
[
-79.4612214,
-7.2461945
],
[
-79.4604489,
-7.2438104
],
[
-79.4592473,
-7.2421075
],
[
-79.4565866,
-7.2402343
],
[
-79.4580457,
-7.2387868
],
[
-79.4558141,
-7.2369136
],
[
-79.4514367,
-7.2337631
],
[
-79.4526383,
-7.2322304
],
[
-79.4569299,
-7.2360621
],
[
-79.4609639,
-7.2392125
],
[
-79.4623372,
-7.2375096
],
[
-79.4646546,
-7.2351255
],
[
-79.4676587,
-7.2340185
],
[
-79.4707486,
-7.2329116
],
[
-79.4715211,
-7.2305275
],
[
-79.4698045,
-7.2278027
],
[
-79.4691178,
-7.2243968
],
[
-79.4679162,
-7.2178402
],
[
-79.468002,
-7.2163927
],
[
-79.4659421,
-7.2163927
],
[
-79.4642255,
-7.2170739
],
[
-79.4638822,
-7.2152006
],
[
-79.4658563,
-7.2141787
],
[
-79.4669721,
-7.2127312
],
[
-79.4683454,
-7.2114539
],
[
-79.4689462,
-7.2131569
],
[
-79.4708345,
-7.2144342
],
[
-79.4708345,
-7.2166481
],
[
-79.4692037,
-7.2185214
],
[
-79.470062,
-7.2243116
],
[
-79.4707486,
-7.2272067
],
[
-79.4725511,
-7.2304423
],
[
-79.4719503,
-7.232571
],
[
-79.4731519,
-7.2353809
],
[
-79.4742677,
-7.2372541
],
[
-79.4768426,
-7.2370838
],
[
-79.4844815,
-7.2294206
],
[
-79.485769,
-7.2261849
],
[
-79.4972703,
-7.1882069
],
[
-79.4947812,
-7.1850561
],
[
-79.4911763,
-7.181735
],
[
-79.4873998,
-7.1769661
],
[
-79.486284,
-7.1751778
],
[
-79.4845674,
-7.1744114
],
[
-79.4831082,
-7.1741772
],
[
-79.4817135,
-7.1749223
],
[
-79.4795892,
-7.1757526
],
[
-79.4787094,
-7.174901
],
[
-79.4793102,
-7.1739004
],
[
-79.4799325,
-7.1725805
],
[
-79.4796536,
-7.1718779
],
[
-79.4784841,
-7.1707815
],
[
-79.478645,
-7.1704941
],
[
-79.4806192,
-7.1695573
],
[
-79.4829366,
-7.1695573
],
[
-79.4836232,
-7.1687057
],
[
-79.4855115,
-7.1670877
],
[
-79.4873139,
-7.165129
],
[
-79.4889447,
-7.1633406
]
]
]
}
}
]
}