{
"type": "FeatureCollection",
"features": [
{
"type": "Feature",
"properties": {
"idzonacomercial_calc": "532"
},
"geometry": {
"type": "Polygon",
"coordinates": [
[
[
-79.4465487,
-7.1480789
],
[
-79.450325,
-7.1486325
],
[
-79.451784,
-7.150506
],
[
-79.451784,
-7.1528054
],
[
-79.450325,
-7.1545939
],
[
-79.448609,
-7.1557861
],
[
-79.449553,
-7.158852
],
[
-79.449639,
-7.1615771
],
[
-79.448866,
-7.1627694
],
[
-79.44612,
-7.1622584
],
[
-79.44363,
-7.1605552
],
[
-79.442171,
-7.1589371
],
[
-79.441656,
-7.1608958
],
[
-79.441227,
-7.1676235
],
[
-79.440798,
-7.1699228
],
[
-79.441742,
-7.1730737
],
[
-79.440626,
-7.1754582
],
[
-79.441485,
-7.1777574
],
[
-79.443974,
-7.1774168
],
[
-79.443373,
-7.1810786
],
[
-79.442171,
-7.180738
],
[
-79.439253,
-7.1815895
],
[
-79.439253,
-7.1832927
],
[
-79.437966,
-7.1842294
],
[
-79.434532,
-7.1832927
],
[
-79.431271,
-7.1894239
],
[
-79.428953,
-7.2008347
],
[
-79.428353,
-7.2063696
],
[
-79.428267,
-7.2094351
],
[
-79.431013,
-7.2116491
],
[
-79.432387,
-7.2153957
],
[
-79.435562,
-7.2186315
],
[
-79.438051,
-7.2164176
],
[
-79.440626,
-7.2182057
],
[
-79.438824,
-7.2203344
],
[
-79.439596,
-7.2215266
],
[
-79.440369,
-7.2222717
],
[
-79.437794,
-7.22489
],
[
-79.435562,
-7.2284662
],
[
-79.436764,
-7.2310207
],
[
-79.434532,
-7.2332345
],
[
-79.432472,
-7.2352781
],
[
-79.427494,
-7.2356187
],
[
-79.422516,
-7.2376622
],
[
-79.422516,
-7.2349375
],
[
-79.419426,
-7.234086
],
[
-79.416165,
-7.2344266
],
[
-79.411358,
-7.2362998
],
[
-79.405693,
-7.2402166
],
[
-79.403805,
-7.2424304
],
[
-79.397625,
-7.2466876
],
[
-79.392819,
-7.2461768
],
[
-79.39093,
-7.2443036
],
[
-79.391789,
-7.2414086
],
[
-79.395394,
-7.2407275
],
[
-79.39711,
-7.2381731
],
[
-79.4002,
-7.2356187
],
[
-79.403118,
-7.2395354
],
[
-79.407067,
-7.2366404
],
[
-79.411358,
-7.234086
],
[
-79.408783,
-7.2327236
],
[
-79.407753,
-7.2271039
],
[
-79.408612,
-7.2236979
],
[
-79.407582,
-7.2211434
],
[
-79.410328,
-7.2185889
],
[
-79.415478,
-7.2168859
],
[
-79.41771,
-7.2208028
],
[
-79.415478,
-7.2219949
],
[
-79.412045,
-7.22489
],
[
-79.413418,
-7.2274444
],
[
-79.41771,
-7.2293177
],
[
-79.421658,
-7.2272741
],
[
-79.424576,
-7.22489
],
[
-79.427494,
-7.2216543
],
[
-79.428009,
-7.2162047
],
[
-79.424919,
-7.2112659
],
[
-79.426636,
-7.2010476
],
[
-79.428868,
-7.1884447
],
[
-79.432816,
-7.1814618
],
[
-79.436077,
-7.1782258
],
[
-79.438137,
-7.1737976
],
[
-79.438996,
-7.1688583
],
[
-79.439854,
-7.1605126
],
[
-79.439511,
-7.1581281
],
[
-79.436249,
-7.1571061
],
[
-79.434876,
-7.15387
],
[
-79.435906,
-7.1513151
],
[
-79.439511,
-7.1499525
],
[
-79.442509,
-7.1529468
],
[
-79.446549,
-7.1480789
],
[
-79.4465487,
-7.1480789
]
]
]
}
}
]
}