{
"type": "FeatureCollection",
"features": [
{
"type": "Feature",
"properties": {
"idzonacomercial_calc": "427"
},
"geometry": {
"type": "Polygon",
"coordinates": [
[
[
-80.2480078,
-3.4789459
],
[
-80.247836,
-3.4836578
],
[
-80.24612,
-3.4846859
],
[
-80.244403,
-3.4837864
],
[
-80.243588,
-3.4817302
],
[
-80.244403,
-3.4803595
],
[
-80.246677,
-3.4773609
],
[
-80.248008,
-3.4789459
]
]
]
}
},
{
"type": "Feature",
"properties": {
"idzonacomercial_calc": "425"
},
"geometry": {
"type": "Polygon",
"coordinates": [
[
[
-80.2787781,
-3.487887
],
[
-80.287876,
-3.5063919
],
[
-80.281353,
-3.5118748
],
[
-80.272255,
-3.4998809
],
[
-80.266376,
-3.504293
],
[
-80.262642,
-3.5007377
],
[
-80.258694,
-3.49337
],
[
-80.255089,
-3.4863449
],
[
-80.255776,
-3.4820613
],
[
-80.258522,
-3.4767496
],
[
-80.262642,
-3.4776063
],
[
-80.278778,
-3.487887
]
]
]
}
},
{
"type": "Feature",
"properties": {
"idzonacomercial_calc": "426"
},
"geometry": {
"type": "Polygon",
"coordinates": [
[
[
-80.2446175,
-3.521824
],
[
-80.243759,
-3.5269641
],
[
-80.237579,
-3.5329608
],
[
-80.22934,
-3.5257647
],
[
-80.233631,
-3.5197679
],
[
-80.244618,
-3.521824
]
]
]
}
}
]
}