{
"type": "FeatureCollection",
"features": [
{
"type": "Feature",
"properties": {
"idzonacomercial_calc": "706"
},
"geometry": {
"type": "Polygon",
"coordinates": [
[
[
-78.6704017,
-6.551699
],
[
-78.6727477,
-6.5575542
],
[
-78.6638214,
-6.5642052
],
[
-78.6605026,
-6.5686391
],
[
-78.6542655,
-6.5729593
],
[
-78.6464263,
-6.5697191
],
[
-78.6383582,
-6.563523
],
[
-78.6306335,
-6.5585775
],
[
-78.6362411,
-6.5541435
],
[
-78.6486579,
-6.5506758
],
[
-78.6569549,
-6.5514148
],
[
-78.663478,
-6.5495389
],
[
-78.6704017,
-6.551699
]
]
]
}
}
]
}