{
"type": "FeatureCollection",
"features": [
{
"type": "Feature",
"properties": {
"idzonacomercial_calc": "572"
},
"geometry": {
"type": "Polygon",
"coordinates": [
[
[
-76.3504273,
-6.4904836
],
[
-76.3507921,
-6.490024
],
[
-76.3501805,
-6.4892032
],
[
-76.3499123,
-6.4888728
],
[
-76.3496226,
-6.4883397
],
[
-76.3492838,
-6.4878329
],
[
-76.3495046,
-6.4875509
],
[
-76.3500678,
-6.4864263
],
[
-76.3505882,
-6.4854722
],
[
-76.3511568,
-6.4845448
],
[
-76.3516128,
-6.4840331
],
[
-76.3521117,
-6.4837772
],
[
-76.3531524,
-6.483692
],
[
-76.3540322,
-6.4856961
],
[
-76.3539517,
-6.4869539
],
[
-76.3546008,
-6.4878494
],
[
-76.3550299,
-6.488425
],
[
-76.3555053,
-6.4892136
],
[
-76.3562168,
-6.489853
],
[
-76.3559312,
-6.4904611
],
[
-76.3561457,
-6.491783
],
[
-76.3559955,
-6.4944693
],
[
-76.3559741,
-6.495951
],
[
-76.3556093,
-6.4971343
],
[
-76.3535494,
-6.4997886
],
[
-76.3503629,
-6.4976033
],
[
-76.3482171,
-6.4960043
],
[
-76.3488609,
-6.4956004
],
[
-76.3496763,
-6.495919
],
[
-76.3497406,
-6.4954938
],
[
-76.3497192,
-6.4947678
],
[
-76.3496763,
-6.4936058
],
[
-76.3497406,
-6.4927009
],
[
-76.3501054,
-6.4926358
],
[
-76.3502342,
-6.4920708
],
[
-76.3507277,
-6.4920495
],
[
-76.3508135,
-6.4913033
],
[
-76.3505024,
-6.4910901
],
[
-76.3508886,
-6.4908449
],
[
-76.3504273,
-6.4904836
]
]
]
}
}
]
}