{
"type": "FeatureCollection",
"features": [
{
"type": "Feature",
"properties": {
"idzonacomercial_calc": "709"
},
"geometry": {
"type": "Polygon",
"coordinates": [
[
[
-78.5634364,
-6.6377378
],
[
-78.5587443,
-6.6406933
],
[
-78.5491312,
-6.6511511
],
[
-78.5152567,
-6.6888883
],
[
-78.4768046,
-6.7416246
],
[
-78.3220805,
-6.695708
],
[
-78.3812464,
-6.6361464
],
[
-78.4366358,
-6.5497464
],
[
-78.5268153,
-6.595222
],
[
-78.571905,
-6.6054534
],
[
-78.558401,
-6.6234147
],
[
-78.5634364,
-6.6377378
]
]
]
}
}
]
}