{
"type": "FeatureCollection",
"features": [
{
"type": "Feature",
"properties": {
"idzonacomercial_calc": "740"
},
"geometry": {
"type": "Polygon",
"coordinates": [
[
[
-78.996754,
-8.175536
],
[
-78.996883,
-8.178849
],
[
-78.996282,
-8.182332
],
[
-78.993106,
-8.185773
],
[
-78.986884,
-8.193419
],
[
-78.984953,
-8.194736
],
[
-78.983966,
-8.194481
],
[
-78.981777,
-8.19635
],
[
-78.976799,
-8.190276
],
[
-78.978902,
-8.188492
],
[
-78.982034,
-8.186622
],
[
-78.979674,
-8.182056
],
[
-78.986583,
-8.172137
],
[
-78.996239,
-8.169334
],
[
-78.996754,
-8.175536
]
]
]
}
}
]
}