{
"type": "FeatureCollection",
"features": [
{
"type": "Feature",
"properties": {
"idzonacomercial_calc": "606"
},
"geometry": {
"type": "Polygon",
"coordinates": [
[
-76.3343945,
-6.9071025
],
[
-76.3345769,
-6.9072197
],
[
-76.3370982,
-6.9075712
],
[
-76.3376883,
-6.9077096
],
[
-76.3384393,
-6.9074327
],
[
-76.3396731,
-6.9076883
],
[
-76.340231,
-6.9074434
],
[
-76.340392,
-6.9077416
],
[
-76.3401452,
-6.9086363
],
[
-76.3409928,
-6.9099463
],
[
-76.341379,
-6.9099783
],
[
-76.3417438,
-6.9098824
],
[
-76.342291,
-6.9101593
],
[
-76.3438574,
-6.910809
],
[
-76.3441363,
-6.9105428
],
[
-76.3442973,
-6.9105854
],
[
-76.3447801,
-6.9118422
],
[
-76.3437823,
-6.9130244
],
[
-76.3416043,
-6.9129499
],
[
-76.3408748,
-6.913951
],
[
-76.3405958,
-6.9139084
],
[
-76.3407031,
-6.9152504
],
[
-76.3389221,
-6.9157191
],
[
-76.3378707,
-6.9161238
],
[
-76.3365189,
-6.9161238
],
[
-76.3348237,
-6.9168055
],
[
-76.3340083,
-6.9172315
],
[
-76.3342658,
-6.9176575
],
[
-76.3340727,
-6.917977
],
[
-76.3342014,
-6.9186374
],
[
-76.3346735,
-6.9196172
],
[
-76.3354889,
-6.9207675
],
[
-76.335167,
-6.9211296
],
[
-76.334695,
-6.9218965
],
[
-76.3305536,
-6.923345
],
[
-76.3301459,
-6.9253899
],
[
-76.3291374,
-6.9240479
],
[
-76.3287726,
-6.9224929
],
[
-76.3282362,
-6.9214066
],
[
-76.327807,
-6.9204054
],
[
-76.3319484,
-6.9181474
],
[
-76.3322702,
-6.9179344
],
[
-76.3318625,
-6.916422
],
[
-76.3318411,
-6.9158256
],
[
-76.3320986,
-6.9147605
],
[
-76.3323132,
-6.9140789
],
[
-76.3326994,
-6.9128647
],
[
-76.3331286,
-6.9114374
],
[
-76.333193,
-6.9111392
],
[
-76.3333431,
-6.910628
],
[
-76.3334719,
-6.9101167
],
[
-76.3343945,
-6.9071025
]
]
}
}
]
}