{
"type": "FeatureCollection",
"features": [
{
"type": "Feature",
"properties": {
"idzonacomercial_calc": "587"
},
"geometry": {
"type": "Polygon",
"coordinates": [
[
[
-77.4812722,
-8.0122112
],
[
-77.481873,
-8.0169707
],
[
-77.4812722,
-8.0208804
],
[
-77.4826455,
-8.0224952
],
[
-77.4862504,
-8.0224952
],
[
-77.4894261,
-8.0278496
],
[
-77.4903703,
-8.032099
],
[
-77.4866795,
-8.0334588
],
[
-77.483933,
-8.0360085
],
[
-77.4796414,
-8.0361784
],
[
-77.4708867,
-8.0378782
],
[
-77.4654794,
-8.0379632
],
[
-77.4601579,
-8.0405978
],
[
-77.4520898,
-8.0420426
],
[
-77.4465966,
-8.0406828
],
[
-77.4420476,
-8.0377082
],
[
-77.443335,
-8.0339688
],
[
-77.4483991,
-8.0298893
],
[
-77.4553513,
-8.024365
],
[
-77.4593854,
-8.0202004
],
[
-77.4620461,
-8.0179057
],
[
-77.4737191,
-8.0158658
],
[
-77.477839,
-8.014081
],
[
-77.4812722,
-8.0122112
]
]
]
}
}
]
}