{
"type": "FeatureCollection",
"features": [
{
"type": "Feature",
"properties": {
"idzonacomercial_calc": "746"
},
"geometry": {
"type": "Polygon",
"coordinates": [
[
[
-79.051112,
-8.083591
],
[
-79.046313,
-8.084946
],
[
-79.041256,
-8.086471
],
[
-79.043175,
-8.082743
],
[
-79.045179,
-8.079526
],
[
-79.048158,
-8.074281
],
[
-79.049884,
-8.070554
],
[
-79.052291,
-8.062572
],
[
-79.05607,
-8.063424
],
[
-79.061307,
-8.06538
],
[
-79.057789,
-8.074985
],
[
-79.05548,
-8.08137
],
[
-79.06021,
-8.082996
],
[
-79.062957,
-8.088775
],
[
-79.057034,
-8.090474
],
[
-79.057635,
-8.09553
],
[
-79.059352,
-8.101266
],
[
-79.052228,
-8.101691
],
[
-79.049918,
-8.103384
],
[
-79.048294,
-8.105757
],
[
-79.038123,
-8.109942
],
[
-79.034504,
-8.112557
],
[
-79.028974,
-8.106293
],
[
-79.031854,
-8.103933
],
[
-79.033281,
-8.106004
],
[
-79.034761,
-8.104878
],
[
-79.039474,
-8.094879
],
[
-79.040581,
-8.091509
],
[
-79.041594,
-8.091566
],
[
-79.04259,
-8.091171
],
[
-79.0475,
-8.090889
],
[
-79.053172,
-8.090984
],
[
-79.051112,
-8.083591
]
]
]
}
}
]
}