{
"type": "FeatureCollection",
"features": [
{
"type": "Feature",
"properties": {
"idzonacomercial_calc": "796"
},
"geometry": {
"type": "Polygon",
"coordinates": [
[
[
-76.1331415,
-5.9025728
],
[
-76.1373472,
-5.902957
],
[
-76.1392784,
-5.9065855
],
[
-76.1376047,
-5.9086345
],
[
-76.1379051,
-5.9096163
],
[
-76.1346864,
-5.9109823
],
[
-76.1306953,
-5.9091894
],
[
-76.1296224,
-5.9072258
],
[
-76.1275196,
-5.9102993
],
[
-76.125803,
-5.9090187
],
[
-76.1203956,
-5.9113665
],
[
-76.1233997,
-5.9010788
],
[
-76.1331415,
-5.9025728
]
]
]
}
}
]
}