{
"type": "FeatureCollection",
"features": [
{
"type": "Feature",
"properties": {
"idzonacomercial_calc": "608"
},
"geometry": {
"type": "Polygon",
"coordinates": [
[
-76.7738781,
-6.936431
],
[
-76.7739263,
-6.9364416
],
[
-76.7739156,
-6.9367451
],
[
-76.7738566,
-6.9368729
],
[
-76.7738834,
-6.9371073
],
[
-76.7740765,
-6.937283
],
[
-76.7742214,
-6.9375013
],
[
-76.7743287,
-6.937677
],
[
-76.7744145,
-6.9383054
],
[
-76.7738995,
-6.9384172
],
[
-76.7741731,
-6.9399402
],
[
-76.7742857,
-6.9400041
],
[
-76.7749456,
-6.9401106
],
[
-76.7754123,
-6.9402278
],
[
-76.7753962,
-6.9404781
],
[
-76.7755142,
-6.9412076
],
[
-76.775423,
-6.9416602
],
[
-76.775128,
-6.9416922
],
[
-76.7745969,
-6.9418573
],
[
-76.7738888,
-6.9419478
],
[
-76.7733041,
-6.9417827
],
[
-76.7726389,
-6.9415005
],
[
-76.772081,
-6.9412822
],
[
-76.7717323,
-6.9411916
],
[
-76.7711315,
-6.9410159
],
[
-76.7706058,
-6.94092
],
[
-76.7701069,
-6.9408189
],
[
-76.7700479,
-6.9412396
],
[
-76.7698816,
-6.9418786
],
[
-76.7697314,
-6.9422247
],
[
-76.769844,
-6.9427306
],
[
-76.7697421,
-6.9432098
],
[
-76.769726,
-6.9438062
],
[
-76.769726,
-6.9443813
],
[
-76.7696402,
-6.9444666
],
[
-76.7697367,
-6.9446689
],
[
-76.7690715,
-6.9447541
],
[
-76.7687926,
-6.9447381
],
[
-76.7685512,
-6.9448713
],
[
-76.7680094,
-6.9451375
],
[
-76.7674783,
-6.9454251
],
[
-76.7672959,
-6.9454251
],
[
-76.7669955,
-6.9451375
],
[
-76.7670545,
-6.9447648
],
[
-76.766974,
-6.9447807
],
[
-76.7667434,
-6.9447807
],
[
-76.7667595,
-6.9446742
],
[
-76.766958,
-6.944605
],
[
-76.7670813,
-6.9442056
],
[
-76.7672369,
-6.94354
],
[
-76.7672959,
-6.9434814
],
[
-76.7673388,
-6.9433376
],
[
-76.7671564,
-6.943114
],
[
-76.7667005,
-6.9425229
],
[
-76.7662069,
-6.9420117
],
[
-76.7661587,
-6.9418413
],
[
-76.7661211,
-6.9411437
],
[
-76.7660996,
-6.9405047
],
[
-76.7664215,
-6.9397112
],
[
-76.7666146,
-6.9393225
],
[
-76.7669419,
-6.9384811
],
[
-76.7673174,
-6.9374001
],
[
-76.7674944,
-6.9367664
],
[
-76.7679879,
-6.935547
],
[
-76.7682561,
-6.9349612
],
[
-76.76949,
-6.93535
],
[
-76.7703054,
-6.935531
],
[
-76.7710939,
-6.9357493
],
[
-76.7715821,
-6.9358665
],
[
-76.7722044,
-6.9361221
],
[
-76.7724672,
-6.9361487
],
[
-76.7728856,
-6.9362712
],
[
-76.7733738,
-6.9363564
],
[
-76.7738781,
-6.936431
]
]
}
},
{
"type": "Feature",
"properties": {
"idzonacomercial_calc": "607"
},
"geometry": {
"type": "Polygon",
"coordinates": [
[
-76.7710597,
-6.9770891
],
[
-76.7717893,
-6.9784948
],
[
-76.7716605,
-6.9792615
],
[
-76.7727763,
-6.9799431
],
[
-76.7727763,
-6.9806246
],
[
-76.7732055,
-6.9825841
],
[
-76.7721326,
-6.9819877
],
[
-76.7706306,
-6.9838194
],
[
-76.769901,
-6.9824989
],
[
-76.7686994,
-6.9823711
],
[
-76.7680127,
-6.9833509
],
[
-76.7665536,
-6.9827545
],
[
-76.7659957,
-6.9833509
],
[
-76.7641504,
-6.9834786
],
[
-76.7640645,
-6.9830953
],
[
-76.7620046,
-6.9819026
],
[
-76.7620904,
-6.9813062
],
[
-76.7638929,
-6.980795
],
[
-76.7649228,
-6.9787078
],
[
-76.7673261,
-6.9781966
],
[
-76.7696435,
-6.977302
],
[
-76.7710597,
-6.9770891
]
]
}
}
]
}