{
"type": "FeatureCollection",
"features": [
{
"type": "Feature",
"properties": {
"idzonacomercial_calc": "623"
},
"geometry": {
"type": "Polygon",
"coordinates": [
[
[
-77.1033904,
-6.1388653
],
[
-77.0959875,
-6.1427269
],
[
-77.0960518,
-6.1429829
],
[
-77.0951292,
-6.1435803
],
[
-77.0803663,
-6.1393774
],
[
-77.0804736,
-6.1357932
],
[
-77.083306,
-6.1313555
],
[
-77.0889064,
-6.1232482
],
[
-77.0968672,
-6.1229495
],
[
-77.1051713,
-6.125019
],
[
-77.1128532,
-6.1303741
],
[
-77.1087762,
-6.133617
],
[
-77.1059438,
-6.1344704
],
[
-77.1060296,
-6.1348758
],
[
-77.1074888,
-6.1368812
],
[
-77.1053215,
-6.1379266
],
[
-77.1033904,
-6.1388653
]
]
]
}
}
]
}