{
"type": "FeatureCollection",
"features": [
{
"type": "Feature",
"properties": {
"idzonacomercial_calc": "628"
},
"geometry": {
"type": "Polygon",
"coordinates": [
[
[
-76.980596,
-6.0279721
],
[
-76.9809859,
-6.0290956
],
[
-76.9808356,
-6.0293731
],
[
-76.9758324,
-6.0310449
],
[
-76.9685189,
-6.0331927
],
[
-76.9626338,
-6.0353768
],
[
-76.9621618,
-6.033435
],
[
-76.9610996,
-6.0337871
],
[
-76.9607456,
-6.0339044
],
[
-76.9600589,
-6.0339044
],
[
-76.9599409,
-6.0340752
],
[
-76.9595761,
-6.0341818
],
[
-76.9588251,
-6.0342352
],
[
-76.9578582,
-6.0345811
],
[
-76.9573861,
-6.0345598
],
[
-76.9572788,
-6.0344104
],
[
-76.956969,
-6.0342459
],
[
-76.9568832,
-6.0344806
],
[
-76.9562287,
-6.0344806
],
[
-76.9560892,
-6.0346833
],
[
-76.9544048,
-6.0344166
],
[
-76.9543927,
-6.0346558
],
[
-76.9538241,
-6.0344744
],
[
-76.9442463,
-6.0267103
],
[
-76.9452333,
-6.0242777
],
[
-76.9476366,
-6.0255153
],
[
-76.9496536,
-6.02543
],
[
-76.9514131,
-6.0255794
],
[
-76.9525719,
-6.026561
],
[
-76.9544601,
-6.0246831
],
[
-76.9573784,
-6.0248538
],
[
-76.9597816,
-6.0275852
],
[
-76.9654894,
-6.0276279
],
[
-76.9667339,
-6.0263049
],
[
-76.9655323,
-6.0244697
],
[
-76.9671202,
-6.0228053
],
[
-76.9643736,
-6.0224212
],
[
-76.966176,
-6.0191776
],
[
-76.9684505,
-6.0191349
],
[
-76.9691801,
-6.0149951
],
[
-76.9741154,
-6.0106418
],
[
-76.9828701,
-6.0224212
],
[
-76.9826961,
-6.0241693
],
[
-76.9803787,
-6.0261325
],
[
-76.9802952,
-6.0265183
],
[
-76.980596,
-6.0279721
]
]
]
}
}
]
}