{
"type": "FeatureCollection",
"features": [
{
"type": "Feature",
"properties": {
"idzonacomercial_calc": "718"
},
"geometry": {
"type": "Polygon",
"coordinates": [
[
[
-79.7102565,
-4.6408638
],
[
-79.710192,
-4.6401099
],
[
-79.7113937,
-4.6386074
],
[
-79.711501,
-4.6383133
],
[
-79.7117022,
-4.6381716
],
[
-79.710294,
-4.6380513
],
[
-79.7119086,
-4.6380139
],
[
-79.7117478,
-4.6346186
],
[
-79.7120375,
-4.631218
],
[
-79.7134214,
-4.6310202
],
[
-79.7151917,
-4.6308758
],
[
-79.7158461,
-4.631234
],
[
-79.7165918,
-4.6325333
],
[
-79.7172141,
-4.6336775
],
[
-79.7173857,
-4.6339021
],
[
-79.7179812,
-4.6340412
],
[
-79.7180242,
-4.6342657
],
[
-79.7183889,
-4.6342978
],
[
-79.7186464,
-4.6359179
],
[
-79.7181475,
-4.6383561
],
[
-79.7181851,
-4.638987
],
[
-79.7177023,
-4.6399066
],
[
-79.717933,
-4.6399868
],
[
-79.7182387,
-4.6407675
],
[
-79.7257703,
-4.6428154
],
[
-79.7227797,
-4.6467907
],
[
-79.7162485,
-4.6477504
],
[
-79.7127026,
-4.6479589
],
[
-79.7119301,
-4.6419759
],
[
-79.710648,
-4.6410562
],
[
-79.7105139,
-4.6409547
],
[
-79.7102565,
-4.6408638
],
[
null,
-4.6397944
],
[
-79.7116458,
-4.6393988
],
[
-79.7116351,
-4.6391902
],
[
-79.7117424,
-4.6391368
],
[
-79.7121447,
-4.6392918
],
[
-79.7125953,
-4.6394843
],
[
-79.712826,
-4.6395004
],
[
-79.7102565,
-4.6408638
],
[
-79.7116405,
-4.6397944
]
]
]
}
}
]
}