{
"type": "FeatureCollection",
"features": [
{
"type": "Feature",
"properties": {
"idzonacomercial_calc": "738"
},
"geometry": {
"type": "Polygon",
"coordinates": [
[
[
-79.027546,
-8.137249
],
[
-79.033425,
-8.131556
],
[
-79.031408,
-8.12905
],
[
-79.030507,
-8.127648
],
[
-79.030335,
-8.12684
],
[
-79.032524,
-8.126756
],
[
-79.0357,
-8.125778
],
[
-79.037211,
-8.129428
],
[
-79.040665,
-8.128153
],
[
-79.041245,
-8.127644
],
[
-79.043682,
-8.130707
],
[
-79.045227,
-8.132151
],
[
-79.046867,
-8.134016
],
[
-79.039262,
-8.137164
],
[
-79.038446,
-8.139373
],
[
-79.039948,
-8.142644
],
[
-79.04012,
-8.144981
],
[
-79.038575,
-8.145151
],
[
-79.038876,
-8.14787
],
[
-79.040678,
-8.150801
],
[
-79.03879,
-8.1525
],
[
-79.037374,
-8.15301
],
[
-79.035829,
-8.152755
],
[
-79.034713,
-8.151693
],
[
-79.028233,
-8.144599
],
[
-79.027503,
-8.142942
],
[
-79.027546,
-8.137249
]
]
]
}
}
]
}