{
"type": "FeatureCollection",
"features": [
{
"type": "Feature",
"properties": {
"idzonacomercial_calc": "778"
},
"geometry": {
"type": "Polygon",
"coordinates": [
[
[
-79.4847846,
-7.2950791
],
[
-79.4865012,
-7.2985697
],
[
-79.4883037,
-7.3005278
],
[
-79.4909644,
-7.3003575
],
[
-79.492166,
-7.3036778
],
[
-79.4877028,
-7.3053804
],
[
-79.4859862,
-7.305125
],
[
-79.4871879,
-7.306998
],
[
-79.488132,
-7.3092115
],
[
-79.4904494,
-7.312106
],
[
-79.4907927,
-7.3132978
],
[
-79.4859862,
-7.3132978
],
[
-79.4847846,
-7.3119357
],
[
-79.4837546,
-7.3104033
],
[
-79.4816089,
-7.3109141
],
[
-79.481008,
-7.3190017
],
[
-79.4816947,
-7.3229177
],
[
-79.4816089,
-7.3258973
],
[
-79.4829822,
-7.3262378
],
[
-79.4847846,
-7.3282809
],
[
-79.4853854,
-7.3302389
],
[
-79.4879603,
-7.3310902
],
[
-79.4900203,
-7.3294727
],
[
-79.493196,
-7.3291322
],
[
-79.4954276,
-7.3297281
],
[
-79.4980025,
-7.332282
],
[
-79.5017791,
-7.3334738
],
[
-79.5061564,
-7.3347507
],
[
-79.5101905,
-7.3364533
],
[
-79.5125079,
-7.3387517
],
[
-79.5145678,
-7.3374748
],
[
-79.5161986,
-7.3387517
],
[
-79.5191169,
-7.3401989
],
[
-79.520061,
-7.3422419
],
[
-79.5212626,
-7.3441998
],
[
-79.5232367,
-7.3450511
],
[
-79.5245242,
-7.3468388
],
[
-79.5215201,
-7.3466685
],
[
-79.5191169,
-7.3464131
],
[
-79.5193744,
-7.3486264
],
[
-79.5179152,
-7.3476049
],
[
-79.5169711,
-7.3464131
],
[
-79.514997,
-7.3473495
],
[
-79.5149112,
-7.3489669
],
[
-79.5120788,
-7.3491372
],
[
-79.5105338,
-7.3489669
],
[
-79.5097613,
-7.3473495
],
[
-79.509418,
-7.344966
],
[
-79.5077872,
-7.3424973
],
[
-79.5017791,
-7.3401137
],
[
-79.5004916,
-7.3405394
],
[
-79.4981742,
-7.340284
],
[
-79.493711,
-7.3381558
],
[
-79.493196,
-7.3365384
],
[
-79.4879603,
-7.3350061
],
[
-79.486587,
-7.3341548
],
[
-79.4852996,
-7.3347507
],
[
-79.4834971,
-7.3350912
],
[
-79.482553,
-7.3342399
],
[
-79.4808364,
-7.3333886
],
[
-79.4792056,
-7.3334738
],
[
-79.4756007,
-7.3352615
],
[
-79.4717383,
-7.3367938
],
[
-79.4682193,
-7.3388368
],
[
-79.4653869,
-7.3430081
],
[
-79.4643569,
-7.344285
],
[
-79.4649577,
-7.3480305
],
[
-79.4626403,
-7.3493925
],
[
-79.4616103,
-7.351776
],
[
-79.459722,
-7.3498182
],
[
-79.4569755,
-7.3506694
],
[
-79.4540572,
-7.351776
],
[
-79.4517398,
-7.3513504
],
[
-79.4481349,
-7.3506694
],
[
-79.4447017,
-7.3504992
],
[
-79.4438434,
-7.3495628
],
[
-79.4447017,
-7.3472644
],
[
-79.4464183,
-7.345647
],
[
-79.4488215,
-7.3465834
],
[
-79.4515681,
-7.3485413
],
[
-79.4533706,
-7.3479454
],
[
-79.4555163,
-7.3452214
],
[
-79.4585204,
-7.343604
],
[
-79.460752,
-7.3443701
],
[
-79.4609237,
-7.3427527
],
[
-79.4593787,
-7.340965
],
[
-79.4611812,
-7.3398584
],
[
-79.4641852,
-7.3422419
],
[
-79.4672751,
-7.3378153
],
[
-79.4712233,
-7.335602
],
[
-79.4749141,
-7.3340697
],
[
-79.4763732,
-7.329643
],
[
-79.4801497,
-7.3265783
],
[
-79.4805789,
-7.3230028
],
[
-79.4795489,
-7.3188314
],
[
-79.4806647,
-7.3107439
],
[
-79.4795489,
-7.309552
],
[
-79.4782615,
-7.3112546
],
[
-79.4775748,
-7.3097223
],
[
-79.4761157,
-7.3090412
],
[
-79.4756865,
-7.3077642
],
[
-79.4749999,
-7.3054656
],
[
-79.4740558,
-7.3048696
],
[
-79.4725966,
-7.3053804
],
[
-79.4715667,
-7.3061466
],
[
-79.4722533,
-7.3087858
],
[
-79.4717383,
-7.3109993
],
[
-79.4702792,
-7.3115952
],
[
-79.4700217,
-7.3104885
],
[
-79.4697642,
-7.3087007
],
[
-79.4698501,
-7.3075088
],
[
-79.4689917,
-7.3060615
],
[
-79.467876,
-7.3049548
],
[
-79.4525981,
-7.305721
],
[
-79.4474482,
-7.3060615
],
[
-79.4371486,
-7.3063169
],
[
-79.4257331,
-7.3026561
],
[
-79.4235873,
-7.3017197
],
[
-79.4220424,
-7.3018899
],
[
-79.4200683,
-7.3028264
],
[
-79.4203257,
-7.3046142
],
[
-79.4182658,
-7.3055507
],
[
-79.4162059,
-7.3050399
],
[
-79.4143176,
-7.303848
],
[
-79.4125152,
-7.3033372
],
[
-79.4106269,
-7.3034224
],
[
-79.4084811,
-7.3022305
],
[
-79.4064212,
-7.303167
],
[
-79.4032454,
-7.3018899
],
[
-79.4050479,
-7.2997616
],
[
-79.406507,
-7.2988251
],
[
-79.4071937,
-7.2959305
],
[
-79.4102836,
-7.2950791
],
[
-79.4089961,
-7.2964413
],
[
-79.4094253,
-7.3002724
],
[
-79.4107127,
-7.3005278
],
[
-79.4144893,
-7.2989102
],
[
-79.4168925,
-7.2983143
],
[
-79.4208407,
-7.2979737
],
[
-79.424274,
-7.2976332
],
[
-79.4249606,
-7.2989954
],
[
-79.4270205,
-7.2995062
],
[
-79.4262481,
-7.3016345
],
[
-79.4377494,
-7.305125
],
[
-79.4471049,
-7.3047845
],
[
-79.4483066,
-7.303848
],
[
-79.4459033,
-7.3019751
],
[
-79.4469333,
-7.3006981
],
[
-79.4472766,
-7.2980589
],
[
-79.4493365,
-7.2966116
],
[
-79.4517398,
-7.2995062
],
[
-79.4518256,
-7.3015494
],
[
-79.4522548,
-7.304444
],
[
-79.4670176,
-7.3036778
],
[
-79.470365,
-7.3036778
],
[
-79.471395,
-7.3023156
],
[
-79.4741416,
-7.3007832
],
[
-79.4773173,
-7.2997616
],
[
-79.4801497,
-7.3002724
],
[
-79.4818664,
-7.299421
],
[
-79.481008,
-7.2967818
],
[
-79.4847846,
-7.2950791
]
]
]
}
}
]
}