{
"type": "FeatureCollection",
"features": [
{
"type": "Feature",
"properties": {
"idzonacomercial_calc": "742"
},
"geometry": {
"type": "Polygon",
"coordinates": [
[
[
-79.038466,
-8.109815
],
[
-79.039432,
-8.109433
],
[
-79.045226,
-8.107266
],
[
-79.046813,
-8.106671
],
[
-79.048294,
-8.105757
],
[
-79.050955,
-8.11485
],
[
-79.04868,
-8.114892
],
[
-79.048165,
-8.116294
],
[
-79.051276,
-8.120784
],
[
-79.048939,
-8.121689
],
[
-79.048101,
-8.120827
],
[
-79.044324,
-8.123843
],
[
-79.04339,
-8.124648
],
[
-79.040558,
-8.125094
],
[
-79.039893,
-8.125583
],
[
-79.039185,
-8.124861
],
[
-79.038133,
-8.124733
],
[
-79.035837,
-8.12571
],
[
-79.03448,
-8.122536
],
[
-79.032729,
-8.118336
],
[
-79.032733,
-8.117552
],
[
-79.031297,
-8.115738
],
[
-79.032725,
-8.113726
],
[
-79.03301,
-8.110893
],
[
-79.034504,
-8.112557
],
[
-79.035655,
-8.11165
],
[
-79.036836,
-8.11092
],
[
-79.038123,
-8.109942
],
[
-79.038466,
-8.109815
]
]
]
}
}
]
}