{
"type": "FeatureCollection",
"features": [
{
"type": "Feature",
"properties": {
"idzonacomercial_calc": "621"
},
"geometry": {
"type": "Polygon",
"coordinates": [
[
-77.1686983,
-6.0535566
],
[
-77.1654797,
-6.0655057
],
[
-77.1667886,
-6.0658258
],
[
-77.1676469,
-6.0659538
],
[
-77.1687627,
-6.0660605
],
[
-77.1701145,
-6.0661032
],
[
-77.1711016,
-6.0661885
],
[
-77.1711659,
-6.0687917
],
[
-77.1713161,
-6.0693465
],
[
-77.1713805,
-6.0700719
],
[
-77.1716809,
-6.070264
],
[
-77.1724963,
-6.0702
],
[
-77.1728182,
-6.0704133
],
[
-77.1732903,
-6.0709894
],
[
-77.1739554,
-6.071971
],
[
-77.174162,
-6.0725977
],
[
-77.1744489,
-6.0734299
],
[
-77.1746635,
-6.0742327
],
[
-77.1750069,
-6.0752996
],
[
-77.1752429,
-6.0759183
],
[
-77.1754575,
-6.0766011
],
[
-77.1764874,
-6.0782014
],
[
-77.1766377,
-6.0788415
],
[
-77.176702,
-6.0793323
],
[
-77.1767235,
-6.0802711
],
[
-77.1768308,
-6.0809325
],
[
-77.1771526,
-6.0813806
],
[
-77.1779037,
-6.0820421
],
[
-77.1785045,
-6.0826608
],
[
-77.1791911,
-6.0836637
],
[
-77.1798134,
-6.0842824
],
[
-77.181294,
-6.0849012
],
[
-77.1825385,
-6.0849652
],
[
-77.1833968,
-6.0859467
],
[
-77.1836114,
-6.0869709
],
[
-77.1842551,
-6.088059
],
[
-77.1846414,
-6.0895313
],
[
-77.1565533,
-6.0898086
],
[
-77.1573472,
-6.0877603
],
[
-77.1583128,
-6.0827675
],
[
-77.1603942,
-6.0778173
],
[
-77.1600509,
-6.0736139
],
[
-77.158463,
-6.0780734
],
[
-77.1560383,
-6.0759183
],
[
-77.1558666,
-6.0742754
],
[
-77.1545577,
-6.0735926
],
[
-77.1550083,
-6.072355
],
[
-77.1548367,
-6.0716082
],
[
-77.1546221,
-6.0715015
],
[
-77.1545577,
-6.0718003
],
[
-77.1540213,
-6.0718856
],
[
-77.1534848,
-6.0708187
],
[
-77.1525407,
-6.0619423
],
[
-77.1530342,
-6.0607261
],
[
-77.1533561,
-6.0598512
],
[
-77.1541715,
-6.0578241
],
[
-77.1551156,
-6.0484781
],
[
-77.1664238,
-6.0509533
],
[
-77.1686983,
-6.0535566
]
]
}
}
]
}