{
"type": "FeatureCollection",
"features": [
{
"type": "Feature",
"properties": {
"idzonacomercial_calc": "563"
},
"geometry": {
"type": "Polygon",
"coordinates": [
[
[
-76.3715775,
-6.5013393
],
[
-76.37029,
-6.506392
],
[
-76.3687021,
-6.5108478
],
[
-76.359883,
-6.5114661
],
[
-76.355849,
-6.5102509
],
[
-76.3553233,
-6.5067225
],
[
-76.3549907,
-6.5049797
],
[
-76.354819,
-6.5040976
],
[
-76.3547868,
-6.5036672
],
[
-76.3547385,
-6.5034307
],
[
-76.3546473,
-6.5032155
],
[
-76.3532686,
-6.5026132
],
[
-76.3518685,
-6.5019896
],
[
-76.3490683,
-6.5007531
],
[
-76.3464344,
-6.5025119
],
[
-76.3452945,
-6.5031941
],
[
-76.3446762,
-6.5035992
],
[
-76.3438756,
-6.5047398
],
[
-76.3436181,
-6.5054807
],
[
-76.3433177,
-6.5059897
],
[
-76.3421536,
-6.5065746
],
[
-76.3409788,
-6.507522
],
[
-76.3407159,
-6.5076925
],
[
-76.3404316,
-6.5075433
],
[
-76.340099,
-6.5071382
],
[
-76.3398415,
-6.5062428
],
[
-76.3393587,
-6.5054753
],
[
-76.3390691,
-6.5047024
],
[
-76.3390905,
-6.503791
],
[
-76.3385541,
-6.5020003
],
[
-76.3394052,
-6.5008044
],
[
-76.3395519,
-6.4994603
],
[
-76.339593,
-6.4985963
],
[
-76.3400418,
-6.4982014
],
[
-76.3402349,
-6.4981708
],
[
-76.3403798,
-6.4981188
],
[
-76.3406909,
-6.4979722
],
[
-76.3413132,
-6.4977004
],
[
-76.3425202,
-6.4971568
],
[
-76.3436467,
-6.4970821
],
[
-76.3477236,
-6.4960054
],
[
-76.3485135,
-6.4962384
],
[
-76.3492605,
-6.4968126
],
[
-76.3499485,
-6.4973122
],
[
-76.3503019,
-6.4975699
],
[
-76.3504759,
-6.4976882
],
[
-76.3506311,
-6.4978064
],
[
-76.3535172,
-6.4998285
],
[
-76.3549315,
-6.4991851
],
[
-76.3585667,
-6.5051908
],
[
-76.3644192,
-6.5016034
],
[
-76.3652615,
-6.5037837
],
[
-76.3677012,
-6.5019912
],
[
-76.3688234,
-6.5008843
],
[
-76.3698834,
-6.499719
],
[
-76.3715775,
-6.5013393
]
]
]
}
},
{
"type": "Feature",
"properties": {
"idzonacomercial_calc": "625"
},
"geometry": {
"type": "Polygon",
"coordinates": [
[
-76.9780298,
-6.0479911
],
[
-76.9780298,
-6.0463267
],
[
-76.9790169,
-6.0435527
],
[
-76.978459,
-6.0410775
],
[
-76.9784161,
-6.0386022
],
[
-76.9799181,
-6.0385168
],
[
-76.9811626,
-6.0393704
],
[
-76.9838234,
-6.0381327
],
[
-76.9854113,
-6.0387729
],
[
-76.9863125,
-6.040352
],
[
-77.0003887,
-6.0401812
],
[
-77.002792,
-6.0456866
],
[
-77.0019766,
-6.0470095
],
[
-77.0010324,
-6.0475643
],
[
-77.0044228,
-6.0572091
],
[
-77.0042511,
-6.0594709
],
[
-77.0004316,
-6.0598977
],
[
-76.9992729,
-6.0593429
],
[
-76.99923,
-6.0569958
],
[
-76.9967838,
-6.05499
],
[
-76.9957539,
-6.0575505
],
[
-76.9933935,
-6.0602391
],
[
-76.9882866,
-6.0609219
],
[
-76.9833942,
-6.0632264
],
[
-76.9823643,
-6.0658296
],
[
-76.9798752,
-6.0668964
],
[
-76.9738241,
-6.0653601
],
[
-76.974382,
-6.0621168
],
[
-76.9738027,
-6.0601004
],
[
-76.9751116,
-6.059823
],
[
-76.974897,
-6.0593963
],
[
-76.9762059,
-6.0589908
],
[
-76.9761415,
-6.0584147
],
[
-76.9763776,
-6.0579453
],
[
-76.9758197,
-6.0561742
],
[
-76.9760128,
-6.055022
],
[
-76.9757982,
-6.0542112
],
[
-76.9762274,
-6.0534216
],
[
-76.9763561,
-6.0527388
],
[
-76.9766351,
-6.0512878
],
[
-76.9769355,
-6.0502636
],
[
-76.9773646,
-6.0494101
],
[
-76.9779011,
-6.0485566
],
[
-76.9780298,
-6.0479911
]
]
}
},
{
"type": "Feature",
"properties": {
"idzonacomercial_calc": "562"
},
"geometry": {
"type": "Polygon",
"coordinates": [
[
[
-76.4218054,
-6.4530763
],
[
-76.4217195,
-6.4533535
],
[
-76.4222774,
-6.4546541
],
[
-76.4228997,
-6.4554217
],
[
-76.4233128,
-6.457498
],
[
-76.4238881,
-6.4589365
],
[
-76.424399,
-6.4605882
],
[
-76.4244983,
-6.4626763
],
[
-76.4270437,
-6.4634959
],
[
-76.4292888,
-6.4629935
],
[
-76.4305688,
-6.4630039
],
[
-76.4364623,
-6.4632061
],
[
-76.4403388,
-6.4668623
],
[
-76.4399167,
-6.4703108
],
[
-76.4356751,
-6.4736314
],
[
-76.4317336,
-6.4777671
],
[
-76.4319086,
-6.4862736
],
[
-76.4271912,
-6.4906865
],
[
-76.4267621,
-6.4961871
],
[
-76.4249596,
-6.4996622
],
[
-76.4219341,
-6.4966134
],
[
-76.4200887,
-6.4969439
],
[
-76.4182004,
-6.4977861
],
[
-76.4201959,
-6.4991504
],
[
-76.4192519,
-6.5004083
],
[
-76.4188012,
-6.5014957
],
[
-76.4183506,
-6.5031159
],
[
-76.4173851,
-6.5054184
],
[
-76.405755,
-6.5246483
],
[
-76.3985238,
-6.5287203
],
[
-76.389254,
-6.5278782
],
[
-76.3869581,
-6.5235824
],
[
-76.384984,
-6.5220047
],
[
-76.3790751,
-6.5189161
],
[
-76.379511,
-6.516988
],
[
-76.3801151,
-6.5159814
],
[
-76.3801614,
-6.5143991
],
[
-76.3768838,
-6.5093518
],
[
-76.3783335,
-6.5073704
],
[
-76.3799549,
-6.5050053
],
[
-76.3825969,
-6.5011704
],
[
-76.3915286,
-6.4995982
],
[
-76.3966998,
-6.4929677
],
[
-76.3985666,
-6.4902387
],
[
-76.3999399,
-6.4880214
],
[
-76.4014547,
-6.4861179
],
[
-76.4019975,
-6.4853154
],
[
-76.4006735,
-6.4849819
],
[
-76.3990505,
-6.4851615
],
[
-76.3982394,
-6.4847327
],
[
-76.3946721,
-6.4828511
],
[
-76.3926336,
-6.4824168
],
[
-76.3928482,
-6.4807884
],
[
-76.3929984,
-6.4785418
],
[
-76.3924084,
-6.4779088
],
[
-76.3917754,
-6.4769774
],
[
-76.3915528,
-6.4763804
],
[
-76.3913899,
-6.4755756
],
[
-76.3912976,
-6.4748214
],
[
-76.3915273,
-6.4739179
],
[
-76.3916004,
-6.4731983
],
[
-76.3907894,
-6.4722308
],
[
-76.3899869,
-6.4718964
],
[
-76.3891629,
-6.4717751
],
[
-76.3880404,
-6.4716152
],
[
-76.3833982,
-6.4719658
],
[
-76.3828366,
-6.4697745
],
[
-76.3823842,
-6.4693825
],
[
-76.3825122,
-6.4689898
],
[
-76.3824901,
-6.4685757
],
[
-76.3827678,
-6.4685579
],
[
-76.3834733,
-6.4678826
],
[
-76.3832239,
-6.467655
],
[
-76.3826808,
-6.4678504
],
[
-76.3813364,
-6.4680334
],
[
-76.3806838,
-6.468335
],
[
-76.3782502,
-6.4683167
],
[
-76.3794644,
-6.4674457
],
[
-76.380168,
-6.4670741
],
[
-76.3808932,
-6.4667878
],
[
-76.3818912,
-6.4666664
],
[
-76.3822996,
-6.4662104
],
[
-76.3831591,
-6.465469
],
[
-76.3841486,
-6.464839
],
[
-76.3848831,
-6.4639201
],
[
-76.3864946,
-6.4653572
],
[
-76.3882724,
-6.4663785
],
[
-76.3887332,
-6.4662083
],
[
-76.3892986,
-6.46619
],
[
-76.3897261,
-6.466394
],
[
-76.3902555,
-6.4662836
],
[
-76.390833,
-6.4665597
],
[
-76.391507,
-6.466676
],
[
-76.3918574,
-6.4667314
],
[
-76.3922186,
-6.4667123
],
[
-76.3927836,
-6.466288
],
[
-76.3932144,
-6.4660556
],
[
-76.3953136,
-6.4616142
],
[
-76.3997302,
-6.457258
],
[
-76.4008815,
-6.4575432
],
[
-76.4092343,
-6.451857
],
[
-76.4141402,
-6.4510181
],
[
-76.4209344,
-6.4519276
],
[
-76.4217611,
-6.4527087
],
[
-76.4218054,
-6.4530763
]
]
]
}
}
]
}