{
"type": "FeatureCollection",
"features": [
{
"type": "Feature",
"properties": {
"idzonacomercial_calc": "416"
},
"geometry": {
"type": "Polygon",
"coordinates": [
[
[
-80.4575111,
-3.5648947
],
[
-80.454121,
-3.5670364
],
[
-80.447598,
-3.5695206
],
[
-80.442705,
-3.5696919
],
[
-80.442877,
-3.566094
],
[
-80.446482,
-3.5637383
],
[
-80.437126,
-3.5631386
],
[
-80.433135,
-3.5604402
],
[
-80.434036,
-3.5565852
],
[
-80.435281,
-3.5541438
],
[
-80.436869,
-3.5463053
],
[
-80.440002,
-3.551017
],
[
-80.442577,
-3.5525161
],
[
-80.452233,
-3.5523876
],
[
-80.45897,
-3.5564139
],
[
-80.460987,
-3.5619821
],
[
-80.464335,
-3.566608
],
[
-80.461416,
-3.5694778
],
[
-80.457511,
-3.5648947
]
]
]
}
}
]
}