{
"type": "FeatureCollection",
"features": [
{
"type": "Feature",
"properties": {
"idzonacomercial_calc": "739"
},
"geometry": {
"type": "Polygon",
"coordinates": [
[
[
-79.048124,
-8.120967
],
[
-79.048939,
-8.121689
],
[
-79.053831,
-8.120032
],
[
-79.054518,
-8.123346
],
[
-79.054711,
-8.123909
],
[
-79.054853,
-8.12416
],
[
-79.052849,
-8.125294
],
[
-79.052553,
-8.127241
],
[
-79.049356,
-8.129598
],
[
-79.051158,
-8.132041
],
[
-79.046867,
-8.134016
],
[
-79.041245,
-8.127644
],
[
-79.040665,
-8.128153
],
[
-79.038884,
-8.128748
],
[
-79.037211,
-8.129428
],
[
-79.035837,
-8.12571
],
[
-79.038133,
-8.124733
],
[
-79.039185,
-8.124861
],
[
-79.039893,
-8.125583
],
[
-79.040558,
-8.125094
],
[
-79.041717,
-8.124882
],
[
-79.04339,
-8.124648
],
[
-79.048124,
-8.120967
]
]
]
}
}
]
}