{
"type": "FeatureCollection",
"features": [
{
"type": "Feature",
"properties": {
"idzonacomercial_calc": "830"
},
"geometry": {
"type": "Polygon",
"coordinates": [
[
[
-76.9651922,
-6.0345315
],
[
-76.9705538,
-6.0326667
],
[
-76.9758324,
-6.0310449
],
[
-76.981111,
-6.0293378
],
[
-76.980596,
-6.0279721
],
[
-76.9840722,
-6.0267344
],
[
-76.9865991,
-6.0251112
],
[
-76.9892819,
-6.0230896
],
[
-76.9934876,
-6.0262051
],
[
-76.9991095,
-6.029278
],
[
-76.9907425,
-6.0311518
],
[
-77.0003887,
-6.0401812
],
[
-76.9863125,
-6.040352
],
[
-76.9854113,
-6.0387729
],
[
-76.9838234,
-6.0381327
],
[
-76.9811626,
-6.0393704
],
[
-76.9799181,
-6.0385168
],
[
-76.9784161,
-6.0386022
],
[
-76.978459,
-6.0410775
],
[
-76.9790169,
-6.0435527
],
[
-76.9780298,
-6.0463267
],
[
-76.9780298,
-6.0479911
],
[
-76.9716452,
-6.0480093
],
[
-76.9705137,
-6.0481455
],
[
-76.9691189,
-6.0474627
],
[
-76.9672736,
-6.0448807
],
[
-76.9677456,
-6.0436218
],
[
-76.9683465,
-6.0424908
],
[
-76.969199,
-6.0418638
],
[
-76.9689902,
-6.0410398
],
[
-76.9680675,
-6.0413812
],
[
-76.967182,
-6.0381936
],
[
-76.9651922,
-6.0345315
]
]
]
}
}
]
}