{
"type": "FeatureCollection",
"features": [
{
"type": "Feature",
"properties": {
"idzonacomercial_calc": "477"
},
"geometry": {
"type": "Polygon",
"coordinates": [
[
[
-78.2987697,
-9.4779989
],
[
-78.2955395,
-9.4790262
],
[
-78.2922564,
-9.4791744
],
[
-78.2898103,
-9.477587
],
[
-78.2861839,
-9.4761055
],
[
-78.2827936,
-9.4754494
],
[
-78.2817422,
-9.474624
],
[
-78.2821499,
-9.4729096
],
[
-78.2840596,
-9.4720418
],
[
-78.2865272,
-9.4729308
],
[
-78.2880078,
-9.4714915
],
[
-78.2891451,
-9.4690999
],
[
-78.2908617,
-9.4670468
],
[
-78.2937156,
-9.4668775
],
[
-78.2962046,
-9.4681474
],
[
-78.29686,
-9.4694694
],
[
-78.2959159,
-9.4698503
],
[
-78.2959159,
-9.474168
],
[
-78.2996,
-9.47461
],
[
-78.2987697,
-9.4779989
]
]
]
}
}
]
}