{
"type": "FeatureCollection",
"features": [
{
"type": "Feature",
"properties": {
"idzonacomercial_calc": "733"
},
"geometry": {
"type": "Polygon",
"coordinates": [
[
[
-80.1716682,
-5.088788
],
[
-80.1745436,
-5.0894719
],
[
-80.1744577,
-5.0917375
],
[
-80.1740715,
-5.0931908
],
[
-80.1722261,
-5.0937893
],
[
-80.1729986,
-5.0963968
],
[
-80.176346,
-5.0966533
],
[
-80.1738998,
-5.1006713
],
[
-80.1735136,
-5.1014407
],
[
-80.174801,
-5.1023811
],
[
-80.1734707,
-5.1062282
],
[
-80.1721832,
-5.1092204
],
[
-80.16978,
-5.1087074
],
[
-80.1689216,
-5.1069549
],
[
-80.1672479,
-5.1065702
],
[
-80.1660034,
-5.1090066
],
[
-80.1624414,
-5.105587
],
[
-80.1580211,
-5.1047749
],
[
-80.1554891,
-5.1024666
],
[
-80.1552746,
-5.1013553
],
[
-80.1547596,
-5.1001156
],
[
-80.1567766,
-5.0985768
],
[
-80.1542446,
-5.0946442
],
[
-80.153558,
-5.0893437
],
[
-80.1546308,
-5.0912673
],
[
-80.1563045,
-5.0917802
],
[
-80.1582786,
-5.0914383
],
[
-80.1623556,
-5.0914383
],
[
-80.1693508,
-5.094516
],
[
-80.1718828,
-5.0904978
],
[
-80.1716682,
-5.088788
]
]
]
}
}
]
}