{
"type": "FeatureCollection",
"features": [
{
"type": "Feature",
"properties": {
"idzonacomercial_calc": "605"
},
"geometry": {
"type": "Polygon",
"coordinates": [
[
-76.4417678,
-6.9989633
],
[
-76.4424974,
-6.9991124
],
[
-76.4428192,
-6.9988355
],
[
-76.4432484,
-6.9957047
],
[
-76.443935,
-6.9960029
],
[
-76.4448363,
-6.9972382
],
[
-76.4460808,
-6.9994318
],
[
-76.4479691,
-6.9990272
],
[
-76.4485699,
-7.0005819
],
[
-76.4525825,
-7.0034571
],
[
-76.4555436,
-7.005885
],
[
-76.4551789,
-7.0060128
],
[
-76.4531404,
-7.004671
],
[
-76.4494282,
-7.004671
],
[
-76.4468962,
-7.0044155
],
[
-76.445244,
-7.0049905
],
[
-76.4439994,
-7.0057998
],
[
-76.4438921,
-7.0062045
],
[
-76.4427549,
-7.0059276
],
[
-76.4416605,
-7.0055442
],
[
-76.4410168,
-7.0060554
],
[
-76.4400297,
-7.0067795
],
[
-76.4387852,
-7.0066091
],
[
-76.43812,
-7.0057572
],
[
-76.4374977,
-7.0047349
],
[
-76.4378411,
-7.0044155
],
[
-76.4380556,
-7.0037978
],
[
-76.4382702,
-7.0032015
],
[
-76.4389139,
-7.003521
],
[
-76.4392787,
-7.0029459
],
[
-76.4400512,
-7.0015616
],
[
-76.4410382,
-6.9999856
],
[
-76.4417678,
-6.9989633
]
]
}
}
]
}