{
"type": "FeatureCollection",
"features": [
{
"type": "Feature",
"properties": {
"idzonacomercial_calc": "752"
},
"geometry": {
"type": "Polygon",
"coordinates": [
[
[
-78.9971176,
-8.0474374
],
[
-79.001123,
-8.0457377
],
[
-79.0058151,
-8.0582021
],
[
-79.0144554,
-8.0555959
],
[
-79.0177741,
-8.055086
],
[
-79.0230384,
-8.0561058
],
[
-79.0244689,
-8.0587687
],
[
-79.0221801,
-8.065284
],
[
-79.0210929,
-8.0720258
],
[
-79.0190902,
-8.0814302
],
[
-79.0172592,
-8.080637
],
[
-79.0122238,
-8.0799572
],
[
-79.0084472,
-8.0818834
],
[
-79.0069023,
-8.0798439
],
[
-79.0028968,
-8.0784843
],
[
-78.9998641,
-8.0799572
],
[
-78.9980331,
-8.0774079
],
[
-78.9933982,
-8.0788242
],
[
-78.9839569,
-8.0571256
],
[
-78.9847579,
-8.0558792
],
[
-78.9859023,
-8.0511201
],
[
-78.9876762,
-8.0459643
],
[
-78.9929977,
-8.0495904
],
[
-78.9971176,
-8.0474374
]
]
]
}
}
]
}