{
"type": "FeatureCollection",
"features": [
{
"type": "Feature",
"properties": {
"idzonacomercial_calc": "701"
},
"geometry": {
"type": "Polygon",
"coordinates": [
[
[
-78.1246121,
-7.5856142
],
[
-78.1614454,
-7.609624
],
[
-78.2036479,
-7.6472783
],
[
-78.1724323,
-7.6642106
],
[
-78.0787356,
-7.6219274
],
[
-78.0661471,
-7.6272019
],
[
-78.057278,
-7.6319659
],
[
-78.0525859,
-7.6378073
],
[
-78.0443461,
-7.6410967
],
[
-78.0431445,
-7.6409265
],
[
-78.0355341,
-7.6446128
],
[
-78.0335315,
-7.6442158
],
[
-78.0321581,
-7.6434786
],
[
-78.0337604,
-7.6410966
],
[
-78.0350764,
-7.6383178
],
[
-78.0359919,
-7.6356522
],
[
-78.0374797,
-7.6327598
],
[
-78.0372508,
-7.6290167
],
[
-78.0367358,
-7.6260109
],
[
-78.0337031,
-7.620226
],
[
-78.0401118,
-7.6201693
],
[
-78.0384524,
-7.6189216
],
[
-78.0412563,
-7.6175604
],
[
-78.0432018,
-7.6067276
],
[
-78.0545028,
-7.6042462
],
[
-78.0632146,
-7.6033529
],
[
-78.0689366,
-7.6060612
],
[
-78.068064,
-7.6036791
],
[
-78.0699666,
-7.6055933
],
[
-78.0711969,
-7.6037358
],
[
-78.074909,
-7.6002973
],
[
-78.0799945,
-7.6000917
],
[
-78.0871328,
-7.5949587
],
[
-78.1246121,
-7.5856142
]
]
]
}
}
]
}