{
"type": "FeatureCollection",
"features": [
{
"type": "Feature",
"properties": {
"idzonacomercial_calc": "798"
},
"geometry": {
"type": "Polygon",
"coordinates": [
[
[
-76.4619495,
-7.020866
],
[
-76.4629795,
-7.0215475
],
[
-76.4649107,
-7.0211215
],
[
-76.4672281,
-7.0216327
],
[
-76.4689018,
-7.0220586
],
[
-76.4668418,
-7.0246142
],
[
-76.4680006,
-7.0269568
],
[
-76.4670993,
-7.0272124
],
[
-76.465254,
-7.0269994
],
[
-76.4640953,
-7.0292142
],
[
-76.4627649,
-7.0291717
],
[
-76.4630224,
-7.0266587
],
[
-76.4622499,
-7.026105
],
[
-76.4613487,
-7.027042
],
[
-76.4597179,
-7.0259346
],
[
-76.4621212,
-7.0237623
],
[
-76.4608337,
-7.0226975
],
[
-76.4607479,
-7.0219308
],
[
-76.4619495,
-7.020866
]
]
]
}
},
{
"type": "Feature",
"properties": {
"idzonacomercial_calc": "805"
},
"geometry": {
"type": "Polygon",
"coordinates": [
[
[
-76.4416069,
-6.9990272
],
[
-76.4409524,
-6.9999856
],
[
-76.4400834,
-7.0014232
],
[
-76.4395899,
-7.0022005
],
[
-76.438871,
-7.0034251
],
[
-76.4382273,
-7.0031057
],
[
-76.4377552,
-7.0044261
],
[
-76.4373368,
-7.0036807
],
[
-76.4370149,
-7.0027862
],
[
-76.4365214,
-7.0015616
],
[
-76.4373153,
-7.0011144
],
[
-76.4375514,
-7.0010824
],
[
-76.437766,
-6.9998152
],
[
-76.4370364,
-6.9994531
],
[
-76.4373797,
-6.9977919
],
[
-76.4376479,
-6.9974511
],
[
-76.4384741,
-6.997153
],
[
-76.4398903,
-6.9978025
],
[
-76.4428943,
-6.9975257
],
[
-76.4427656,
-6.9984415
],
[
-76.4426905,
-6.9988568
],
[
-76.4424759,
-6.9989846
],
[
-76.4417249,
-6.9988355
],
[
-76.4416069,
-6.9990272
]
]
]
}
},
{
"type": "Feature",
"properties": {
"idzonacomercial_calc": "797"
},
"geometry": {
"type": "Polygon",
"coordinates": [
[
[
-76.428147,
-6.9940774
],
[
-76.4265377,
-6.995334
],
[
-76.4258081,
-6.9958664
],
[
-76.4242631,
-6.9952488
],
[
-76.4229757,
-6.9947589
],
[
-76.4215166,
-6.9948441
],
[
-76.4202291,
-6.993694
],
[
-76.4195854,
-6.9939496
],
[
-76.4193708,
-6.9937153
],
[
-76.4184696,
-6.9938431
],
[
-76.4180833,
-6.993332
],
[
-76.4174611,
-6.9929699
],
[
-76.4167744,
-6.9928208
],
[
-76.4164526,
-6.9902437
],
[
-76.4202291,
-6.9901586
],
[
-76.4204008,
-6.9892214
],
[
-76.4214307,
-6.9890298
],
[
-76.4212805,
-6.9908614
],
[
-76.4218384,
-6.9907975
],
[
-76.4220745,
-6.9902863
],
[
-76.4232546,
-6.9912235
],
[
-76.426645,
-6.991117
],
[
-76.428147,
-6.9940774
]
]
]
}
}
]
}