{
"type": "FeatureCollection",
"features": [
{
"type": "Feature",
"properties": {
"idzonacomercial_calc": "838"
},
"geometry": {
"type": "Polygon",
"coordinates": [
[
[
-77.307924,
-8.2589585
],
[
-77.3066311,
-8.259278
],
[
-77.3056066,
-8.2660085
],
[
-77.3056066,
-8.2683019
],
[
-77.3062503,
-8.2710623
],
[
-77.3052632,
-8.2739502
],
[
-77.306379,
-8.2759887
],
[
-77.3057782,
-8.283548
],
[
-77.3035948,
-8.2848974
],
[
-77.3025166,
-8.2855865
],
[
-77.2980105,
-8.2880496
],
[
-77.2969215,
-8.2887619
],
[
-77.2916591,
-8.2922963
],
[
-77.2874534,
-8.2883044
],
[
-77.2870671,
-8.2857139
],
[
-77.290157,
-8.2786217
],
[
-77.2878396,
-8.2776025
],
[
-77.2852647,
-8.2747996
],
[
-77.2830331,
-8.2699581
],
[
-77.2826039,
-8.2641823
],
[
-77.2853505,
-8.2621862
],
[
-77.2898137,
-8.2609121
],
[
-77.2959935,
-8.2601052
],
[
-77.3015725,
-8.2601477
],
[
-77.306559,
-8.2592141
],
[
-77.3066365,
-8.2586612
],
[
-77.307924,
-8.2589585
]
]
]
}
}
]
}