{
"type": "FeatureCollection",
"features": [
{
"type": "Feature",
"properties": {
"idzonacomercial_calc": "412"
},
"geometry": {
"type": "Polygon",
"coordinates": [
[
[
-80.4810158,
-3.6105338
],
[
-80.472261,
-3.6251816
],
[
-80.469944,
-3.6359746
],
[
-80.455009,
-3.6453969
],
[
-80.452863,
-3.6731493
],
[
-80.4484,
-3.6735776
],
[
-80.445911,
-3.6629564
],
[
-80.447456,
-3.647367
],
[
-80.442564,
-3.6444546
],
[
-80.444452,
-3.6392295
],
[
-80.453207,
-3.6367455
],
[
-80.457327,
-3.6331478
],
[
-80.464193,
-3.6214126
],
[
-80.464193,
-3.6148168
],
[
-80.473205,
-3.6066791
],
[
-80.4810158,
-3.6105338
]
]
]
}
}
]
}