{
"type": "FeatureCollection",
"features": [
{
"type": "Feature",
"properties": {
"idzonacomercial_calc": "712"
},
"geometry": {
"type": "Polygon",
"coordinates": [
[
[
-78.2931945,
-5.1593633
],
[
-78.2924391,
-5.1698263
],
[
-78.2821395,
-5.1698263
],
[
-78.2844054,
-5.1573117
],
[
-78.2931945,
-5.1593633
]
]
]
}
},
{
"type": "Feature",
"properties": {
"idzonacomercial_calc": "713"
},
"geometry": {
"type": "Polygon",
"coordinates": [
[
[
-77.8809049,
-4.5896159
],
[
-77.8708112,
-4.6081983
],
[
-77.8607519,
-4.604434
],
[
-77.8635671,
-4.5912928
],
[
-77.8809049,
-4.5896159
]
]
]
}
}
]
}