{
"type": "FeatureCollection",
"features": [
{
"type": "Feature",
"properties": {
"idzonacomercial_calc": "748"
},
"geometry": {
"type": "Polygon",
"coordinates": [
[
[
-78.9912859,
-8.121436
],
[
-78.9916063,
-8.1214581
],
[
-78.9925861,
-8.1220995
],
[
-78.9935311,
-8.1219725
],
[
-78.9942501,
-8.1228095
],
[
-78.9848939,
-8.1308815
],
[
-78.9797437,
-8.1272285
],
[
-78.9717615,
-8.1220445
],
[
-78.9695305,
-8.1206855
],
[
-78.9698412,
-8.1179977
],
[
-78.9722765,
-8.1193255
],
[
-78.9643586,
-8.1056871
],
[
-78.9857092,
-8.0958298
],
[
-78.98734,
-8.0949592
],
[
-78.991417,
-8.0980825
],
[
-78.9926191,
-8.0988465
],
[
-78.9933061,
-8.0990165
],
[
-78.9950221,
-8.0989315
],
[
-79.0025756,
-8.0967651
],
[
-79.0051777,
-8.0999308
],
[
-79.0045715,
-8.1001325
],
[
-79.0030909,
-8.1018851
],
[
-79.002232,
-8.102905
],
[
-79.0020611,
-8.1031811
],
[
-78.9985843,
-8.1071751
],
[
-78.9974205,
-8.1080142
],
[
-78.9964061,
-8.1085464
],
[
-78.991814,
-8.1116477
],
[
-78.9904839,
-8.113772
],
[
-78.9901832,
-8.1141973
],
[
-78.9883376,
-8.117171
],
[
-78.9863108,
-8.1197503
],
[
-78.9849694,
-8.12091
],
[
-78.9912859,
-8.121436
]
]
]
}
}
]
}