{
"type": "FeatureCollection",
"features": [
{
"type": "Feature",
"properties": {
"idzonacomercial_calc": "758"
},
"geometry": {
"type": "Polygon",
"coordinates": [
[
[
-80.4824736,
-3.6114843
],
[
-80.4778047,
-3.6166505
],
[
-80.471335,
-3.6241456
],
[
-80.4690175,
-3.6349386
],
[
-80.454083,
-3.6443609
],
[
-80.4559846,
-3.6901959
],
[
-80.447474,
-3.6725416
],
[
-80.4449849,
-3.6619204
],
[
-80.4465299,
-3.646331
],
[
-80.4416375,
-3.6434186
],
[
-80.4435258,
-3.6381935
],
[
-80.4522805,
-3.6357095
],
[
-80.4564004,
-3.6321118
],
[
-80.4632669,
-3.6203766
],
[
-80.4632669,
-3.6137808
],
[
-80.4722791,
-3.6056431
],
[
-80.4824736,
-3.6114843
]
]
]
}
}
]
}