{
"type": "FeatureCollection",
"features": [
{
"type": "Feature",
"properties": {
"idzonacomercial_calc": "786"
},
"geometry": {
"type": "Polygon",
"coordinates": [
[
[
-78.8168429,
-7.480445
],
[
-78.8177727,
-7.4797217
],
[
-78.8183163,
-7.47897
],
[
-78.8193749,
-7.4774523
],
[
-78.8205765,
-7.4755659
],
[
-78.8263844,
-7.4750837
],
[
-78.8310764,
-7.4777502
],
[
-78.8331936,
-7.4829129
],
[
-78.8303612,
-7.4872246
],
[
-78.8306473,
-7.4910257
],
[
-78.8273285,
-7.4905718
],
[
-78.8287018,
-7.4945431
],
[
-78.8274429,
-7.4981739
],
[
-78.8298462,
-7.5001027
],
[
-78.8319061,
-7.5011239
],
[
-78.8287018,
-7.5047546
],
[
-78.8233231,
-7.5067969
],
[
-78.8171433,
-7.5139449
],
[
-78.8119934,
-7.524156
],
[
-78.8085602,
-7.5309633
],
[
-78.8099335,
-7.5357283
],
[
-78.81371,
-7.5418547
],
[
-78.81577,
-7.5472436
],
[
-78.8060425,
-7.5475839
],
[
-78.801236,
-7.5403231
],
[
-78.804097,
-7.5341967
],
[
-78.8075303,
-7.5241604
],
[
-78.8109635,
-7.521612
],
[
-78.8110922,
-7.5200893
],
[
-78.8107489,
-7.5198518
],
[
-78.810984,
-7.5191595
],
[
-78.8104896,
-7.5181907
],
[
-78.8110457,
-7.5169338
],
[
-78.8110422,
-7.5159517
],
[
-78.810883,
-7.5147169
],
[
-78.8096939,
-7.5139927
],
[
-78.8094596,
-7.5131728
],
[
-78.8088391,
-7.5126933
],
[
-78.8077055,
-7.5125213
],
[
-78.8068293,
-7.5117962
],
[
-78.8059853,
-7.5085981
],
[
-78.8096938,
-7.5041057
],
[
-78.8101409,
-7.5005068
],
[
-78.8124941,
-7.4943303
],
[
-78.8148258,
-7.4907278
],
[
-78.8159989,
-7.4863169
],
[
-78.8134525,
-7.4819201
],
[
-78.8168429,
-7.480445
]
]
]
}
}
]
}