{
"type": "FeatureCollection",
"features": [
{
"type": "Feature",
"properties": {
"idzonacomercial_calc": "614"
},
"geometry": {
"type": "Polygon",
"coordinates": [
[
[
-76.2378066,
-6.9902832
],
[
-76.2387508,
-6.990986
],
[
-76.2382787,
-6.9919444
],
[
-76.2370771,
-6.9924556
],
[
-76.2354248,
-6.9931584
],
[
-76.2334507,
-6.9933714
],
[
-76.2316483,
-6.9924343
],
[
-76.2304896,
-6.9928815
],
[
-76.2297386,
-6.9938613
],
[
-76.2267989,
-6.9919657
],
[
-76.2263053,
-6.9920083
],
[
-76.2256401,
-6.9903471
],
[
-76.2260478,
-6.9886219
],
[
-76.227507,
-6.9876848
],
[
-76.2289661,
-6.9884302
],
[
-76.2288803,
-6.9889414
],
[
-76.2303394,
-6.9903258
],
[
-76.2323564,
-6.9905388
],
[
-76.2339872,
-6.9899424
],
[
-76.2346738,
-6.9906452
],
[
-76.236605,
-6.9907304
],
[
-76.2378066,
-6.9902832
]
]
]
}
},
{
"type": "Feature",
"properties": {
"idzonacomercial_calc": "612"
},
"geometry": {
"type": "Polygon",
"coordinates": [
[
[
-76.265126,
-6.8954429
],
[
-76.266113,
-6.8968702
],
[
-76.2664349,
-6.8971258
],
[
-76.2661559,
-6.8992135
],
[
-76.2661345,
-6.9001295
],
[
-76.2658985,
-6.900449
],
[
-76.2650187,
-6.9006407
],
[
-76.2648041,
-6.9008111
],
[
-76.2638171,
-6.9009815
],
[
-76.2632377,
-6.9005555
],
[
-76.2622507,
-6.9010028
],
[
-76.2610061,
-6.9010668
],
[
-76.2613709,
-6.8994265
],
[
-76.2593968,
-6.8986809
],
[
-76.2592037,
-6.8977862
],
[
-76.2589676,
-6.8965294
],
[
-76.2612851,
-6.8974454
],
[
-76.2619502,
-6.895869
],
[
-76.2634308,
-6.8950595
],
[
-76.265126,
-6.8954429
]
]
]
}
},
{
"type": "Feature",
"properties": {
"idzonacomercial_calc": "617"
},
"geometry": {
"type": "Polygon",
"coordinates": [
[
[
-76.1359801,
-7.0186729
],
[
-76.1364522,
-7.0191201
],
[
-76.1359587,
-7.0213563
],
[
-76.1369243,
-7.0218248
],
[
-76.1390486,
-7.0210155
],
[
-76.1393061,
-7.0213137
],
[
-76.1391773,
-7.0214841
],
[
-76.1374393,
-7.0225915
],
[
-76.1366024,
-7.0231026
],
[
-76.1351647,
-7.024423
],
[
-76.1341992,
-7.0266804
],
[
-76.1328259,
-7.0275749
],
[
-76.1321178,
-7.0293212
],
[
-76.1312809,
-7.0287462
],
[
-76.1300149,
-7.0283416
],
[
-76.1290708,
-7.0288314
],
[
-76.1289849,
-7.0276601
],
[
-76.1289206,
-7.0268082
],
[
-76.1296287,
-7.0260415
],
[
-76.1292424,
-7.0251045
],
[
-76.1294785,
-7.0245934
],
[
-76.1302939,
-7.0244017
],
[
-76.1313453,
-7.023273
],
[
-76.1313667,
-7.0226767
],
[
-76.1321178,
-7.0206961
],
[
-76.1319461,
-7.0200785
],
[
-76.1311092,
-7.019397
],
[
-76.1315384,
-7.0190988
],
[
-76.1346498,
-7.0197803
],
[
-76.1359801,
-7.0186729
]
]
]
}
},
{
"type": "Feature",
"properties": {
"idzonacomercial_calc": "616"
},
"geometry": {
"type": "Polygon",
"coordinates": [
[
[
-76.1692625,
-6.995108
],
[
-76.1694235,
-6.9954381
],
[
-76.1683398,
-6.9969503
],
[
-76.1670309,
-6.9977383
],
[
-76.165958,
-6.9986328
],
[
-76.1654645,
-6.9990907
],
[
-76.1635977,
-6.9989416
],
[
-76.1634046,
-6.9984518
],
[
-76.163941,
-6.9969077
],
[
-76.1632973,
-6.9961942
],
[
-76.1640054,
-6.9960558
],
[
-76.1652285,
-6.9948098
],
[
-76.1664301,
-6.9946927
],
[
-76.169123,
-6.9948098
],
[
-76.1692625,
-6.995108
]
]
]
}
},
{
"type": "Feature",
"properties": {
"idzonacomercial_calc": "611"
},
"geometry": {
"type": "Polygon",
"coordinates": [
[
[
-76.3109271,
-6.8913923
],
[
-76.3112704,
-6.8912006
],
[
-76.3120858,
-6.8918184
],
[
-76.3122575,
-6.8921273
],
[
-76.3127296,
-6.8919995
],
[
-76.3130192,
-6.8930433
],
[
-76.3132767,
-6.8936398
],
[
-76.3126115,
-6.8938528
],
[
-76.3125257,
-6.8942895
],
[
-76.3123219,
-6.8945558
],
[
-76.3119034,
-6.8943001
],
[
-76.3113455,
-6.8941297
],
[
-76.3111202,
-6.893906
],
[
-76.3108842,
-6.8929155
],
[
-76.3105194,
-6.8923403
],
[
-76.3103477,
-6.8919356
],
[
-76.3109271,
-6.8913923
]
]
]
}
},
{
"type": "Feature",
"properties": {
"idzonacomercial_calc": "615"
},
"geometry": {
"type": "Polygon",
"coordinates": [
[
[
-76.1985621,
-7.0037788
],
[
-76.1983904,
-7.0060363
],
[
-76.1971459,
-7.0077827
],
[
-76.1953434,
-7.0087198
],
[
-76.1947855,
-7.0079105
],
[
-76.1937556,
-7.0064197
],
[
-76.1933693,
-7.005227
],
[
-76.1926827,
-7.0043751
],
[
-76.1932835,
-7.0037362
],
[
-76.1952147,
-7.002075
],
[
-76.1962447,
-7.0030547
],
[
-76.1985621,
-7.0037788
]
]
]
}
},
{
"type": "Feature",
"properties": {
"idzonacomercial_calc": "610"
},
"geometry": {
"type": "Polygon",
"coordinates": [
[
[
-76.3317746,
-6.9181012
],
[
-76.3278264,
-6.9202633
],
[
-76.3273329,
-6.918687
],
[
-76.3273758,
-6.9177072
],
[
-76.327644,
-6.916706
],
[
-76.3281161,
-6.9154918
],
[
-76.3285452,
-6.9144693
],
[
-76.3289315,
-6.9136173
],
[
-76.3283414,
-6.9124776
],
[
-76.3286633,
-6.9108374
],
[
-76.328674,
-6.9105285
],
[
-76.3294035,
-6.9101451
],
[
-76.3289422,
-6.9079297
],
[
-76.3289315,
-6.9077699
],
[
-76.3342959,
-6.9065877
],
[
-76.3336736,
-6.9087498
],
[
-76.3326973,
-6.9118918
],
[
-76.331721,
-6.9150551
],
[
-76.3315279,
-6.9159924
],
[
-76.3314635,
-6.9163865
],
[
-76.3315922,
-6.9173876
],
[
-76.3317746,
-6.9181012
]
]
]
}
},
{
"type": "Feature",
"properties": {
"idzonacomercial_calc": "613"
},
"geometry": {
"type": "Polygon",
"coordinates": [
[
[
-76.2521563,
-6.9340927
],
[
-76.253551,
-6.9331129
],
[
-76.2541947,
-6.9331129
],
[
-76.2541947,
-6.9346891
],
[
-76.2553535,
-6.9356476
],
[
-76.2548385,
-6.937586
],
[
-76.2548814,
-6.938012
],
[
-76.2542377,
-6.939077
],
[
-76.2545381,
-6.940206
],
[
-76.2531433,
-6.9414414
],
[
-76.2530146,
-6.94191
],
[
-76.2528858,
-6.9407172
],
[
-76.2515769,
-6.9394605
],
[
-76.2509117,
-6.9374156
],
[
-76.2508473,
-6.9367766
],
[
-76.2491951,
-6.9363719
],
[
-76.2487016,
-6.9351577
],
[
-76.2495599,
-6.9344122
],
[
-76.2505899,
-6.9333259
],
[
-76.2511048,
-6.9331555
],
[
-76.2521563,
-6.9340927
]
]
]
}
}
]
}