{
"type": "FeatureCollection",
"features": [
{
"type": "Feature",
"properties": {
"idzonacomercial_calc": "781"
},
"geometry": {
"type": "Polygon",
"coordinates": [
[
[
-79.1780976,
-7.89464
],
[
-79.1744354,
-7.8920328
],
[
-79.17146,
-7.8805836
],
[
-79.1847351,
-7.8778629
],
[
-79.1922882,
-7.87945
],
[
-79.1969231,
-7.8816039
],
[
-79.2039613,
-7.8800169
],
[
-79.2135743,
-7.8808103
],
[
-79.2176944,
-7.8783164
],
[
-79.2276507,
-7.8689073
],
[
-79.2307404,
-7.8615387
],
[
-79.2385224,
-7.8526961
],
[
-79.250882,
-7.8479346
],
[
-79.2710236,
-7.8422661
],
[
-79.2750862,
-7.8411324
],
[
-79.2832115,
-7.8365409
],
[
-79.2893914,
-7.8500886
],
[
-79.2931679,
-7.8574575
],
[
-79.2954567,
-7.8698142
],
[
-79.2953423,
-7.8749156
],
[
-79.3012932,
-7.8754824
],
[
-79.3034676,
-7.8836443
],
[
-79.3004921,
-7.8903891
],
[
-79.3017509,
-7.9007045
],
[
-79.305642,
-7.9098862
],
[
-79.3122795,
-7.9134
],
[
-79.3083886,
-7.9198043
],
[
-79.3087319,
-7.924905
],
[
-79.3032387,
-7.9298923
],
[
-79.26101,
-7.9614015
],
[
-79.2157166,
-7.994835
],
[
-79.2035859,
-7.980205
],
[
-79.202327,
-7.9599179
],
[
-79.202327,
-7.9424634
],
[
-79.1868775,
-7.9282953
],
[
-79.1850465,
-7.918094
],
[
-79.1812699,
-7.9134466
],
[
-79.1746323,
-7.8987107
],
[
-79.1780976,
-7.89464
]
]
]
}
}
]
}