{
"type": "FeatureCollection",
"features": [
{
"type": "Feature",
"properties": {
"idzonacomercial_calc": "423"
},
"geometry": {
"type": "Polygon",
"coordinates": [
[
[
-80.8423156,
-3.877102
],
[
-80.836822,
-3.8836102
],
[
-80.823433,
-3.8788147
],
[
-80.793564,
-3.7849545
],
[
-80.783264,
-3.7561778
],
[
-80.763351,
-3.7424743
],
[
-80.722839,
-3.7167797
],
[
-80.690052,
-3.6909129
],
[
-80.68473,
-3.6854311
],
[
-80.69091,
-3.682005
],
[
-80.732967,
-3.711298
],
[
-80.764725,
-3.7210622
],
[
-80.772793,
-3.7378493
],
[
-80.786697,
-3.7464141
],
[
-80.801289,
-3.7828991
],
[
-80.817253,
-3.8130451
],
[
-80.831329,
-3.8431901
],
[
-80.842316,
-3.877102
]
]
]
}
}
]
}