{
"type": "FeatureCollection",
"features": [
{
"type": "Feature",
"properties": {
"idzonacomercial_calc": "766"
},
"geometry": {
"type": "Polygon",
"coordinates": [
[
[
-80.8377879,
-3.8695692
],
[
-80.8306826,
-3.8667471
],
[
-80.8234328,
-3.8788147
],
[
-80.7935637,
-3.7849545
],
[
-80.783264,
-3.7561778
],
[
-80.7633513,
-3.7424743
],
[
-80.7228392,
-3.7167797
],
[
-80.6900519,
-3.6909129
],
[
-80.6147573,
-3.6604503
],
[
-80.5805288,
-3.6394073
],
[
-80.5888329,
-3.6327083
],
[
-80.6909102,
-3.682005
],
[
-80.7329673,
-3.711298
],
[
-80.7647246,
-3.7210622
],
[
-80.7727927,
-3.7378493
],
[
-80.7866973,
-3.7464141
],
[
-80.8012885,
-3.7828991
],
[
-80.817253,
-3.8130451
],
[
-80.8313292,
-3.8431901
],
[
-80.8377879,
-3.8695692
]
]
]
}
}
]
}