{
"type": "FeatureCollection",
"features": [
{
"type": "Feature",
"properties": {
"idzonacomercial_calc": "782"
},
"geometry": {
"type": "Polygon",
"coordinates": [
[
[
-79.5584136,
-7.400089
],
[
-79.5584458,
-7.4016211
],
[
-79.5570403,
-7.400621
],
[
-79.5570617,
-7.3990676
],
[
-79.5567613,
-7.398259
],
[
-79.5564502,
-7.3978547
],
[
-79.5564609,
-7.3970142
],
[
-79.5564073,
-7.3965567
],
[
-79.5562356,
-7.3953651
],
[
-79.5558172,
-7.3950778
],
[
-79.5558816,
-7.3949395
],
[
-79.5570188,
-7.394865
],
[
-79.5564073,
-7.3930669
],
[
-79.5558494,
-7.3926413
],
[
-79.5548623,
-7.3920455
],
[
-79.5545619,
-7.3910667
],
[
-79.5543044,
-7.3903432
],
[
-79.5537036,
-7.3898537
],
[
-79.5545374,
-7.3890623
],
[
-79.5547306,
-7.3882963
],
[
-79.5554709,
-7.3873813
],
[
-79.5559644,
-7.3865939
],
[
-79.5565759,
-7.3855725
],
[
-79.556136,
-7.3854767
],
[
-79.5562004,
-7.3849447
],
[
-79.5564794,
-7.3844553
],
[
-79.5563935,
-7.3831998
],
[
-79.5572733,
-7.3823273
],
[
-79.5578634,
-7.3806888
],
[
-79.5581638,
-7.3805824
],
[
-79.5579492,
-7.3804121
],
[
-79.557799,
-7.3798376
],
[
-79.5580672,
-7.3799014
],
[
-79.5581638,
-7.3802632
],
[
-79.5599233,
-7.3811676
],
[
-79.5607494,
-7.3824976
],
[
-79.5612001,
-7.3833488
],
[
-79.561361,
-7.3838488
],
[
-79.561597,
-7.3842851
],
[
-79.5619296,
-7.3848383
],
[
-79.5629918,
-7.3855725
],
[
-79.5627772,
-7.3851043
],
[
-79.5634638,
-7.3839446
],
[
-79.5640325,
-7.3837212
],
[
-79.5641398,
-7.3839659
],
[
-79.563775,
-7.3841255
],
[
-79.5643114,
-7.3849447
],
[
-79.566028,
-7.385381
],
[
-79.5660924,
-7.385615
],
[
-79.5660709,
-7.3858278
],
[
-79.5663392,
-7.3867109
],
[
-79.5664465,
-7.3875621
],
[
-79.5670902,
-7.3880728
],
[
-79.5674228,
-7.3883708
],
[
-79.5689248,
-7.3893922
],
[
-79.569236,
-7.3889985
],
[
-79.5699655,
-7.3868705
],
[
-79.570341,
-7.3856044
],
[
-79.5704161,
-7.3851575
],
[
-79.5704483,
-7.3847107
],
[
-79.5704483,
-7.3839659
],
[
-79.5704161,
-7.3823167
],
[
-79.5703839,
-7.3806781
],
[
-79.570341,
-7.3796035
],
[
-79.5702874,
-7.3765179
],
[
-79.5702767,
-7.3746346
],
[
-79.5702337,
-7.3712936
],
[
-79.5701908,
-7.3690592
],
[
-79.5700621,
-7.3638029
],
[
-79.5699333,
-7.3580358
],
[
-79.5684742,
-7.3548223
],
[
-79.5662426,
-7.3500553
],
[
-79.5634317,
-7.3435432
],
[
-79.5634317,
-7.3427983
],
[
-79.5624017,
-7.343341
],
[
-79.5621978,
-7.343905
],
[
-79.5617365,
-7.3439263
],
[
-79.5615756,
-7.3434049
],
[
-79.5611464,
-7.3423408
],
[
-79.5605349,
-7.3420747
],
[
-79.560449,
-7.3414044
],
[
-79.5609104,
-7.3406169
],
[
-79.5610928,
-7.3402764
],
[
-79.5606636,
-7.3391804
],
[
-79.56061,
-7.3389463
],
[
-79.5610928,
-7.3375311
],
[
-79.5601379,
-7.3372331
],
[
-79.5596658,
-7.3371693
],
[
-79.5593332,
-7.3363286
],
[
-79.5595371,
-7.3360413
],
[
-79.560449,
-7.3352645
],
[
-79.560964,
-7.3346793
],
[
-79.5614039,
-7.3333172
],
[
-79.5603847,
-7.3328597
],
[
-79.5605671,
-7.3313167
],
[
-79.5600628,
-7.3306569
],
[
-79.5602452,
-7.3302845
],
[
-79.5616078,
-7.3306569
],
[
-79.5632385,
-7.3307846
],
[
-79.5637642,
-7.330923
],
[
-79.5646118,
-7.3314976
],
[
-79.5651697,
-7.3317849
],
[
-79.566307,
-7.3318807
],
[
-79.5671331,
-7.3318488
],
[
-79.5674979,
-7.3321041
],
[
-79.5677876,
-7.3326681
],
[
-79.5675944,
-7.3333066
],
[
-79.5671116,
-7.3334449
],
[
-79.5664035,
-7.3334024
],
[
-79.5651697,
-7.333945
],
[
-79.5651054,
-7.3341685
],
[
-79.565556,
-7.3351688
],
[
-79.5658993,
-7.335488
],
[
-79.5662104,
-7.3359775
],
[
-79.5662533,
-7.3364244
],
[
-79.5659315,
-7.336584
],
[
-79.5654058,
-7.3379886
],
[
-79.565159,
-7.3386697
],
[
-79.5645904,
-7.3398189
],
[
-79.5649659,
-7.3406169
],
[
-79.5650302,
-7.3412128
],
[
-79.5649444,
-7.3424685
],
[
-79.5646333,
-7.3427132
],
[
-79.5640754,
-7.3427558
],
[
-79.5640539,
-7.3437986
],
[
-79.5652126,
-7.3466077
],
[
-79.5667147,
-7.3498744
],
[
-79.5689286,
-7.3546485
],
[
-79.5702482,
-7.3575427
],
[
-79.5703984,
-7.3579896
],
[
-79.5704092,
-7.3594154
],
[
-79.5704628,
-7.3615435
],
[
-79.5732308,
-7.3617031
],
[
-79.5733489,
-7.3623947
],
[
-79.5746792,
-7.3627352
],
[
-79.5753659,
-7.3634162
],
[
-79.5777262,
-7.363927
],
[
-79.5786382,
-7.3642462
],
[
-79.5784987,
-7.3646186
],
[
-79.5780266,
-7.3652144
],
[
-79.5772649,
-7.3666722
],
[
-79.5744003,
-7.3715028
],
[
-79.5738209,
-7.3713219
],
[
-79.5722116,
-7.3712794
],
[
-79.5717073,
-7.3710453
],
[
-79.5708705,
-7.3705026
],
[
-79.5705594,
-7.3703111
],
[
-79.5705915,
-7.3713113
],
[
-79.5705808,
-7.3729658
],
[
-79.5705969,
-7.3746204
],
[
-79.5706398,
-7.3764877
],
[
-79.5707042,
-7.380765
],
[
-79.5707686,
-7.3823397
],
[
-79.5707686,
-7.3839357
],
[
-79.5708008,
-7.384723
],
[
-79.5708008,
-7.385255
],
[
-79.5706935,
-7.3857232
],
[
-79.570275,
-7.3869574
],
[
-79.569685,
-7.3889683
],
[
-79.5693738,
-7.3894684
],
[
-79.5686013,
-7.3904579
],
[
-79.568022,
-7.3911707
],
[
-79.5681507,
-7.3915538
],
[
-79.568773,
-7.3919261
],
[
-79.5693094,
-7.3922879
],
[
-79.5697922,
-7.3923092
],
[
-79.5700283,
-7.3927773
],
[
-79.5700927,
-7.3934689
],
[
-79.5701034,
-7.3938838
],
[
-79.570275,
-7.3942349
],
[
-79.5702321,
-7.394618
],
[
-79.5709188,
-7.3955968
],
[
-79.5713694,
-7.396565
],
[
-79.5716805,
-7.3975971
],
[
-79.5717342,
-7.3981503
],
[
-79.5715089,
-7.3982461
],
[
-79.5715679,
-7.3983791
],
[
-79.570023,
-7.3989802
],
[
-79.5681937,
-7.399693
],
[
-79.568081,
-7.3994643
],
[
-79.5675285,
-7.3996823
],
[
-79.5668955,
-7.3998898
],
[
-79.5666004,
-7.3999377
],
[
-79.5653935,
-7.3999644
],
[
-79.5645995,
-7.3999909
],
[
-79.5622606,
-7.4000016
],
[
-79.559793,
-7.4001399
],
[
-79.5584136,
-7.400089
]
]
]
}
}
]
}