{
"type": "FeatureCollection",
"features": [
{
"type": "Feature",
"properties": {
"idzonacomercial_calc": "839"
},
"geometry": {
"type": "Polygon",
"coordinates": [
[
[
-76.9715024,
-6.0482582
],
[
-76.9778792,
-6.0481169
],
[
-76.9778363,
-6.0484477
],
[
-76.9776106,
-6.0489236
],
[
-76.9769673,
-6.0500054
],
[
-76.9766347,
-6.0509229
],
[
-76.9762484,
-6.0528433
],
[
-76.9759155,
-6.0538313
],
[
-76.9755507,
-6.0544715
],
[
-76.9758407,
-6.0550838
],
[
-76.9756261,
-6.0561721
],
[
-76.976227,
-6.0579004
],
[
-76.9760124,
-6.0584125
],
[
-76.9760553,
-6.0588393
],
[
-76.9747249,
-6.0593301
],
[
-76.974918,
-6.0597568
],
[
-76.9736735,
-6.0599489
],
[
-76.9734596,
-6.0603974
],
[
-76.9740497,
-6.0624032
],
[
-76.9735666,
-6.065702
],
[
-76.9920767,
-6.0707483
],
[
-76.9850386,
-6.0832945
],
[
-76.9517363,
-6.0688706
],
[
-76.9440544,
-6.0643045
],
[
-76.935171,
-6.0556625
],
[
-76.9364648,
-6.0452509
],
[
-76.9537684,
-6.0385501
],
[
-76.9534197,
-6.0349759
],
[
-76.9535592,
-6.0347305
],
[
-76.9544121,
-6.0347678
],
[
-76.9544604,
-6.0345758
],
[
-76.9561234,
-6.0348212
],
[
-76.9562414,
-6.0345651
],
[
-76.9568798,
-6.0346398
],
[
-76.9570032,
-6.0343677
],
[
-76.9572446,
-6.0344478
],
[
-76.9573948,
-6.0346078
],
[
-76.9579258,
-6.0345971
],
[
-76.9589344,
-6.0342984
],
[
-76.9598141,
-6.0342237
],
[
-76.9600877,
-6.033957
],
[
-76.9608226,
-6.033957
],
[
-76.9619867,
-6.0335515
],
[
-76.9626036,
-6.0355147
],
[
-76.965141,
-6.0345598
],
[
-76.9658598,
-6.0359895
],
[
-76.9668844,
-6.037926
],
[
-76.9674048,
-6.0391689
],
[
-76.9680485,
-6.0414415
],
[
-76.9689658,
-6.0411001
],
[
-76.9691482,
-6.0418416
],
[
-76.9683167,
-6.0424551
],
[
-76.9681075,
-6.0428818
],
[
-76.9679841,
-6.0429032
],
[
-76.9675979,
-6.0438101
],
[
-76.967394,
-6.0442848
],
[
-76.9671848,
-6.0448503
],
[
-76.9671894,
-6.0452708
],
[
-76.9688845,
-6.047618
],
[
-76.9704724,
-6.0483862
],
[
-76.9715024,
-6.0482582
]
]
]
}
}
]
}