{
"type": "FeatureCollection",
"features": [
{
"type": "Feature",
"properties": {
"idzonacomercial_calc": "581"
},
"geometry": {
"type": "Polygon",
"coordinates": [
[
[
-81.048542,
-4.0997193
],
[
-81.05764,
-4.1062257
],
[
-81.076866,
-4.1111911
],
[
-81.087853,
-4.1178686
],
[
-81.101242,
-4.1305386
],
[
-81.111885,
-4.1466327
],
[
-81.107594,
-4.1545084
],
[
-81.106049,
-4.1514267
],
[
-81.102272,
-4.1385857
],
[
-81.090256,
-4.126087
],
[
-81.069142,
-4.1129032
],
[
-81.051975,
-4.1117047
],
[
-81.035496,
-4.105712
],
[
-81.029488,
-4.1029725
],
[
-81.032921,
-4.0997193
],
[
-81.038242,
-4.0997193
],
[
-81.048542,
-4.0997193
]
]
]
}
},
{
"type": "Feature",
"properties": {
"idzonacomercial_calc": "582"
},
"geometry": {
"type": "Polygon",
"coordinates": [
[
[
-81.12167,
-4.1671779
],
[
-81.134716,
-4.1798472
],
[
-81.132485,
-4.1832712
],
[
-81.12579,
-4.1854969
],
[
-81.120983,
-4.1827576
],
[
-81.116005,
-4.1771079
],
[
-81.114632,
-4.170602
],
[
-81.12167,
-4.1671779
]
]
]
}
},
{
"type": "Feature",
"properties": {
"idzonacomercial_calc": "583"
},
"geometry": {
"type": "Polygon",
"coordinates": [
[
[
-81.175552,
-4.2146623
],
[
-81.171604,
-4.2180007
],
[
-81.170231,
-4.2170163
],
[
-81.165253,
-4.2187282
],
[
-81.164781,
-4.2180007
],
[
-81.167441,
-4.2166739
],
[
-81.170231,
-4.2153043
],
[
-81.172935,
-4.2137635
],
[
-81.175552,
-4.2146623
]
]
]
}
}
]
}