{
"type": "FeatureCollection",
"features": [
{
"type": "Feature",
"properties": {
"idzonacomercial_calc": "694"
},
"geometry": {
"type": "Polygon",
"coordinates": [
[
[
-76.3533361,
-6.5093043
],
[
-76.3472755,
-6.5079441
],
[
-76.3440472,
-6.5053474
],
[
-76.3439775,
-6.5049423
],
[
-76.3443798,
-6.5043028
],
[
-76.3447232,
-6.5038577
],
[
-76.3452918,
-6.5033593
],
[
-76.346354,
-6.5027997
],
[
-76.3468583,
-6.5024106
],
[
-76.3478882,
-6.5017444
],
[
-76.3490683,
-6.500849
],
[
-76.3546473,
-6.5032155
],
[
-76.355849,
-6.5102509
],
[
-76.3533361,
-6.5093043
]
]
]
}
}
]
}