{
"type": "FeatureCollection",
"features": [
{
"type": "Feature",
"properties": {
"idzonacomercial_calc": "750"
},
"geometry": {
"type": "Polygon",
"coordinates": [
[
[
-79.0034763,
-8.107875
],
[
-79.0076872,
-8.1084763
],
[
-79.0065762,
-8.1147913
],
[
-79.0081435,
-8.1156627
],
[
-79.004029,
-8.1187752
],
[
-79.0017498,
-8.1198784
],
[
-79.0007741,
-8.1198315
],
[
-78.9997314,
-8.1219297
],
[
-79.00147,
-8.1252
],
[
-79.001212,
-8.125795
],
[
-78.9988858,
-8.1323502
],
[
-78.9963109,
-8.1331433
],
[
-78.9943363,
-8.1333261
],
[
-78.9946224,
-8.1345156
],
[
-78.9953948,
-8.1351953
],
[
-78.9947654,
-8.1366681
],
[
-78.9948226,
-8.1376594
],
[
-78.992963,
-8.1400384
],
[
-78.9937068,
-8.1427007
],
[
-78.9915468,
-8.143522
],
[
-78.9733135,
-8.1405224
],
[
-78.9646446,
-8.1372229
],
[
-78.9636719,
-8.1352686
],
[
-78.9639008,
-8.1343623
],
[
-78.9636719,
-8.1332578
],
[
-78.9648735,
-8.1329462
],
[
-78.9640152,
-8.130992
],
[
-78.9633,
-8.1305105
],
[
-78.9630139,
-8.1298874
],
[
-78.9621269,
-8.128981
],
[
-78.9624989,
-8.1282446
],
[
-78.9616978,
-8.1269135
],
[
-78.9663326,
-8.123628
],
[
-78.9679062,
-8.1239679
],
[
-78.9722264,
-8.1264603
],
[
-78.9753735,
-8.1269418
],
[
-78.9777195,
-8.1274799
],
[
-78.9801228,
-8.1277915
],
[
-78.9848939,
-8.1308815
],
[
-78.9942501,
-8.1228095
],
[
-78.9935311,
-8.1219725
],
[
-78.9925861,
-8.1220995
],
[
-78.9916063,
-8.1214581
],
[
-78.9849694,
-8.12091
],
[
-78.9863108,
-8.1197503
],
[
-78.9869428,
-8.1189554
],
[
-78.9883376,
-8.117171
],
[
-78.991814,
-8.1116477
],
[
-78.9961184,
-8.1088223
],
[
-78.9982642,
-8.1075619
],
[
-79.0000434,
-8.1056004
],
[
-79.0011064,
-8.1043966
],
[
-79.0022392,
-8.1030016
],
[
-79.0031467,
-8.1041382
],
[
-79.0038002,
-8.1054021
],
[
-79.0034763,
-8.107875
]
]
]
}
}
]
}