{
"type": "FeatureCollection",
"features": [
{
"type": "Feature",
"properties": {
"idzonacomercial_calc": "751"
},
"geometry": {
"type": "Polygon",
"coordinates": [
[
[
-78.996754,
-8.175536
],
[
-78.996239,
-8.169334
],
[
-78.9940023,
-8.1699939
],
[
-78.9934873,
-8.1656326
],
[
-78.9932012,
-8.1579861
],
[
-78.9928006,
-8.1556638
],
[
-78.9937162,
-8.1515856
],
[
-78.997836,
-8.151529
],
[
-78.9976072,
-8.1481304
],
[
-79.0008115,
-8.1466577
],
[
-79.0024137,
-8.1463745
],
[
-79.0028714,
-8.1475073
],
[
-79.0049886,
-8.147564
],
[
-79.0071058,
-8.1477339
],
[
-79.0079641,
-8.1493765
],
[
-79.0092801,
-8.1504527
],
[
-79.0116834,
-8.150566
],
[
-79.0120267,
-8.14915
],
[
-79.0160894,
-8.1479605
],
[
-79.0193509,
-8.1539079
],
[
-79.0176915,
-8.156117
],
[
-79.0190076,
-8.1612147
],
[
-79.0239286,
-8.1609881
],
[
-79.0274762,
-8.1646698
],
[
-79.0293073,
-8.1676717
],
[
-79.0249585,
-8.1701072
],
[
-79.0219831,
-8.1722029
],
[
-79.0210103,
-8.1747516
],
[
-79.0178632,
-8.1780933
],
[
-79.0138578,
-8.1830733
],
[
-79.0100812,
-8.1854804
],
[
-79.0022992,
-8.1928999
],
[
-78.9955472,
-8.1916539
],
[
-78.9934301,
-8.190238
],
[
-78.996282,
-8.182332
],
[
-78.996883,
-8.178849
],
[
-78.996754,
-8.175536
]
]
]
}
}
]
}