{
"type": "FeatureCollection",
"features": [
{
"type": "Feature",
"properties": {
"idzonacomercial_calc": "776"
},
"geometry": {
"type": "Polygon",
"coordinates": [
[
[
-81.1755524,
-4.2146623
],
[
-81.1716042,
-4.2180007
],
[
-81.1702309,
-4.2170163
],
[
-81.1652527,
-4.2187282
],
[
-81.1647807,
-4.2180007
],
[
-81.1674414,
-4.2166739
],
[
-81.1702309,
-4.2153043
],
[
-81.1729346,
-4.2137635
],
[
-81.1755524,
-4.2146623
]
]
]
}
},
{
"type": "Feature",
"properties": {
"idzonacomercial_calc": "773"
},
"geometry": {
"type": "Polygon",
"coordinates": [
[
[
-81.0485421,
-4.0997193
],
[
-81.0576402,
-4.1062257
],
[
-81.0768663,
-4.1111911
],
[
-81.0878526,
-4.1178686
],
[
-81.1012422,
-4.1305386
],
[
-81.1118852,
-4.1466327
],
[
-81.1075936,
-4.1545084
],
[
-81.1060487,
-4.1514267
],
[
-81.1022721,
-4.1385857
],
[
-81.0902558,
-4.126087
],
[
-81.0691415,
-4.1129032
],
[
-81.0519754,
-4.1117047
],
[
-81.0354959,
-4.105712
],
[
-81.0294877,
-4.1029725
],
[
-81.0329209,
-4.0997193
],
[
-81.0382424,
-4.0997193
],
[
-81.0485421,
-4.0997193
]
]
]
}
},
{
"type": "Feature",
"properties": {
"idzonacomercial_calc": "774"
},
"geometry": {
"type": "Polygon",
"coordinates": [
[
[
-81.1216699,
-4.1671779
],
[
-81.1347161,
-4.1798472
],
[
-81.1324845,
-4.1832712
],
[
-81.1257897,
-4.1854969
],
[
-81.1209832,
-4.1827576
],
[
-81.116005,
-4.1771079
],
[
-81.1146318,
-4.170602
],
[
-81.1216699,
-4.1671779
]
]
]
}
}
]
}