{
"type": "FeatureCollection",
"features": [
{
"type": "Feature",
"properties": {
"idzonacomercial_calc": "698"
},
"geometry": {
"type": "Polygon",
"coordinates": [
[
[
-78.1509594,
-10.0620504
],
[
-78.1502727,
-10.0664026
],
[
-78.1502727,
-10.067797
],
[
-78.1497577,
-10.0715577
],
[
-78.1492857,
-10.0723605
],
[
-78.1466678,
-10.0721915
],
[
-78.1447796,
-10.0714309
],
[
-78.1419042,
-10.0685576
],
[
-78.1414751,
-10.0666139
],
[
-78.1428913,
-10.0643744
],
[
-78.1435779,
-10.0615433
],
[
-78.1449941,
-10.0601489
],
[
-78.1473116,
-10.0609517
],
[
-78.1498436,
-10.0615433
],
[
-78.1513027,
-10.0617123
],
[
-78.1509594,
-10.0620504
]
]
]
}
}
]
}